<?xml version="1.0" encoding="UTF-8"?>
<gpx version="1.1" creator="Open Plovdiv" xmlns="http://www.topografix.com/GPX/1/1">
  <metadata>
    <name>A family afternoon on level ground</name>
  </metadata>
  <wpt lat="42.141957" lon="24.747196">
    <name>1. Tzar Simeon Garden</name>
  </wpt>
  <wpt lat="42.14418" lon="24.748997">
    <name>2. Stefan Stambolov square, Plovdiv</name>
  </wpt>
  <wpt lat="42.147552" lon="24.747982">
    <name>3. Ancient Stadium</name>
  </wpt>
  <wpt lat="42.149922" lon="24.748517">
    <name>4. Kapana</name>
  </wpt>
  <wpt lat="42.149578" lon="24.743294">
    <name>5. City garden (Dondukova Garden)</name>
  </wpt>
  <trk>
    <name>A family afternoon on level ground</name>
    <trkseg>
      <trkpt lat="42.141957" lon="24.747196"></trkpt>
      <trkpt lat="42.14196" lon="24.747237"></trkpt>
      <trkpt lat="42.141961" lon="24.747521"></trkpt>
      <trkpt lat="42.142002" lon="24.747497"></trkpt>
      <trkpt lat="42.142047" lon="24.747497"></trkpt>
      <trkpt lat="42.142088" lon="24.74752"></trkpt>
      <trkpt lat="42.14212" lon="24.747562"></trkpt>
      <trkpt lat="42.142138" lon="24.747618"></trkpt>
      <trkpt lat="42.142308" lon="24.747618"></trkpt>
      <trkpt lat="42.14274" lon="24.747593"></trkpt>
      <trkpt lat="42.142835" lon="24.747579"></trkpt>
      <trkpt lat="42.143072" lon="24.747545"></trkpt>
      <trkpt lat="42.143101" lon="24.747552"></trkpt>
      <trkpt lat="42.143106" lon="24.747553"></trkpt>
      <trkpt lat="42.143057" lon="24.74785"></trkpt>
      <trkpt lat="42.143207" lon="24.748052"></trkpt>
      <trkpt lat="42.143267" lon="24.748132"></trkpt>
      <trkpt lat="42.143594" lon="24.748508"></trkpt>
      <trkpt lat="42.143632" lon="24.748514"></trkpt>
      <trkpt lat="42.143845" lon="24.748546"></trkpt>
      <trkpt lat="42.143849" lon="24.749098"></trkpt>
      <trkpt lat="42.144117" lon="24.749098"></trkpt>
      <trkpt lat="42.144127" lon="24.749064"></trkpt>
      <trkpt lat="42.144151" lon="24.749031"></trkpt>
      <trkpt lat="42.14418" lon="24.748997"></trkpt>
      <trkpt lat="42.144151" lon="24.749031"></trkpt>
      <trkpt lat="42.144127" lon="24.749064"></trkpt>
      <trkpt lat="42.144117" lon="24.749098"></trkpt>
      <trkpt lat="42.144116" lon="24.749137"></trkpt>
      <trkpt lat="42.144126" lon="24.749194"></trkpt>
      <trkpt lat="42.144144" lon="24.749243"></trkpt>
      <trkpt lat="42.144183" lon="24.74928"></trkpt>
      <trkpt lat="42.144217" lon="24.749294"></trkpt>
      <trkpt lat="42.144223" lon="24.749513"></trkpt>
      <trkpt lat="42.14466" lon="24.749464"></trkpt>
      <trkpt lat="42.145525" lon="24.749095"></trkpt>
      <trkpt lat="42.14561" lon="24.749052"></trkpt>
      <trkpt lat="42.146347" lon="24.748611"></trkpt>
      <trkpt lat="42.146559" lon="24.748487"></trkpt>
      <trkpt lat="42.146918" lon="24.748289"></trkpt>
      <trkpt lat="42.147145" lon="24.748175"></trkpt>
      <trkpt lat="42.14741" lon="24.748145"></trkpt>
      <trkpt lat="42.147453" lon="24.748154"></trkpt>
      <trkpt lat="42.147466" lon="24.74805"></trkpt>
      <trkpt lat="42.147483" lon="24.748036"></trkpt>
      <trkpt lat="42.147533" lon="24.747997"></trkpt>
      <trkpt lat="42.147552" lon="24.747982"></trkpt>
      <trkpt lat="42.147837" lon="24.747756"></trkpt>
      <trkpt lat="42.147985" lon="24.74777"></trkpt>
      <trkpt lat="42.148049" lon="24.747941"></trkpt>
      <trkpt lat="42.148106" lon="24.747921"></trkpt>
      <trkpt lat="42.148465" lon="24.747773"></trkpt>
      <trkpt lat="42.148823" lon="24.747625"></trkpt>
      <trkpt lat="42.149042" lon="24.747534"></trkpt>
      <trkpt lat="42.14928" lon="24.748354"></trkpt>
      <trkpt lat="42.149448" lon="24.748276"></trkpt>
      <trkpt lat="42.149519" lon="24.748243"></trkpt>
      <trkpt lat="42.149614" lon="24.748202"></trkpt>
      <trkpt lat="42.149922" lon="24.748517"></trkpt>
      <trkpt lat="42.149614" lon="24.748202"></trkpt>
      <trkpt lat="42.149749" lon="24.748146"></trkpt>
      <trkpt lat="42.149646" lon="24.74761"></trkpt>
      <trkpt lat="42.150015" lon="24.747427"></trkpt>
      <trkpt lat="42.149945" lon="24.747126"></trkpt>
      <trkpt lat="42.150129" lon="24.747044"></trkpt>
      <trkpt lat="42.15014" lon="24.746116"></trkpt>
      <trkpt lat="42.150147" lon="24.745602"></trkpt>
      <trkpt lat="42.150148" lon="24.745497"></trkpt>
      <trkpt lat="42.150167" lon="24.744777"></trkpt>
      <trkpt lat="42.150168" lon="24.744378"></trkpt>
      <trkpt lat="42.150191" lon="24.743994"></trkpt>
      <trkpt lat="42.150257" lon="24.743792"></trkpt>
      <trkpt lat="42.150228" lon="24.743759"></trkpt>
      <trkpt lat="42.149944" lon="24.743444"></trkpt>
      <trkpt lat="42.149913" lon="24.74341"></trkpt>
      <trkpt lat="42.149867" lon="24.743356"></trkpt>
      <trkpt lat="42.149742" lon="24.743234"></trkpt>
      <trkpt lat="42.14971" lon="24.743279"></trkpt>
      <trkpt lat="42.149676" lon="24.743304"></trkpt>
      <trkpt lat="42.149638" lon="24.743314"></trkpt>
      <trkpt lat="42.149601" lon="24.743308"></trkpt>
      <trkpt lat="42.149578" lon="24.743294"></trkpt>
    </trkseg>
  </trk>
</gpx>
