<?xml version="1.0" encoding="UTF-8"?>
<gpx version="1.1" creator="Open Plovdiv" xmlns="http://www.topografix.com/GPX/1/1">
  <metadata>
    <name>Filibe / Ottoman layer</name>
  </metadata>
  <wpt lat="42.147781" lon="24.748001">
    <name>1. Dzhumaya square</name>
  </wpt>
  <wpt lat="42.147801" lon="24.748228">
    <name>2. Dzhumaya Mosque</name>
  </wpt>
  <wpt lat="42.151864" lon="24.749915">
    <name>3. Chifte Hamam</name>
  </wpt>
  <wpt lat="42.148343" lon="24.752654">
    <name>4. Mevlevi Hane</name>
  </wpt>
  <wpt lat="42.146545" lon="24.745646">
    <name>5. Sahat hill in Plovdiv</name>
  </wpt>
  <trk>
    <name>Filibe / Ottoman layer</name>
    <trkseg>
      <trkpt lat="42.147781" lon="24.748001"></trkpt>
      <trkpt lat="42.147917" lon="24.748089"></trkpt>
      <trkpt lat="42.147938" lon="24.748103"></trkpt>
      <trkpt lat="42.147801" lon="24.748228"></trkpt>
      <trkpt lat="42.147938" lon="24.748103"></trkpt>
      <trkpt lat="42.148068" lon="24.747991"></trkpt>
      <trkpt lat="42.148082" lon="24.748029"></trkpt>
      <trkpt lat="42.148207" lon="24.748319"></trkpt>
      <trkpt lat="42.148236" lon="24.748387"></trkpt>
      <trkpt lat="42.148261" lon="24.748417"></trkpt>
      <trkpt lat="42.148464" lon="24.748733"></trkpt>
      <trkpt lat="42.14858" lon="24.748953"></trkpt>
      <trkpt lat="42.148662" lon="24.749109"></trkpt>
      <trkpt lat="42.148783" lon="24.749352"></trkpt>
      <trkpt lat="42.148848" lon="24.749485"></trkpt>
      <trkpt lat="42.148904" lon="24.749556"></trkpt>
      <trkpt lat="42.149054" lon="24.749719"></trkpt>
      <trkpt lat="42.14938" lon="24.750066"></trkpt>
      <trkpt lat="42.149438" lon="24.750127"></trkpt>
      <trkpt lat="42.149449" lon="24.750061"></trkpt>
      <trkpt lat="42.149626" lon="24.750133"></trkpt>
      <trkpt lat="42.149665" lon="24.750149"></trkpt>
      <trkpt lat="42.149704" lon="24.750165"></trkpt>
      <trkpt lat="42.149743" lon="24.75018"></trkpt>
      <trkpt lat="42.149863" lon="24.750203"></trkpt>
      <trkpt lat="42.149966" lon="24.750175"></trkpt>
      <trkpt lat="42.150188" lon="24.750118"></trkpt>
      <trkpt lat="42.150348" lon="24.750136"></trkpt>
      <trkpt lat="42.150624" lon="24.7501"></trkpt>
      <trkpt lat="42.15127" lon="24.749986"></trkpt>
      <trkpt lat="42.151305" lon="24.749941"></trkpt>
      <trkpt lat="42.151317" lon="24.749894"></trkpt>
      <trkpt lat="42.151432" lon="24.749937"></trkpt>
      <trkpt lat="42.151938" lon="24.750157"></trkpt>
      <trkpt lat="42.151852" lon="24.74998"></trkpt>
      <trkpt lat="42.151809" lon="24.749886"></trkpt>
      <trkpt lat="42.151802" lon="24.749872"></trkpt>
      <trkpt lat="42.151821" lon="24.74986"></trkpt>
      <trkpt lat="42.151826" lon="24.749857"></trkpt>
      <trkpt lat="42.151836" lon="24.74985"></trkpt>
      <trkpt lat="42.151864" lon="24.749915"></trkpt>
      <trkpt lat="42.151836" lon="24.74985"></trkpt>
      <trkpt lat="42.151826" lon="24.749857"></trkpt>
      <trkpt lat="42.151821" lon="24.74986"></trkpt>
      <trkpt lat="42.151802" lon="24.749872"></trkpt>
      <trkpt lat="42.151809" lon="24.749886"></trkpt>
      <trkpt lat="42.151852" lon="24.74998"></trkpt>
      <trkpt lat="42.151938" lon="24.750157"></trkpt>
      <trkpt lat="42.1519" lon="24.750511"></trkpt>
      <trkpt lat="42.151842" lon="24.750585"></trkpt>
      <trkpt lat="42.151798" lon="24.750546"></trkpt>
      <trkpt lat="42.151741" lon="24.7505"></trkpt>
      <trkpt lat="42.151729" lon="24.75055"></trkpt>
      <trkpt lat="42.1515" lon="24.750516"></trkpt>
      <trkpt lat="42.151374" lon="24.750477"></trkpt>
      <trkpt lat="42.151278" lon="24.750425"></trkpt>
      <trkpt lat="42.151237" lon="24.750424"></trkpt>
      <trkpt lat="42.151128" lon="24.750515"></trkpt>
      <trkpt lat="42.150884" lon="24.750824"></trkpt>
      <trkpt lat="42.150691" lon="24.751092"></trkpt>
      <trkpt lat="42.150199" lon="24.751686"></trkpt>
      <trkpt lat="42.15013" lon="24.751781"></trkpt>
      <trkpt lat="42.150066" lon="24.751875"></trkpt>
      <trkpt lat="42.149971" lon="24.751996"></trkpt>
      <trkpt lat="42.149912" lon="24.752108"></trkpt>
      <trkpt lat="42.149883" lon="24.752353"></trkpt>
      <trkpt lat="42.14985" lon="24.752706"></trkpt>
      <trkpt lat="42.149472" lon="24.75249"></trkpt>
      <trkpt lat="42.149394" lon="24.752438"></trkpt>
      <trkpt lat="42.149068" lon="24.752201"></trkpt>
      <trkpt lat="42.148849" lon="24.752106"></trkpt>
      <trkpt lat="42.148586" lon="24.752391"></trkpt>
      <trkpt lat="42.148343" lon="24.752654"></trkpt>
      <trkpt lat="42.148343" lon="24.752654"></trkpt>
      <trkpt lat="42.147487" lon="24.752491"></trkpt>
      <trkpt lat="42.147411" lon="24.752476"></trkpt>
      <trkpt lat="42.147483" lon="24.752063"></trkpt>
      <trkpt lat="42.147504" lon="24.751923"></trkpt>
      <trkpt lat="42.147607" lon="24.751553"></trkpt>
      <trkpt lat="42.147771" lon="24.751404"></trkpt>
      <trkpt lat="42.147732" lon="24.750985"></trkpt>
      <trkpt lat="42.147674" lon="24.750551"></trkpt>
      <trkpt lat="42.147773" lon="24.750331"></trkpt>
      <trkpt lat="42.147989" lon="24.749848"></trkpt>
      <trkpt lat="42.148062" lon="24.749735"></trkpt>
      <trkpt lat="42.14801" lon="24.749215"></trkpt>
      <trkpt lat="42.14797" lon="24.749075"></trkpt>
      <trkpt lat="42.147883" lon="24.748976"></trkpt>
      <trkpt lat="42.147861" lon="24.748878"></trkpt>
      <trkpt lat="42.14789" lon="24.748808"></trkpt>
      <trkpt lat="42.147847" lon="24.748713"></trkpt>
      <trkpt lat="42.147815" lon="24.748642"></trkpt>
      <trkpt lat="42.147793" lon="24.748595"></trkpt>
      <trkpt lat="42.147728" lon="24.748448"></trkpt>
      <trkpt lat="42.147679" lon="24.748338"></trkpt>
      <trkpt lat="42.147601" lon="24.748408"></trkpt>
      <trkpt lat="42.147576" lon="24.748384"></trkpt>
      <trkpt lat="42.147453" lon="24.748154"></trkpt>
      <trkpt lat="42.147466" lon="24.74805"></trkpt>
      <trkpt lat="42.147483" lon="24.748036"></trkpt>
      <trkpt lat="42.147467" lon="24.748002"></trkpt>
      <trkpt lat="42.14736" lon="24.747787"></trkpt>
      <trkpt lat="42.147302" lon="24.747669"></trkpt>
      <trkpt lat="42.147259" lon="24.74764"></trkpt>
      <trkpt lat="42.147285" lon="24.747561"></trkpt>
      <trkpt lat="42.147296" lon="24.747527"></trkpt>
      <trkpt lat="42.147308" lon="24.747406"></trkpt>
      <trkpt lat="42.147295" lon="24.746874"></trkpt>
      <trkpt lat="42.147252" lon="24.746019"></trkpt>
      <trkpt lat="42.147226" lon="24.746104"></trkpt>
      <trkpt lat="42.147202" lon="24.746161"></trkpt>
      <trkpt lat="42.147141" lon="24.746236"></trkpt>
      <trkpt lat="42.147071" lon="24.746327"></trkpt>
      <trkpt lat="42.146973" lon="24.746416"></trkpt>
      <trkpt lat="42.146923" lon="24.7464"></trkpt>
      <trkpt lat="42.14685" lon="24.746437"></trkpt>
      <trkpt lat="42.146741" lon="24.746528"></trkpt>
      <trkpt lat="42.146616" lon="24.746692"></trkpt>
      <trkpt lat="42.146558" lon="24.746709"></trkpt>
      <trkpt lat="42.146668" lon="24.746473"></trkpt>
      <trkpt lat="42.146755" lon="24.746104"></trkpt>
      <trkpt lat="42.146759" lon="24.746002"></trkpt>
      <trkpt lat="42.146673" lon="24.74595"></trkpt>
      <trkpt lat="42.146639" lon="24.745922"></trkpt>
      <trkpt lat="42.146633" lon="24.745867"></trkpt>
      <trkpt lat="42.146636" lon="24.745813"></trkpt>
      <trkpt lat="42.146545" lon="24.745646"></trkpt>
    </trkseg>
  </trk>
</gpx>
