<?xml version="1.0" encoding="UTF-8"?>
<gpx version="1.1" creator="Open Plovdiv" xmlns="http://www.topografix.com/GPX/1/1">
  <metadata>
    <name>First day in Plovdiv</name>
  </metadata>
  <wpt lat="42.141957" lon="24.747196">
    <name>1. Tzar Simeon Garden</name>
  </wpt>
  <wpt lat="42.14418" lon="24.748997">
    <name>2. Stefan Stambolov square, Plovdiv</name>
  </wpt>
  <wpt lat="42.147552" lon="24.747982">
    <name>3. Ancient Stadium</name>
  </wpt>
  <wpt lat="42.147801" lon="24.748228">
    <name>4. Dzhumaya Mosque</name>
  </wpt>
  <wpt lat="42.149922" lon="24.748517">
    <name>5. Kapana</name>
  </wpt>
  <wpt lat="42.149817" lon="24.752687">
    <name>6. The Old Town (Old Plovdiv)</name>
  </wpt>
  <wpt lat="42.146855" lon="24.750934">
    <name>7. Ancient Theatre</name>
  </wpt>
  <wpt lat="42.151321" lon="24.752296">
    <name>8. Nebet Tepe</name>
  </wpt>
  <trk>
    <name>First day in Plovdiv</name>
    <trkseg>
      <trkpt lat="42.141957" lon="24.747196"></trkpt>
      <trkpt lat="42.14196" lon="24.747237"></trkpt>
      <trkpt lat="42.141961" lon="24.747521"></trkpt>
      <trkpt lat="42.142002" lon="24.747497"></trkpt>
      <trkpt lat="42.142047" lon="24.747497"></trkpt>
      <trkpt lat="42.142088" lon="24.74752"></trkpt>
      <trkpt lat="42.14212" lon="24.747562"></trkpt>
      <trkpt lat="42.142138" lon="24.747618"></trkpt>
      <trkpt lat="42.142308" lon="24.747618"></trkpt>
      <trkpt lat="42.14274" lon="24.747593"></trkpt>
      <trkpt lat="42.142835" lon="24.747579"></trkpt>
      <trkpt lat="42.143072" lon="24.747545"></trkpt>
      <trkpt lat="42.143101" lon="24.747552"></trkpt>
      <trkpt lat="42.143106" lon="24.747553"></trkpt>
      <trkpt lat="42.143057" lon="24.74785"></trkpt>
      <trkpt lat="42.143207" lon="24.748052"></trkpt>
      <trkpt lat="42.143267" lon="24.748132"></trkpt>
      <trkpt lat="42.143594" lon="24.748508"></trkpt>
      <trkpt lat="42.143632" lon="24.748514"></trkpt>
      <trkpt lat="42.143845" lon="24.748546"></trkpt>
      <trkpt lat="42.143849" lon="24.749098"></trkpt>
      <trkpt lat="42.144117" lon="24.749098"></trkpt>
      <trkpt lat="42.144127" lon="24.749064"></trkpt>
      <trkpt lat="42.144151" lon="24.749031"></trkpt>
      <trkpt lat="42.14418" lon="24.748997"></trkpt>
      <trkpt lat="42.144151" lon="24.749031"></trkpt>
      <trkpt lat="42.144127" lon="24.749064"></trkpt>
      <trkpt lat="42.144117" lon="24.749098"></trkpt>
      <trkpt lat="42.144116" lon="24.749137"></trkpt>
      <trkpt lat="42.144126" lon="24.749194"></trkpt>
      <trkpt lat="42.144144" lon="24.749243"></trkpt>
      <trkpt lat="42.144183" lon="24.74928"></trkpt>
      <trkpt lat="42.144217" lon="24.749294"></trkpt>
      <trkpt lat="42.144223" lon="24.749513"></trkpt>
      <trkpt lat="42.14466" lon="24.749464"></trkpt>
      <trkpt lat="42.145525" lon="24.749095"></trkpt>
      <trkpt lat="42.14561" lon="24.749052"></trkpt>
      <trkpt lat="42.146347" lon="24.748611"></trkpt>
      <trkpt lat="42.146559" lon="24.748487"></trkpt>
      <trkpt lat="42.146918" lon="24.748289"></trkpt>
      <trkpt lat="42.147145" lon="24.748175"></trkpt>
      <trkpt lat="42.14741" lon="24.748145"></trkpt>
      <trkpt lat="42.147453" lon="24.748154"></trkpt>
      <trkpt lat="42.147466" lon="24.74805"></trkpt>
      <trkpt lat="42.147483" lon="24.748036"></trkpt>
      <trkpt lat="42.147533" lon="24.747997"></trkpt>
      <trkpt lat="42.147552" lon="24.747982"></trkpt>
      <trkpt lat="42.147533" lon="24.747997"></trkpt>
      <trkpt lat="42.147483" lon="24.748036"></trkpt>
      <trkpt lat="42.147466" lon="24.74805"></trkpt>
      <trkpt lat="42.147453" lon="24.748154"></trkpt>
      <trkpt lat="42.147576" lon="24.748384"></trkpt>
      <trkpt lat="42.147601" lon="24.748408"></trkpt>
      <trkpt lat="42.147679" lon="24.748338"></trkpt>
      <trkpt lat="42.147801" lon="24.748228"></trkpt>
      <trkpt lat="42.147938" lon="24.748103"></trkpt>
      <trkpt lat="42.148068" lon="24.747991"></trkpt>
      <trkpt lat="42.148082" lon="24.748029"></trkpt>
      <trkpt lat="42.148207" lon="24.748319"></trkpt>
      <trkpt lat="42.148236" lon="24.748387"></trkpt>
      <trkpt lat="42.148261" lon="24.748417"></trkpt>
      <trkpt lat="42.148464" lon="24.748733"></trkpt>
      <trkpt lat="42.148524" lon="24.748705"></trkpt>
      <trkpt lat="42.148685" lon="24.748632"></trkpt>
      <trkpt lat="42.148991" lon="24.748486"></trkpt>
      <trkpt lat="42.14928" lon="24.748354"></trkpt>
      <trkpt lat="42.149448" lon="24.748276"></trkpt>
      <trkpt lat="42.149519" lon="24.748243"></trkpt>
      <trkpt lat="42.149614" lon="24.748202"></trkpt>
      <trkpt lat="42.149922" lon="24.748517"></trkpt>
      <trkpt lat="42.150005" lon="24.748602"></trkpt>
      <trkpt lat="42.149983" lon="24.749058"></trkpt>
      <trkpt lat="42.14997" lon="24.749988"></trkpt>
      <trkpt lat="42.149966" lon="24.750175"></trkpt>
      <trkpt lat="42.149863" lon="24.750203"></trkpt>
      <trkpt lat="42.149743" lon="24.75018"></trkpt>
      <trkpt lat="42.149704" lon="24.750165"></trkpt>
      <trkpt lat="42.149591" lon="24.750646"></trkpt>
      <trkpt lat="42.149548" lon="24.750651"></trkpt>
      <trkpt lat="42.149495" lon="24.750658"></trkpt>
      <trkpt lat="42.149478" lon="24.75066"></trkpt>
      <trkpt lat="42.149452" lon="24.750748"></trkpt>
      <trkpt lat="42.149422" lon="24.751084"></trkpt>
      <trkpt lat="42.149434" lon="24.751256"></trkpt>
      <trkpt lat="42.149851" lon="24.751686"></trkpt>
      <trkpt lat="42.14986" lon="24.751776"></trkpt>
      <trkpt lat="42.149971" lon="24.751996"></trkpt>
      <trkpt lat="42.149912" lon="24.752108"></trkpt>
      <trkpt lat="42.149883" lon="24.752353"></trkpt>
      <trkpt lat="42.14985" lon="24.752706"></trkpt>
      <trkpt lat="42.149817" lon="24.752687"></trkpt>
      <trkpt lat="42.149472" lon="24.75249"></trkpt>
      <trkpt lat="42.149394" lon="24.752438"></trkpt>
      <trkpt lat="42.149068" lon="24.752201"></trkpt>
      <trkpt lat="42.148849" lon="24.752106"></trkpt>
      <trkpt lat="42.148542" lon="24.751852"></trkpt>
      <trkpt lat="42.148404" lon="24.751707"></trkpt>
      <trkpt lat="42.148223" lon="24.751691"></trkpt>
      <trkpt lat="42.147771" lon="24.751404"></trkpt>
      <trkpt lat="42.147732" lon="24.750985"></trkpt>
      <trkpt lat="42.147674" lon="24.750551"></trkpt>
      <trkpt lat="42.147773" lon="24.750331"></trkpt>
      <trkpt lat="42.147989" lon="24.749848"></trkpt>
      <trkpt lat="42.148062" lon="24.749735"></trkpt>
      <trkpt lat="42.14801" lon="24.749215"></trkpt>
      <trkpt lat="42.14797" lon="24.749075"></trkpt>
      <trkpt lat="42.147883" lon="24.748976"></trkpt>
      <trkpt lat="42.147828" lon="24.748953"></trkpt>
      <trkpt lat="42.147511" lon="24.748819"></trkpt>
      <trkpt lat="42.147393" lon="24.74877"></trkpt>
      <trkpt lat="42.147331" lon="24.748783"></trkpt>
      <trkpt lat="42.147101" lon="24.748888"></trkpt>
      <trkpt lat="42.147148" lon="24.749141"></trkpt>
      <trkpt lat="42.146776" lon="24.749701"></trkpt>
      <trkpt lat="42.146604" lon="24.749686"></trkpt>
      <trkpt lat="42.146453" lon="24.750743"></trkpt>
      <trkpt lat="42.146594" lon="24.750771"></trkpt>
      <trkpt lat="42.146664" lon="24.75072"></trkpt>
      <trkpt lat="42.146751" lon="24.750773"></trkpt>
      <trkpt lat="42.146844" lon="24.750773"></trkpt>
      <trkpt lat="42.146855" lon="24.750918"></trkpt>
      <trkpt lat="42.146855" lon="24.750934"></trkpt>
      <trkpt lat="42.146855" lon="24.750934"></trkpt>
      <trkpt lat="42.146855" lon="24.750918"></trkpt>
      <trkpt lat="42.146844" lon="24.750773"></trkpt>
      <trkpt lat="42.146751" lon="24.750773"></trkpt>
      <trkpt lat="42.146664" lon="24.75072"></trkpt>
      <trkpt lat="42.146594" lon="24.750771"></trkpt>
      <trkpt lat="42.146453" lon="24.750743"></trkpt>
      <trkpt lat="42.146604" lon="24.749686"></trkpt>
      <trkpt lat="42.146776" lon="24.749701"></trkpt>
      <trkpt lat="42.147148" lon="24.749141"></trkpt>
      <trkpt lat="42.147101" lon="24.748888"></trkpt>
      <trkpt lat="42.147331" lon="24.748783"></trkpt>
      <trkpt lat="42.147393" lon="24.74877"></trkpt>
      <trkpt lat="42.147511" lon="24.748819"></trkpt>
      <trkpt lat="42.147828" lon="24.748953"></trkpt>
      <trkpt lat="42.147883" lon="24.748976"></trkpt>
      <trkpt lat="42.14797" lon="24.749075"></trkpt>
      <trkpt lat="42.14801" lon="24.749215"></trkpt>
      <trkpt lat="42.148062" lon="24.749735"></trkpt>
      <trkpt lat="42.147989" lon="24.749848"></trkpt>
      <trkpt lat="42.147773" lon="24.750331"></trkpt>
      <trkpt lat="42.147674" lon="24.750551"></trkpt>
      <trkpt lat="42.147732" lon="24.750985"></trkpt>
      <trkpt lat="42.147771" lon="24.751404"></trkpt>
      <trkpt lat="42.148223" lon="24.751691"></trkpt>
      <trkpt lat="42.148404" lon="24.751707"></trkpt>
      <trkpt lat="42.148542" lon="24.751852"></trkpt>
      <trkpt lat="42.148849" lon="24.752106"></trkpt>
      <trkpt lat="42.149068" lon="24.752201"></trkpt>
      <trkpt lat="42.149394" lon="24.752438"></trkpt>
      <trkpt lat="42.149472" lon="24.75249"></trkpt>
      <trkpt lat="42.14985" lon="24.752706"></trkpt>
      <trkpt lat="42.149973" lon="24.752739"></trkpt>
      <trkpt lat="42.150086" lon="24.752762"></trkpt>
      <trkpt lat="42.150244" lon="24.752779"></trkpt>
      <trkpt lat="42.150525" lon="24.752731"></trkpt>
      <trkpt lat="42.150678" lon="24.75271"></trkpt>
      <trkpt lat="42.150877" lon="24.752765"></trkpt>
      <trkpt lat="42.150945" lon="24.75276"></trkpt>
      <trkpt lat="42.151057" lon="24.752691"></trkpt>
      <trkpt lat="42.151145" lon="24.752641"></trkpt>
      <trkpt lat="42.151206" lon="24.752607"></trkpt>
      <trkpt lat="42.151271" lon="24.752413"></trkpt>
      <trkpt lat="42.151278" lon="24.752355"></trkpt>
      <trkpt lat="42.151321" lon="24.752296"></trkpt>
    </trkseg>
  </trk>
</gpx>
