<?xml version="1.0" encoding="UTF-8"?>
<gpx version="1.1" creator="Open Plovdiv" xmlns="http://www.topografix.com/GPX/1/1">
  <metadata>
    <name>The Rowing Canal and the Maritsa riverside</name>
  </metadata>
  <wpt lat="42.150496" lon="24.718245">
    <name>1. Rowing Canal / Grebna Baza</name>
  </wpt>
  <wpt lat="42.150302" lon="24.735726">
    <name>2. Marasha</name>
  </wpt>
  <wpt lat="42.149578" lon="24.743294">
    <name>3. City garden (Dondukova Garden)</name>
  </wpt>
  <trk>
    <name>The Rowing Canal and the Maritsa riverside</name>
    <trkseg>
      <trkpt lat="42.150496" lon="24.718245"></trkpt>
      <trkpt lat="42.150496" lon="24.718245"></trkpt>
      <trkpt lat="42.150543" lon="24.718311"></trkpt>
      <trkpt lat="42.150563" lon="24.718352"></trkpt>
      <trkpt lat="42.150576" lon="24.718393"></trkpt>
      <trkpt lat="42.150584" lon="24.718432"></trkpt>
      <trkpt lat="42.15059" lon="24.718476"></trkpt>
      <trkpt lat="42.15061" lon="24.718654"></trkpt>
      <trkpt lat="42.150619" lon="24.718762"></trkpt>
      <trkpt lat="42.150619" lon="24.71886"></trkpt>
      <trkpt lat="42.150613" lon="24.718936"></trkpt>
      <trkpt lat="42.150725" lon="24.719073"></trkpt>
      <trkpt lat="42.150793" lon="24.719195"></trkpt>
      <trkpt lat="42.150852" lon="24.719392"></trkpt>
      <trkpt lat="42.150885" lon="24.71958"></trkpt>
      <trkpt lat="42.150885" lon="24.719678"></trkpt>
      <trkpt lat="42.150882" lon="24.719814"></trkpt>
      <trkpt lat="42.150858" lon="24.719952"></trkpt>
      <trkpt lat="42.150815" lon="24.72011"></trkpt>
      <trkpt lat="42.15075" lon="24.720266"></trkpt>
      <trkpt lat="42.150671" lon="24.720391"></trkpt>
      <trkpt lat="42.150685" lon="24.720409"></trkpt>
      <trkpt lat="42.150638" lon="24.72047"></trkpt>
      <trkpt lat="42.15054" lon="24.720582"></trkpt>
      <trkpt lat="42.150504" lon="24.720615"></trkpt>
      <trkpt lat="42.15046" lon="24.720656"></trkpt>
      <trkpt lat="42.150422" lon="24.720684"></trkpt>
      <trkpt lat="42.15037" lon="24.720713"></trkpt>
      <trkpt lat="42.150297" lon="24.72075"></trkpt>
      <trkpt lat="42.150253" lon="24.720773"></trkpt>
      <trkpt lat="42.150183" lon="24.720835"></trkpt>
      <trkpt lat="42.150112" lon="24.720943"></trkpt>
      <trkpt lat="42.150098" lon="24.720932"></trkpt>
      <trkpt lat="42.150012" lon="24.721151"></trkpt>
      <trkpt lat="42.15001" lon="24.721235"></trkpt>
      <trkpt lat="42.149958" lon="24.722063"></trkpt>
      <trkpt lat="42.150004" lon="24.722437"></trkpt>
      <trkpt lat="42.149903" lon="24.722459"></trkpt>
      <trkpt lat="42.149835" lon="24.722492"></trkpt>
      <trkpt lat="42.149791" lon="24.722592"></trkpt>
      <trkpt lat="42.149781" lon="24.723046"></trkpt>
      <trkpt lat="42.149781" lon="24.723174"></trkpt>
      <trkpt lat="42.149712" lon="24.723217"></trkpt>
      <trkpt lat="42.149743" lon="24.723327"></trkpt>
      <trkpt lat="42.149772" lon="24.723428"></trkpt>
      <trkpt lat="42.149799" lon="24.723528"></trkpt>
      <trkpt lat="42.14985" lon="24.723496"></trkpt>
      <trkpt lat="42.149894" lon="24.723633"></trkpt>
      <trkpt lat="42.15003" lon="24.724052"></trkpt>
      <trkpt lat="42.150052" lon="24.724101"></trkpt>
      <trkpt lat="42.150081" lon="24.724144"></trkpt>
      <trkpt lat="42.150139" lon="24.724219"></trkpt>
      <trkpt lat="42.150157" lon="24.724246"></trkpt>
      <trkpt lat="42.150163" lon="24.724255"></trkpt>
      <trkpt lat="42.150179" lon="24.724302"></trkpt>
      <trkpt lat="42.150185" lon="24.724355"></trkpt>
      <trkpt lat="42.150184" lon="24.724403"></trkpt>
      <trkpt lat="42.149748" lon="24.725909"></trkpt>
      <trkpt lat="42.149348" lon="24.72719"></trkpt>
      <trkpt lat="42.149132" lon="24.727867"></trkpt>
      <trkpt lat="42.14893" lon="24.728547"></trkpt>
      <trkpt lat="42.148707" lon="24.729265"></trkpt>
      <trkpt lat="42.148665" lon="24.729539"></trkpt>
      <trkpt lat="42.148567" lon="24.729854"></trkpt>
      <trkpt lat="42.148533" lon="24.729967"></trkpt>
      <trkpt lat="42.148396" lon="24.730408"></trkpt>
      <trkpt lat="42.148326" lon="24.730635"></trkpt>
      <trkpt lat="42.148284" lon="24.730771"></trkpt>
      <trkpt lat="42.148242" lon="24.730907"></trkpt>
      <trkpt lat="42.148225" lon="24.730963"></trkpt>
      <trkpt lat="42.148159" lon="24.730956"></trkpt>
      <trkpt lat="42.148159" lon="24.731013"></trkpt>
      <trkpt lat="42.148158" lon="24.73116"></trkpt>
      <trkpt lat="42.148157" lon="24.731285"></trkpt>
      <trkpt lat="42.148113" lon="24.731348"></trkpt>
      <trkpt lat="42.148101" lon="24.731423"></trkpt>
      <trkpt lat="42.148108" lon="24.731481"></trkpt>
      <trkpt lat="42.148145" lon="24.731808"></trkpt>
      <trkpt lat="42.14815" lon="24.731859"></trkpt>
      <trkpt lat="42.148196" lon="24.732115"></trkpt>
      <trkpt lat="42.148169" lon="24.732179"></trkpt>
      <trkpt lat="42.148224" lon="24.732651"></trkpt>
      <trkpt lat="42.14824" lon="24.732786"></trkpt>
      <trkpt lat="42.148297" lon="24.733241"></trkpt>
      <trkpt lat="42.148434" lon="24.734244"></trkpt>
      <trkpt lat="42.148505" lon="24.734756"></trkpt>
      <trkpt lat="42.148587" lon="24.735424"></trkpt>
      <trkpt lat="42.148639" lon="24.735414"></trkpt>
      <trkpt lat="42.14918" lon="24.7353"></trkpt>
      <trkpt lat="42.149748" lon="24.735939"></trkpt>
      <trkpt lat="42.149902" lon="24.736113"></trkpt>
      <trkpt lat="42.150302" lon="24.735726"></trkpt>
      <trkpt lat="42.149902" lon="24.736113"></trkpt>
      <trkpt lat="42.149748" lon="24.735939"></trkpt>
      <trkpt lat="42.149284" lon="24.73674"></trkpt>
      <trkpt lat="42.149195" lon="24.736803"></trkpt>
      <trkpt lat="42.149021" lon="24.736861"></trkpt>
      <trkpt lat="42.149046" lon="24.737063"></trkpt>
      <trkpt lat="42.149078" lon="24.737331"></trkpt>
      <trkpt lat="42.149039" lon="24.7374"></trkpt>
      <trkpt lat="42.148853" lon="24.73745"></trkpt>
      <trkpt lat="42.148915" lon="24.737838"></trkpt>
      <trkpt lat="42.14893" lon="24.73793"></trkpt>
      <trkpt lat="42.14898" lon="24.738272"></trkpt>
      <trkpt lat="42.149054" lon="24.738815"></trkpt>
      <trkpt lat="42.149138" lon="24.739311"></trkpt>
      <trkpt lat="42.149142" lon="24.739338"></trkpt>
      <trkpt lat="42.149234" lon="24.739743"></trkpt>
      <trkpt lat="42.149356" lon="24.740285"></trkpt>
      <trkpt lat="42.149378" lon="24.740313"></trkpt>
      <trkpt lat="42.149416" lon="24.740321"></trkpt>
      <trkpt lat="42.149458" lon="24.740452"></trkpt>
      <trkpt lat="42.149519" lon="24.740642"></trkpt>
      <trkpt lat="42.149542" lon="24.740714"></trkpt>
      <trkpt lat="42.149516" lon="24.740815"></trkpt>
      <trkpt lat="42.149414" lon="24.740862"></trkpt>
      <trkpt lat="42.149295" lon="24.740917"></trkpt>
      <trkpt lat="42.149234" lon="24.740946"></trkpt>
      <trkpt lat="42.149481" lon="24.74165"></trkpt>
      <trkpt lat="42.149541" lon="24.741814"></trkpt>
      <trkpt lat="42.149599" lon="24.74196"></trkpt>
      <trkpt lat="42.149796" lon="24.742438"></trkpt>
      <trkpt lat="42.149822" lon="24.7425"></trkpt>
      <trkpt lat="42.149674" lon="24.742987"></trkpt>
      <trkpt lat="42.149648" lon="24.742976"></trkpt>
      <trkpt lat="42.149604" lon="24.74298"></trkpt>
      <trkpt lat="42.149572" lon="24.742997"></trkpt>
      <trkpt lat="42.149544" lon="24.743027"></trkpt>
      <trkpt lat="42.149523" lon="24.743065"></trkpt>
      <trkpt lat="42.149511" lon="24.74311"></trkpt>
      <trkpt lat="42.149509" lon="24.743158"></trkpt>
      <trkpt lat="42.149518" lon="24.743209"></trkpt>
      <trkpt lat="42.149538" lon="24.743254"></trkpt>
      <trkpt lat="42.149566" lon="24.743287"></trkpt>
      <trkpt lat="42.149578" lon="24.743294"></trkpt>
    </trkseg>
  </trk>
</gpx>
