<?xml version="1.0" encoding="UTF-8"?>
<gpx version="1.1" creator="Open Plovdiv" xmlns="http://www.topografix.com/GPX/1/1">
  <metadata>
    <name>The tepeta and their sunsets</name>
  </metadata>
  <wpt lat="42.146545" lon="24.745646">
    <name>1. Sahat hill in Plovdiv</name>
  </wpt>
  <wpt lat="42.144528" lon="24.738102">
    <name>2. Bunardzhik</name>
  </wpt>
  <wpt lat="42.143627" lon="24.737437">
    <name>3. Alyosha Monument</name>
  </wpt>
  <wpt lat="42.14155" lon="24.740495">
    <name>4. Markovo tepe</name>
  </wpt>
  <wpt lat="42.136948" lon="24.731714">
    <name>5. Dzhendem tepe</name>
  </wpt>
  <trk>
    <name>The tepeta and their sunsets</name>
    <trkseg>
      <trkpt lat="42.146545" lon="24.745646"></trkpt>
      <trkpt lat="42.146636" lon="24.745813"></trkpt>
      <trkpt lat="42.146633" lon="24.745867"></trkpt>
      <trkpt lat="42.146639" lon="24.745922"></trkpt>
      <trkpt lat="42.146673" lon="24.74595"></trkpt>
      <trkpt lat="42.146759" lon="24.746002"></trkpt>
      <trkpt lat="42.146745" lon="24.74582"></trkpt>
      <trkpt lat="42.146664" lon="24.745483"></trkpt>
      <trkpt lat="42.146666" lon="24.745405"></trkpt>
      <trkpt lat="42.146672" lon="24.745394"></trkpt>
      <trkpt lat="42.146611" lon="24.745136"></trkpt>
      <trkpt lat="42.146629" lon="24.745027"></trkpt>
      <trkpt lat="42.146601" lon="24.745009"></trkpt>
      <trkpt lat="42.146564" lon="24.744858"></trkpt>
      <trkpt lat="42.146581" lon="24.744518"></trkpt>
      <trkpt lat="42.146794" lon="24.744435"></trkpt>
      <trkpt lat="42.146813" lon="24.744104"></trkpt>
      <trkpt lat="42.147005" lon="24.744122"></trkpt>
      <trkpt lat="42.147395" lon="24.743841"></trkpt>
      <trkpt lat="42.147425" lon="24.742578"></trkpt>
      <trkpt lat="42.147442" lon="24.741762"></trkpt>
      <trkpt lat="42.147344" lon="24.741737"></trkpt>
      <trkpt lat="42.147346" lon="24.741465"></trkpt>
      <trkpt lat="42.147346" lon="24.741438"></trkpt>
      <trkpt lat="42.147346" lon="24.741411"></trkpt>
      <trkpt lat="42.14733" lon="24.741411"></trkpt>
      <trkpt lat="42.14733" lon="24.741383"></trkpt>
      <trkpt lat="42.14733" lon="24.741354"></trkpt>
      <trkpt lat="42.147345" lon="24.741354"></trkpt>
      <trkpt lat="42.147345" lon="24.741334"></trkpt>
      <trkpt lat="42.147345" lon="24.741085"></trkpt>
      <trkpt lat="42.147344" lon="24.741035"></trkpt>
      <trkpt lat="42.147293" lon="24.741044"></trkpt>
      <trkpt lat="42.147267" lon="24.741067"></trkpt>
      <trkpt lat="42.147232" lon="24.74107"></trkpt>
      <trkpt lat="42.147181" lon="24.741069"></trkpt>
      <trkpt lat="42.147147" lon="24.741065"></trkpt>
      <trkpt lat="42.147142" lon="24.740964"></trkpt>
      <trkpt lat="42.14714" lon="24.740886"></trkpt>
      <trkpt lat="42.147125" lon="24.740888"></trkpt>
      <trkpt lat="42.14712" lon="24.7408"></trkpt>
      <trkpt lat="42.146996" lon="24.740818"></trkpt>
      <trkpt lat="42.146981" lon="24.74068"></trkpt>
      <trkpt lat="42.14679" lon="24.740263"></trkpt>
      <trkpt lat="42.146783" lon="24.740205"></trkpt>
      <trkpt lat="42.146787" lon="24.740139"></trkpt>
      <trkpt lat="42.146652" lon="24.740003"></trkpt>
      <trkpt lat="42.146622" lon="24.739832"></trkpt>
      <trkpt lat="42.14658" lon="24.739648"></trkpt>
      <trkpt lat="42.146531" lon="24.739587"></trkpt>
      <trkpt lat="42.146451" lon="24.739514"></trkpt>
      <trkpt lat="42.146288" lon="24.739196"></trkpt>
      <trkpt lat="42.146276" lon="24.739174"></trkpt>
      <trkpt lat="42.146266" lon="24.739135"></trkpt>
      <trkpt lat="42.146265" lon="24.739095"></trkpt>
      <trkpt lat="42.146132" lon="24.738878"></trkpt>
      <trkpt lat="42.145828" lon="24.738706"></trkpt>
      <trkpt lat="42.145738" lon="24.738658"></trkpt>
      <trkpt lat="42.145677" lon="24.738618"></trkpt>
      <trkpt lat="42.145633" lon="24.73859"></trkpt>
      <trkpt lat="42.145605" lon="24.738529"></trkpt>
      <trkpt lat="42.14559" lon="24.738386"></trkpt>
      <trkpt lat="42.145566" lon="24.738326"></trkpt>
      <trkpt lat="42.145519" lon="24.738263"></trkpt>
      <trkpt lat="42.145465" lon="24.738227"></trkpt>
      <trkpt lat="42.145405" lon="24.738213"></trkpt>
      <trkpt lat="42.145375" lon="24.73821"></trkpt>
      <trkpt lat="42.144927" lon="24.73805"></trkpt>
      <trkpt lat="42.144884" lon="24.737983"></trkpt>
      <trkpt lat="42.144831" lon="24.737962"></trkpt>
      <trkpt lat="42.144681" lon="24.738017"></trkpt>
      <trkpt lat="42.144522" lon="24.737944"></trkpt>
      <trkpt lat="42.144498" lon="24.737887"></trkpt>
      <trkpt lat="42.144438" lon="24.737907"></trkpt>
      <trkpt lat="42.144328" lon="24.737955"></trkpt>
      <trkpt lat="42.144317" lon="24.737963"></trkpt>
      <trkpt lat="42.144315" lon="24.737983"></trkpt>
      <trkpt lat="42.144323" lon="24.737994"></trkpt>
      <trkpt lat="42.144477" lon="24.738034"></trkpt>
      <trkpt lat="42.14452" lon="24.738049"></trkpt>
      <trkpt lat="42.144535" lon="24.738061"></trkpt>
      <trkpt lat="42.144539" lon="24.738084"></trkpt>
      <trkpt lat="42.144528" lon="24.738102"></trkpt>
      <trkpt lat="42.144539" lon="24.738084"></trkpt>
      <trkpt lat="42.144535" lon="24.738061"></trkpt>
      <trkpt lat="42.14452" lon="24.738049"></trkpt>
      <trkpt lat="42.144477" lon="24.738034"></trkpt>
      <trkpt lat="42.144323" lon="24.737994"></trkpt>
      <trkpt lat="42.144315" lon="24.737983"></trkpt>
      <trkpt lat="42.144317" lon="24.737963"></trkpt>
      <trkpt lat="42.144328" lon="24.737955"></trkpt>
      <trkpt lat="42.144438" lon="24.737907"></trkpt>
      <trkpt lat="42.144498" lon="24.737887"></trkpt>
      <trkpt lat="42.144536" lon="24.737873"></trkpt>
      <trkpt lat="42.144563" lon="24.737862"></trkpt>
      <trkpt lat="42.144575" lon="24.737831"></trkpt>
      <trkpt lat="42.144569" lon="24.737807"></trkpt>
      <trkpt lat="42.144564" lon="24.737782"></trkpt>
      <trkpt lat="42.144519" lon="24.737736"></trkpt>
      <trkpt lat="42.144452" lon="24.737695"></trkpt>
      <trkpt lat="42.144368" lon="24.737657"></trkpt>
      <trkpt lat="42.144333" lon="24.737596"></trkpt>
      <trkpt lat="42.144304" lon="24.73754"></trkpt>
      <trkpt lat="42.144229" lon="24.737394"></trkpt>
      <trkpt lat="42.144173" lon="24.737446"></trkpt>
      <trkpt lat="42.144137" lon="24.737377"></trkpt>
      <trkpt lat="42.144047" lon="24.737469"></trkpt>
      <trkpt lat="42.144011" lon="24.737398"></trkpt>
      <trkpt lat="42.143977" lon="24.737331"></trkpt>
      <trkpt lat="42.14395" lon="24.737355"></trkpt>
      <trkpt lat="42.143916" lon="24.737359"></trkpt>
      <trkpt lat="42.143895" lon="24.737356"></trkpt>
      <trkpt lat="42.143847" lon="24.73737"></trkpt>
      <trkpt lat="42.143803" lon="24.737366"></trkpt>
      <trkpt lat="42.143794" lon="24.737409"></trkpt>
      <trkpt lat="42.14373" lon="24.737485"></trkpt>
      <trkpt lat="42.143627" lon="24.737437"></trkpt>
      <trkpt lat="42.14373" lon="24.737485"></trkpt>
      <trkpt lat="42.14368" lon="24.737569"></trkpt>
      <trkpt lat="42.14362" lon="24.737687"></trkpt>
      <trkpt lat="42.143601" lon="24.737814"></trkpt>
      <trkpt lat="42.143614" lon="24.737911"></trkpt>
      <trkpt lat="42.143476" lon="24.738189"></trkpt>
      <trkpt lat="42.143446" lon="24.73827"></trkpt>
      <trkpt lat="42.143394" lon="24.738373"></trkpt>
      <trkpt lat="42.143454" lon="24.738431"></trkpt>
      <trkpt lat="42.143452" lon="24.738632"></trkpt>
      <trkpt lat="42.14342" lon="24.73873"></trkpt>
      <trkpt lat="42.143263" lon="24.738691"></trkpt>
      <trkpt lat="42.143245" lon="24.738687"></trkpt>
      <trkpt lat="42.143116" lon="24.738656"></trkpt>
      <trkpt lat="42.143101" lon="24.738733"></trkpt>
      <trkpt lat="42.14309" lon="24.738792"></trkpt>
      <trkpt lat="42.14305" lon="24.738782"></trkpt>
      <trkpt lat="42.143018" lon="24.73903"></trkpt>
      <trkpt lat="42.142924" lon="24.739011"></trkpt>
      <trkpt lat="42.142904" lon="24.739004"></trkpt>
      <trkpt lat="42.142896" lon="24.738982"></trkpt>
      <trkpt lat="42.142904" lon="24.738919"></trkpt>
      <trkpt lat="42.14292" lon="24.738845"></trkpt>
      <trkpt lat="42.142873" lon="24.738771"></trkpt>
      <trkpt lat="42.142798" lon="24.73892"></trkpt>
      <trkpt lat="42.142739" lon="24.739054"></trkpt>
      <trkpt lat="42.142688" lon="24.739299"></trkpt>
      <trkpt lat="42.142668" lon="24.739418"></trkpt>
      <trkpt lat="42.142594" lon="24.739566"></trkpt>
      <trkpt lat="42.142016" lon="24.739631"></trkpt>
      <trkpt lat="42.142009" lon="24.739752"></trkpt>
      <trkpt lat="42.142016" lon="24.739916"></trkpt>
      <trkpt lat="42.141984" lon="24.739915"></trkpt>
      <trkpt lat="42.141949" lon="24.739934"></trkpt>
      <trkpt lat="42.141915" lon="24.739957"></trkpt>
      <trkpt lat="42.141875" lon="24.739985"></trkpt>
      <trkpt lat="42.141928" lon="24.740113"></trkpt>
      <trkpt lat="42.141937" lon="24.74018"></trkpt>
      <trkpt lat="42.141943" lon="24.740376"></trkpt>
      <trkpt lat="42.141928" lon="24.740394"></trkpt>
      <trkpt lat="42.141915" lon="24.740459"></trkpt>
      <trkpt lat="42.141828" lon="24.740468"></trkpt>
      <trkpt lat="42.14155" lon="24.740495"></trkpt>
      <trkpt lat="42.14155" lon="24.740495"></trkpt>
      <trkpt lat="42.141828" lon="24.740468"></trkpt>
      <trkpt lat="42.141915" lon="24.740459"></trkpt>
      <trkpt lat="42.141928" lon="24.740394"></trkpt>
      <trkpt lat="42.141943" lon="24.740376"></trkpt>
      <trkpt lat="42.141937" lon="24.74018"></trkpt>
      <trkpt lat="42.141928" lon="24.740113"></trkpt>
      <trkpt lat="42.141875" lon="24.739985"></trkpt>
      <trkpt lat="42.141915" lon="24.739957"></trkpt>
      <trkpt lat="42.141845" lon="24.739821"></trkpt>
      <trkpt lat="42.141811" lon="24.739751"></trkpt>
      <trkpt lat="42.141562" lon="24.739183"></trkpt>
      <trkpt lat="42.141394" lon="24.738704"></trkpt>
      <trkpt lat="42.14102" lon="24.737671"></trkpt>
      <trkpt lat="42.140892" lon="24.737243"></trkpt>
      <trkpt lat="42.140742" lon="24.736965"></trkpt>
      <trkpt lat="42.140672" lon="24.736894"></trkpt>
      <trkpt lat="42.140179" lon="24.736443"></trkpt>
      <trkpt lat="42.140105" lon="24.736369"></trkpt>
      <trkpt lat="42.140051" lon="24.736316"></trkpt>
      <trkpt lat="42.140023" lon="24.736285"></trkpt>
      <trkpt lat="42.140643" lon="24.735175"></trkpt>
      <trkpt lat="42.140007" lon="24.734547"></trkpt>
      <trkpt lat="42.139851" lon="24.734361"></trkpt>
      <trkpt lat="42.13977" lon="24.734174"></trkpt>
      <trkpt lat="42.139776" lon="24.734073"></trkpt>
      <trkpt lat="42.139746" lon="24.734082"></trkpt>
      <trkpt lat="42.139706" lon="24.734082"></trkpt>
      <trkpt lat="42.139172" lon="24.734308"></trkpt>
      <trkpt lat="42.139088" lon="24.734338"></trkpt>
      <trkpt lat="42.138961" lon="24.73439"></trkpt>
      <trkpt lat="42.138789" lon="24.734351"></trkpt>
      <trkpt lat="42.138568" lon="24.734349"></trkpt>
      <trkpt lat="42.138372" lon="24.734343"></trkpt>
      <trkpt lat="42.138132" lon="24.734279"></trkpt>
      <trkpt lat="42.138034" lon="24.734295"></trkpt>
      <trkpt lat="42.137891" lon="24.734264"></trkpt>
      <trkpt lat="42.137793" lon="24.734235"></trkpt>
      <trkpt lat="42.137729" lon="24.734165"></trkpt>
      <trkpt lat="42.137616" lon="24.734092"></trkpt>
      <trkpt lat="42.137455" lon="24.73402"></trkpt>
      <trkpt lat="42.13726" lon="24.734028"></trkpt>
      <trkpt lat="42.137005" lon="24.733937"></trkpt>
      <trkpt lat="42.136721" lon="24.7338"></trkpt>
      <trkpt lat="42.136639" lon="24.733685"></trkpt>
      <trkpt lat="42.13659" lon="24.733599"></trkpt>
      <trkpt lat="42.136521" lon="24.733553"></trkpt>
      <trkpt lat="42.136619" lon="24.733429"></trkpt>
      <trkpt lat="42.136947" lon="24.73323"></trkpt>
      <trkpt lat="42.137085" lon="24.733112"></trkpt>
      <trkpt lat="42.137205" lon="24.733006"></trkpt>
      <trkpt lat="42.137284" lon="24.733011"></trkpt>
      <trkpt lat="42.137376" lon="24.732771"></trkpt>
      <trkpt lat="42.137472" lon="24.732718"></trkpt>
      <trkpt lat="42.137495" lon="24.73254"></trkpt>
      <trkpt lat="42.137421" lon="24.732438"></trkpt>
      <trkpt lat="42.137286" lon="24.732394"></trkpt>
      <trkpt lat="42.137254" lon="24.732441"></trkpt>
      <trkpt lat="42.137216" lon="24.732472"></trkpt>
      <trkpt lat="42.1371" lon="24.732288"></trkpt>
      <trkpt lat="42.137039" lon="24.732089"></trkpt>
      <trkpt lat="42.137017" lon="24.731882"></trkpt>
      <trkpt lat="42.136954" lon="24.732185"></trkpt>
      <trkpt lat="42.136903" lon="24.732274"></trkpt>
      <trkpt lat="42.136868" lon="24.732286"></trkpt>
      <trkpt lat="42.136831" lon="24.732268"></trkpt>
      <trkpt lat="42.136799" lon="24.732248"></trkpt>
      <trkpt lat="42.136794" lon="24.732184"></trkpt>
      <trkpt lat="42.136806" lon="24.732091"></trkpt>
      <trkpt lat="42.136858" lon="24.731976"></trkpt>
      <trkpt lat="42.136868" lon="24.731841"></trkpt>
      <trkpt lat="42.136904" lon="24.731733"></trkpt>
      <trkpt lat="42.136948" lon="24.731714"></trkpt>
    </trkseg>
  </trk>
</gpx>
