<?xml version="1.0" encoding="UTF-8"?>
<gpx version="1.1" creator="Open Plovdiv" xmlns="http://www.topografix.com/GPX/1/1">
  <metadata>
    <name>Kamenitsa: the brewery and the east city</name>
  </metadata>
  <wpt lat="42.14392" lon="24.761647">
    <name>1. Kamenitza</name>
  </wpt>
  <wpt lat="42.139691" lon="24.763575">
    <name>2. Hristo Botev Stadium</name>
  </wpt>
  <wpt lat="42.147805" lon="24.765695">
    <name>3. Jewish Cemetery in Plovdiv</name>
  </wpt>
  <trk>
    <name>Kamenitsa: the brewery and the east city</name>
    <trkseg>
      <trkpt lat="42.14392" lon="24.761647"></trkpt>
      <trkpt lat="42.143963" lon="24.762019"></trkpt>
      <trkpt lat="42.143967" lon="24.762191"></trkpt>
      <trkpt lat="42.143967" lon="24.762516"></trkpt>
      <trkpt lat="42.143964" lon="24.762952"></trkpt>
      <trkpt lat="42.142783" lon="24.762934"></trkpt>
      <trkpt lat="42.142083" lon="24.762919"></trkpt>
      <trkpt lat="42.141903" lon="24.762921"></trkpt>
      <trkpt lat="42.141384" lon="24.762904"></trkpt>
      <trkpt lat="42.14098" lon="24.762891"></trkpt>
      <trkpt lat="42.140901" lon="24.762888"></trkpt>
      <trkpt lat="42.140855" lon="24.762887"></trkpt>
      <trkpt lat="42.140756" lon="24.762883"></trkpt>
      <trkpt lat="42.140716" lon="24.762882"></trkpt>
      <trkpt lat="42.140719" lon="24.762962"></trkpt>
      <trkpt lat="42.140725" lon="24.763167"></trkpt>
      <trkpt lat="42.140729" lon="24.763285"></trkpt>
      <trkpt lat="42.139604" lon="24.763227"></trkpt>
      <trkpt lat="42.139276" lon="24.763214"></trkpt>
      <trkpt lat="42.139275" lon="24.763392"></trkpt>
      <trkpt lat="42.139273" lon="24.76363"></trkpt>
      <trkpt lat="42.139691" lon="24.763575"></trkpt>
      <trkpt lat="42.139273" lon="24.76363"></trkpt>
      <trkpt lat="42.139275" lon="24.763392"></trkpt>
      <trkpt lat="42.139276" lon="24.763214"></trkpt>
      <trkpt lat="42.139604" lon="24.763227"></trkpt>
      <trkpt lat="42.140729" lon="24.763285"></trkpt>
      <trkpt lat="42.140863" lon="24.763292"></trkpt>
      <trkpt lat="42.140925" lon="24.763292"></trkpt>
      <trkpt lat="42.140968" lon="24.763292"></trkpt>
      <trkpt lat="42.141011" lon="24.76329"></trkpt>
      <trkpt lat="42.14102" lon="24.76329"></trkpt>
      <trkpt lat="42.1424" lon="24.763296"></trkpt>
      <trkpt lat="42.142523" lon="24.763297"></trkpt>
      <trkpt lat="42.142858" lon="24.763309"></trkpt>
      <trkpt lat="42.142899" lon="24.763309"></trkpt>
      <trkpt lat="42.142923" lon="24.76331"></trkpt>
      <trkpt lat="42.14373" lon="24.7633"></trkpt>
      <trkpt lat="42.144046" lon="24.763307"></trkpt>
      <trkpt lat="42.144905" lon="24.763306"></trkpt>
      <trkpt lat="42.145454" lon="24.763355"></trkpt>
      <trkpt lat="42.146267" lon="24.763405"></trkpt>
      <trkpt lat="42.146314" lon="24.763405"></trkpt>
      <trkpt lat="42.146574" lon="24.763401"></trkpt>
      <trkpt lat="42.146733" lon="24.763418"></trkpt>
      <trkpt lat="42.146767" lon="24.763421"></trkpt>
      <trkpt lat="42.146785" lon="24.763435"></trkpt>
      <trkpt lat="42.146795" lon="24.76345"></trkpt>
      <trkpt lat="42.146897" lon="24.763447"></trkpt>
      <trkpt lat="42.147052" lon="24.763453"></trkpt>
      <trkpt lat="42.147153" lon="24.763456"></trkpt>
      <trkpt lat="42.14716" lon="24.763546"></trkpt>
      <trkpt lat="42.147186" lon="24.763772"></trkpt>
      <trkpt lat="42.147229" lon="24.764049"></trkpt>
      <trkpt lat="42.147413" lon="24.765249"></trkpt>
      <trkpt lat="42.147507" lon="24.765215"></trkpt>
      <trkpt lat="42.147845" lon="24.765093"></trkpt>
      <trkpt lat="42.147937" lon="24.765563"></trkpt>
      <trkpt lat="42.147894" lon="24.765577"></trkpt>
      <trkpt lat="42.147881" lon="24.765607"></trkpt>
      <trkpt lat="42.147892" lon="24.765664"></trkpt>
      <trkpt lat="42.147805" lon="24.765695"></trkpt>
    </trkseg>
  </trk>
</gpx>
