<?xml version="1.0" encoding="UTF-8"?>
<gpx version="1.1" creator="Open Plovdiv" xmlns="http://www.topografix.com/GPX/1/1">
  <metadata>
    <name>Kapana, parks and the Rowing Canal</name>
  </metadata>
  <wpt lat="42.149922" lon="24.748517">
    <name>1. Kapana</name>
  </wpt>
  <wpt lat="42.141957" lon="24.747196">
    <name>2. Tzar Simeon Garden</name>
  </wpt>
  <wpt lat="42.144528" lon="24.738102">
    <name>3. Bunardzhik</name>
  </wpt>
  <wpt lat="42.136948" lon="24.731714">
    <name>4. Dzhendem tepe</name>
  </wpt>
  <wpt lat="42.150496" lon="24.718245">
    <name>5. Rowing Canal / Grebna Baza</name>
  </wpt>
  <trk>
    <name>Kapana, parks and the Rowing Canal</name>
    <trkseg>
      <trkpt lat="42.149922" lon="24.748517"></trkpt>
      <trkpt lat="42.149614" lon="24.748202"></trkpt>
      <trkpt lat="42.149519" lon="24.748243"></trkpt>
      <trkpt lat="42.149448" lon="24.748276"></trkpt>
      <trkpt lat="42.14928" lon="24.748354"></trkpt>
      <trkpt lat="42.149042" lon="24.747534"></trkpt>
      <trkpt lat="42.148823" lon="24.747625"></trkpt>
      <trkpt lat="42.148465" lon="24.747773"></trkpt>
      <trkpt lat="42.148106" lon="24.747921"></trkpt>
      <trkpt lat="42.148049" lon="24.747941"></trkpt>
      <trkpt lat="42.147985" lon="24.74777"></trkpt>
      <trkpt lat="42.147837" lon="24.747756"></trkpt>
      <trkpt lat="42.147533" lon="24.747997"></trkpt>
      <trkpt lat="42.147483" lon="24.748036"></trkpt>
      <trkpt lat="42.147466" lon="24.74805"></trkpt>
      <trkpt lat="42.147453" lon="24.748154"></trkpt>
      <trkpt lat="42.14741" lon="24.748145"></trkpt>
      <trkpt lat="42.147145" lon="24.748175"></trkpt>
      <trkpt lat="42.146918" lon="24.748289"></trkpt>
      <trkpt lat="42.146559" lon="24.748487"></trkpt>
      <trkpt lat="42.146347" lon="24.748611"></trkpt>
      <trkpt lat="42.14561" lon="24.749052"></trkpt>
      <trkpt lat="42.145525" lon="24.749095"></trkpt>
      <trkpt lat="42.14466" lon="24.749464"></trkpt>
      <trkpt lat="42.14444" lon="24.749011"></trkpt>
      <trkpt lat="42.144306" lon="24.748738"></trkpt>
      <trkpt lat="42.144161" lon="24.748442"></trkpt>
      <trkpt lat="42.143845" lon="24.748546"></trkpt>
      <trkpt lat="42.143632" lon="24.748514"></trkpt>
      <trkpt lat="42.143594" lon="24.748508"></trkpt>
      <trkpt lat="42.143267" lon="24.748132"></trkpt>
      <trkpt lat="42.143207" lon="24.748052"></trkpt>
      <trkpt lat="42.143057" lon="24.74785"></trkpt>
      <trkpt lat="42.143106" lon="24.747553"></trkpt>
      <trkpt lat="42.143101" lon="24.747552"></trkpt>
      <trkpt lat="42.143072" lon="24.747545"></trkpt>
      <trkpt lat="42.142835" lon="24.747579"></trkpt>
      <trkpt lat="42.14274" lon="24.747593"></trkpt>
      <trkpt lat="42.142308" lon="24.747618"></trkpt>
      <trkpt lat="42.142138" lon="24.747618"></trkpt>
      <trkpt lat="42.14212" lon="24.747562"></trkpt>
      <trkpt lat="42.142088" lon="24.74752"></trkpt>
      <trkpt lat="42.142047" lon="24.747497"></trkpt>
      <trkpt lat="42.142002" lon="24.747497"></trkpt>
      <trkpt lat="42.141961" lon="24.747521"></trkpt>
      <trkpt lat="42.14196" lon="24.747237"></trkpt>
      <trkpt lat="42.141957" lon="24.747196"></trkpt>
      <trkpt lat="42.141942" lon="24.746962"></trkpt>
      <trkpt lat="42.141923" lon="24.74682"></trkpt>
      <trkpt lat="42.141997" lon="24.746795"></trkpt>
      <trkpt lat="42.142061" lon="24.746716"></trkpt>
      <trkpt lat="42.142035" lon="24.746252"></trkpt>
      <trkpt lat="42.142152" lon="24.746209"></trkpt>
      <trkpt lat="42.142279" lon="24.746157"></trkpt>
      <trkpt lat="42.14236" lon="24.746114"></trkpt>
      <trkpt lat="42.142509" lon="24.745887"></trkpt>
      <trkpt lat="42.142673" lon="24.745885"></trkpt>
      <trkpt lat="42.142681" lon="24.745759"></trkpt>
      <trkpt lat="42.142737" lon="24.74551"></trkpt>
      <trkpt lat="42.142724" lon="24.745366"></trkpt>
      <trkpt lat="42.142562" lon="24.744582"></trkpt>
      <trkpt lat="42.142372" lon="24.743647"></trkpt>
      <trkpt lat="42.142316" lon="24.743371"></trkpt>
      <trkpt lat="42.142159" lon="24.742511"></trkpt>
      <trkpt lat="42.142096" lon="24.74207"></trkpt>
      <trkpt lat="42.142058" lon="24.741807"></trkpt>
      <trkpt lat="42.141998" lon="24.741718"></trkpt>
      <trkpt lat="42.141991" lon="24.741597"></trkpt>
      <trkpt lat="42.141978" lon="24.741491"></trkpt>
      <trkpt lat="42.141973" lon="24.741381"></trkpt>
      <trkpt lat="42.141945" lon="24.741311"></trkpt>
      <trkpt lat="42.1419" lon="24.74125"></trkpt>
      <trkpt lat="42.141927" lon="24.741203"></trkpt>
      <trkpt lat="42.141935" lon="24.741148"></trkpt>
      <trkpt lat="42.141936" lon="24.741066"></trkpt>
      <trkpt lat="42.141934" lon="24.741021"></trkpt>
      <trkpt lat="42.141915" lon="24.740459"></trkpt>
      <trkpt lat="42.141928" lon="24.740394"></trkpt>
      <trkpt lat="42.141943" lon="24.740376"></trkpt>
      <trkpt lat="42.141937" lon="24.74018"></trkpt>
      <trkpt lat="42.141928" lon="24.740113"></trkpt>
      <trkpt lat="42.141875" lon="24.739985"></trkpt>
      <trkpt lat="42.141915" lon="24.739957"></trkpt>
      <trkpt lat="42.141949" lon="24.739934"></trkpt>
      <trkpt lat="42.141984" lon="24.739915"></trkpt>
      <trkpt lat="42.142016" lon="24.739916"></trkpt>
      <trkpt lat="42.142009" lon="24.739752"></trkpt>
      <trkpt lat="42.142016" lon="24.739631"></trkpt>
      <trkpt lat="42.142594" lon="24.739566"></trkpt>
      <trkpt lat="42.142668" lon="24.739418"></trkpt>
      <trkpt lat="42.142688" lon="24.739299"></trkpt>
      <trkpt lat="42.142739" lon="24.739054"></trkpt>
      <trkpt lat="42.142798" lon="24.73892"></trkpt>
      <trkpt lat="42.142873" lon="24.738771"></trkpt>
      <trkpt lat="42.14292" lon="24.738845"></trkpt>
      <trkpt lat="42.142904" lon="24.738919"></trkpt>
      <trkpt lat="42.142896" lon="24.738982"></trkpt>
      <trkpt lat="42.142904" lon="24.739004"></trkpt>
      <trkpt lat="42.142924" lon="24.739011"></trkpt>
      <trkpt lat="42.143018" lon="24.73903"></trkpt>
      <trkpt lat="42.14305" lon="24.738782"></trkpt>
      <trkpt lat="42.14309" lon="24.738792"></trkpt>
      <trkpt lat="42.143101" lon="24.738733"></trkpt>
      <trkpt lat="42.143116" lon="24.738656"></trkpt>
      <trkpt lat="42.143245" lon="24.738687"></trkpt>
      <trkpt lat="42.143263" lon="24.738691"></trkpt>
      <trkpt lat="42.14342" lon="24.73873"></trkpt>
      <trkpt lat="42.143452" lon="24.738632"></trkpt>
      <trkpt lat="42.14364" lon="24.738734"></trkpt>
      <trkpt lat="42.14364" lon="24.738716"></trkpt>
      <trkpt lat="42.143647" lon="24.7387"></trkpt>
      <trkpt lat="42.143685" lon="24.73869"></trkpt>
      <trkpt lat="42.143763" lon="24.738687"></trkpt>
      <trkpt lat="42.1439" lon="24.73865"></trkpt>
      <trkpt lat="42.144042" lon="24.738573"></trkpt>
      <trkpt lat="42.144124" lon="24.738521"></trkpt>
      <trkpt lat="42.144282" lon="24.738437"></trkpt>
      <trkpt lat="42.144289" lon="24.738419"></trkpt>
      <trkpt lat="42.144287" lon="24.738402"></trkpt>
      <trkpt lat="42.144277" lon="24.738391"></trkpt>
      <trkpt lat="42.144266" lon="24.738389"></trkpt>
      <trkpt lat="42.144229" lon="24.738393"></trkpt>
      <trkpt lat="42.14422" lon="24.738389"></trkpt>
      <trkpt lat="42.144216" lon="24.738373"></trkpt>
      <trkpt lat="42.144219" lon="24.738359"></trkpt>
      <trkpt lat="42.144317" lon="24.738268"></trkpt>
      <trkpt lat="42.144476" lon="24.73814"></trkpt>
      <trkpt lat="42.144528" lon="24.738102"></trkpt>
      <trkpt lat="42.144528" lon="24.738102"></trkpt>
      <trkpt lat="42.144528" lon="24.738102"></trkpt>
      <trkpt lat="42.144476" lon="24.73814"></trkpt>
      <trkpt lat="42.144317" lon="24.738268"></trkpt>
      <trkpt lat="42.144219" lon="24.738359"></trkpt>
      <trkpt lat="42.144216" lon="24.738373"></trkpt>
      <trkpt lat="42.14422" lon="24.738389"></trkpt>
      <trkpt lat="42.144229" lon="24.738393"></trkpt>
      <trkpt lat="42.144266" lon="24.738389"></trkpt>
      <trkpt lat="42.144277" lon="24.738391"></trkpt>
      <trkpt lat="42.144287" lon="24.738402"></trkpt>
      <trkpt lat="42.144289" lon="24.738419"></trkpt>
      <trkpt lat="42.144282" lon="24.738437"></trkpt>
      <trkpt lat="42.144124" lon="24.738521"></trkpt>
      <trkpt lat="42.144042" lon="24.738573"></trkpt>
      <trkpt lat="42.1439" lon="24.73865"></trkpt>
      <trkpt lat="42.143763" lon="24.738687"></trkpt>
      <trkpt lat="42.143685" lon="24.73869"></trkpt>
      <trkpt lat="42.143647" lon="24.7387"></trkpt>
      <trkpt lat="42.14364" lon="24.738716"></trkpt>
      <trkpt lat="42.14364" lon="24.738734"></trkpt>
      <trkpt lat="42.143452" lon="24.738632"></trkpt>
      <trkpt lat="42.14342" lon="24.73873"></trkpt>
      <trkpt lat="42.143263" lon="24.738691"></trkpt>
      <trkpt lat="42.143245" lon="24.738687"></trkpt>
      <trkpt lat="42.143116" lon="24.738656"></trkpt>
      <trkpt lat="42.143101" lon="24.738733"></trkpt>
      <trkpt lat="42.14309" lon="24.738792"></trkpt>
      <trkpt lat="42.14305" lon="24.738782"></trkpt>
      <trkpt lat="42.143018" lon="24.73903"></trkpt>
      <trkpt lat="42.142924" lon="24.739011"></trkpt>
      <trkpt lat="42.142904" lon="24.739004"></trkpt>
      <trkpt lat="42.142896" lon="24.738982"></trkpt>
      <trkpt lat="42.142904" lon="24.738919"></trkpt>
      <trkpt lat="42.14292" lon="24.738845"></trkpt>
      <trkpt lat="42.142873" lon="24.738771"></trkpt>
      <trkpt lat="42.142793" lon="24.738631"></trkpt>
      <trkpt lat="42.142782" lon="24.7385"></trkpt>
      <trkpt lat="42.142732" lon="24.738494"></trkpt>
      <trkpt lat="42.142599" lon="24.738478"></trkpt>
      <trkpt lat="42.142596" lon="24.738454"></trkpt>
      <trkpt lat="42.142521" lon="24.738395"></trkpt>
      <trkpt lat="42.142498" lon="24.738353"></trkpt>
      <trkpt lat="42.14247" lon="24.738224"></trkpt>
      <trkpt lat="42.142392" lon="24.738124"></trkpt>
      <trkpt lat="42.142369" lon="24.738113"></trkpt>
      <trkpt lat="42.142351" lon="24.738027"></trkpt>
      <trkpt lat="42.142195" lon="24.737942"></trkpt>
      <trkpt lat="42.142209" lon="24.737859"></trkpt>
      <trkpt lat="42.142099" lon="24.737762"></trkpt>
      <trkpt lat="42.142021" lon="24.737858"></trkpt>
      <trkpt lat="42.141934" lon="24.737927"></trkpt>
      <trkpt lat="42.141922" lon="24.737793"></trkpt>
      <trkpt lat="42.141908" lon="24.737623"></trkpt>
      <trkpt lat="42.141412" lon="24.737657"></trkpt>
      <trkpt lat="42.14102" lon="24.737671"></trkpt>
      <trkpt lat="42.140892" lon="24.737243"></trkpt>
      <trkpt lat="42.140742" lon="24.736965"></trkpt>
      <trkpt lat="42.140672" lon="24.736894"></trkpt>
      <trkpt lat="42.140179" lon="24.736443"></trkpt>
      <trkpt lat="42.140105" lon="24.736369"></trkpt>
      <trkpt lat="42.140051" lon="24.736316"></trkpt>
      <trkpt lat="42.140023" lon="24.736285"></trkpt>
      <trkpt lat="42.140643" lon="24.735175"></trkpt>
      <trkpt lat="42.140007" lon="24.734547"></trkpt>
      <trkpt lat="42.139851" lon="24.734361"></trkpt>
      <trkpt lat="42.13977" lon="24.734174"></trkpt>
      <trkpt lat="42.139776" lon="24.734073"></trkpt>
      <trkpt lat="42.139746" lon="24.734082"></trkpt>
      <trkpt lat="42.139706" lon="24.734082"></trkpt>
      <trkpt lat="42.139172" lon="24.734308"></trkpt>
      <trkpt lat="42.139088" lon="24.734338"></trkpt>
      <trkpt lat="42.138961" lon="24.73439"></trkpt>
      <trkpt lat="42.138789" lon="24.734351"></trkpt>
      <trkpt lat="42.138568" lon="24.734349"></trkpt>
      <trkpt lat="42.138372" lon="24.734343"></trkpt>
      <trkpt lat="42.138132" lon="24.734279"></trkpt>
      <trkpt lat="42.138034" lon="24.734295"></trkpt>
      <trkpt lat="42.137891" lon="24.734264"></trkpt>
      <trkpt lat="42.137793" lon="24.734235"></trkpt>
      <trkpt lat="42.137729" lon="24.734165"></trkpt>
      <trkpt lat="42.137616" lon="24.734092"></trkpt>
      <trkpt lat="42.137455" lon="24.73402"></trkpt>
      <trkpt lat="42.13726" lon="24.734028"></trkpt>
      <trkpt lat="42.137005" lon="24.733937"></trkpt>
      <trkpt lat="42.136721" lon="24.7338"></trkpt>
      <trkpt lat="42.136639" lon="24.733685"></trkpt>
      <trkpt lat="42.13659" lon="24.733599"></trkpt>
      <trkpt lat="42.136521" lon="24.733553"></trkpt>
      <trkpt lat="42.136619" lon="24.733429"></trkpt>
      <trkpt lat="42.136947" lon="24.73323"></trkpt>
      <trkpt lat="42.137085" lon="24.733112"></trkpt>
      <trkpt lat="42.137205" lon="24.733006"></trkpt>
      <trkpt lat="42.137284" lon="24.733011"></trkpt>
      <trkpt lat="42.137376" lon="24.732771"></trkpt>
      <trkpt lat="42.137472" lon="24.732718"></trkpt>
      <trkpt lat="42.137495" lon="24.73254"></trkpt>
      <trkpt lat="42.137421" lon="24.732438"></trkpt>
      <trkpt lat="42.137286" lon="24.732394"></trkpt>
      <trkpt lat="42.137254" lon="24.732441"></trkpt>
      <trkpt lat="42.137216" lon="24.732472"></trkpt>
      <trkpt lat="42.1371" lon="24.732288"></trkpt>
      <trkpt lat="42.137039" lon="24.732089"></trkpt>
      <trkpt lat="42.137017" lon="24.731882"></trkpt>
      <trkpt lat="42.136954" lon="24.732185"></trkpt>
      <trkpt lat="42.136903" lon="24.732274"></trkpt>
      <trkpt lat="42.136868" lon="24.732286"></trkpt>
      <trkpt lat="42.136831" lon="24.732268"></trkpt>
      <trkpt lat="42.136799" lon="24.732248"></trkpt>
      <trkpt lat="42.136794" lon="24.732184"></trkpt>
      <trkpt lat="42.136806" lon="24.732091"></trkpt>
      <trkpt lat="42.136858" lon="24.731976"></trkpt>
      <trkpt lat="42.136868" lon="24.731841"></trkpt>
      <trkpt lat="42.136904" lon="24.731733"></trkpt>
      <trkpt lat="42.136948" lon="24.731714"></trkpt>
      <trkpt lat="42.136948" lon="24.731714"></trkpt>
      <trkpt lat="42.136904" lon="24.731733"></trkpt>
      <trkpt lat="42.136868" lon="24.731841"></trkpt>
      <trkpt lat="42.136858" lon="24.731976"></trkpt>
      <trkpt lat="42.136806" lon="24.732091"></trkpt>
      <trkpt lat="42.136794" lon="24.732184"></trkpt>
      <trkpt lat="42.136799" lon="24.732248"></trkpt>
      <trkpt lat="42.136831" lon="24.732268"></trkpt>
      <trkpt lat="42.136868" lon="24.732286"></trkpt>
      <trkpt lat="42.136903" lon="24.732274"></trkpt>
      <trkpt lat="42.136954" lon="24.732185"></trkpt>
      <trkpt lat="42.137017" lon="24.731882"></trkpt>
      <trkpt lat="42.137014" lon="24.731761"></trkpt>
      <trkpt lat="42.136996" lon="24.731576"></trkpt>
      <trkpt lat="42.137009" lon="24.731503"></trkpt>
      <trkpt lat="42.136978" lon="24.731452"></trkpt>
      <trkpt lat="42.136924" lon="24.731465"></trkpt>
      <trkpt lat="42.136904" lon="24.731494"></trkpt>
      <trkpt lat="42.136874" lon="24.731547"></trkpt>
      <trkpt lat="42.136863" lon="24.731489"></trkpt>
      <trkpt lat="42.136883" lon="24.731428"></trkpt>
      <trkpt lat="42.136867" lon="24.731407"></trkpt>
      <trkpt lat="42.136825" lon="24.731422"></trkpt>
      <trkpt lat="42.136839" lon="24.731277"></trkpt>
      <trkpt lat="42.136793" lon="24.731224"></trkpt>
      <trkpt lat="42.136764" lon="24.731152"></trkpt>
      <trkpt lat="42.136809" lon="24.731111"></trkpt>
      <trkpt lat="42.136815" lon="24.731075"></trkpt>
      <trkpt lat="42.136752" lon="24.730955"></trkpt>
      <trkpt lat="42.136751" lon="24.730855"></trkpt>
      <trkpt lat="42.136719" lon="24.730822"></trkpt>
      <trkpt lat="42.136766" lon="24.730699"></trkpt>
      <trkpt lat="42.136727" lon="24.730627"></trkpt>
      <trkpt lat="42.136699" lon="24.730519"></trkpt>
      <trkpt lat="42.136682" lon="24.730384"></trkpt>
      <trkpt lat="42.136736" lon="24.730307"></trkpt>
      <trkpt lat="42.136715" lon="24.730261"></trkpt>
      <trkpt lat="42.136709" lon="24.730203"></trkpt>
      <trkpt lat="42.136663" lon="24.730178"></trkpt>
      <trkpt lat="42.136693" lon="24.730122"></trkpt>
      <trkpt lat="42.136649" lon="24.73002"></trkpt>
      <trkpt lat="42.136684" lon="24.730029"></trkpt>
      <trkpt lat="42.136692" lon="24.72998"></trkpt>
      <trkpt lat="42.136609" lon="24.729953"></trkpt>
      <trkpt lat="42.13659" lon="24.730007"></trkpt>
      <trkpt lat="42.136552" lon="24.729958"></trkpt>
      <trkpt lat="42.136567" lon="24.729878"></trkpt>
      <trkpt lat="42.13658" lon="24.729799"></trkpt>
      <trkpt lat="42.136623" lon="24.729753"></trkpt>
      <trkpt lat="42.136621" lon="24.729711"></trkpt>
      <trkpt lat="42.136632" lon="24.729646"></trkpt>
      <trkpt lat="42.136672" lon="24.72963"></trkpt>
      <trkpt lat="42.136648" lon="24.72956"></trkpt>
      <trkpt lat="42.136585" lon="24.729463"></trkpt>
      <trkpt lat="42.136544" lon="24.729366"></trkpt>
      <trkpt lat="42.136547" lon="24.729256"></trkpt>
      <trkpt lat="42.136527" lon="24.729177"></trkpt>
      <trkpt lat="42.136469" lon="24.729155"></trkpt>
      <trkpt lat="42.136477" lon="24.729021"></trkpt>
      <trkpt lat="42.136486" lon="24.72887"></trkpt>
      <trkpt lat="42.136528" lon="24.72854"></trkpt>
      <trkpt lat="42.136572" lon="24.728183"></trkpt>
      <trkpt lat="42.136618" lon="24.72795"></trkpt>
      <trkpt lat="42.136637" lon="24.727717"></trkpt>
      <trkpt lat="42.136633" lon="24.727532"></trkpt>
      <trkpt lat="42.136616" lon="24.727416"></trkpt>
      <trkpt lat="42.136671" lon="24.727282"></trkpt>
      <trkpt lat="42.136804" lon="24.727129"></trkpt>
      <trkpt lat="42.136909" lon="24.726981"></trkpt>
      <trkpt lat="42.137047" lon="24.726878"></trkpt>
      <trkpt lat="42.137429" lon="24.727012"></trkpt>
      <trkpt lat="42.137659" lon="24.727162"></trkpt>
      <trkpt lat="42.137885" lon="24.72741"></trkpt>
      <trkpt lat="42.138172" lon="24.727699"></trkpt>
      <trkpt lat="42.138482" lon="24.728059"></trkpt>
      <trkpt lat="42.138675" lon="24.728197"></trkpt>
      <trkpt lat="42.138841" lon="24.728782"></trkpt>
      <trkpt lat="42.139581" lon="24.728487"></trkpt>
      <trkpt lat="42.139669" lon="24.728443"></trkpt>
      <trkpt lat="42.139991" lon="24.728285"></trkpt>
      <trkpt lat="42.140233" lon="24.728038"></trkpt>
      <trkpt lat="42.140631" lon="24.727737"></trkpt>
      <trkpt lat="42.140722" lon="24.727697"></trkpt>
      <trkpt lat="42.140767" lon="24.727679"></trkpt>
      <trkpt lat="42.141716" lon="24.727684"></trkpt>
      <trkpt lat="42.141714" lon="24.727566"></trkpt>
      <trkpt lat="42.141838" lon="24.727559"></trkpt>
      <trkpt lat="42.142001" lon="24.727549"></trkpt>
      <trkpt lat="42.142164" lon="24.727542"></trkpt>
      <trkpt lat="42.142186" lon="24.727545"></trkpt>
      <trkpt lat="42.142275" lon="24.727626"></trkpt>
      <trkpt lat="42.142859" lon="24.72759"></trkpt>
      <trkpt lat="42.143033" lon="24.727407"></trkpt>
      <trkpt lat="42.143084" lon="24.727331"></trkpt>
      <trkpt lat="42.143084" lon="24.727311"></trkpt>
      <trkpt lat="42.143079" lon="24.726955"></trkpt>
      <trkpt lat="42.143118" lon="24.726954"></trkpt>
      <trkpt lat="42.143157" lon="24.726952"></trkpt>
      <trkpt lat="42.143219" lon="24.72695"></trkpt>
      <trkpt lat="42.143216" lon="24.726942"></trkpt>
      <trkpt lat="42.143238" lon="24.726922"></trkpt>
      <trkpt lat="42.143235" lon="24.726812"></trkpt>
      <trkpt lat="42.143234" lon="24.72677"></trkpt>
      <trkpt lat="42.143221" lon="24.726771"></trkpt>
      <trkpt lat="42.143202" lon="24.726757"></trkpt>
      <trkpt lat="42.143188" lon="24.726686"></trkpt>
      <trkpt lat="42.143188" lon="24.726621"></trkpt>
      <trkpt lat="42.143188" lon="24.726538"></trkpt>
      <trkpt lat="42.143203" lon="24.726499"></trkpt>
      <trkpt lat="42.143229" lon="24.726486"></trkpt>
      <trkpt lat="42.143317" lon="24.726476"></trkpt>
      <trkpt lat="42.143315" lon="24.7264"></trkpt>
      <trkpt lat="42.143311" lon="24.726265"></trkpt>
      <trkpt lat="42.143615" lon="24.726241"></trkpt>
      <trkpt lat="42.14436" lon="24.726165"></trkpt>
      <trkpt lat="42.1444" lon="24.726152"></trkpt>
      <trkpt lat="42.144482" lon="24.726038"></trkpt>
      <trkpt lat="42.144524" lon="24.725981"></trkpt>
      <trkpt lat="42.144583" lon="24.725959"></trkpt>
      <trkpt lat="42.14462" lon="24.725966"></trkpt>
      <trkpt lat="42.144656" lon="24.725983"></trkpt>
      <trkpt lat="42.14473" lon="24.726052"></trkpt>
      <trkpt lat="42.144786" lon="24.726034"></trkpt>
      <trkpt lat="42.144866" lon="24.726003"></trkpt>
      <trkpt lat="42.145617" lon="24.725708"></trkpt>
      <trkpt lat="42.14572" lon="24.725668"></trkpt>
      <trkpt lat="42.145869" lon="24.725609"></trkpt>
      <trkpt lat="42.145909" lon="24.725594"></trkpt>
      <trkpt lat="42.145924" lon="24.725588"></trkpt>
      <trkpt lat="42.146701" lon="24.725296"></trkpt>
      <trkpt lat="42.146926" lon="24.725192"></trkpt>
      <trkpt lat="42.147029" lon="24.725103"></trkpt>
      <trkpt lat="42.147085" lon="24.725071"></trkpt>
      <trkpt lat="42.147141" lon="24.725037"></trkpt>
      <trkpt lat="42.14795" lon="24.724404"></trkpt>
      <trkpt lat="42.148559" lon="24.723865"></trkpt>
      <trkpt lat="42.14861" lon="24.723773"></trkpt>
      <trkpt lat="42.148619" lon="24.723743"></trkpt>
      <trkpt lat="42.148627" lon="24.723713"></trkpt>
      <trkpt lat="42.148714" lon="24.723672"></trkpt>
      <trkpt lat="42.14967" lon="24.723118"></trkpt>
      <trkpt lat="42.149733" lon="24.723075"></trkpt>
      <trkpt lat="42.149781" lon="24.723046"></trkpt>
      <trkpt lat="42.149791" lon="24.722592"></trkpt>
      <trkpt lat="42.149835" lon="24.722492"></trkpt>
      <trkpt lat="42.149903" lon="24.722459"></trkpt>
      <trkpt lat="42.150004" lon="24.722437"></trkpt>
      <trkpt lat="42.149958" lon="24.722063"></trkpt>
      <trkpt lat="42.15001" lon="24.721235"></trkpt>
      <trkpt lat="42.150012" lon="24.721151"></trkpt>
      <trkpt lat="42.150098" lon="24.720932"></trkpt>
      <trkpt lat="42.150112" lon="24.720943"></trkpt>
      <trkpt lat="42.150183" lon="24.720835"></trkpt>
      <trkpt lat="42.150253" lon="24.720773"></trkpt>
      <trkpt lat="42.150297" lon="24.72075"></trkpt>
      <trkpt lat="42.15037" lon="24.720713"></trkpt>
      <trkpt lat="42.150422" lon="24.720684"></trkpt>
      <trkpt lat="42.15046" lon="24.720656"></trkpt>
      <trkpt lat="42.150504" lon="24.720615"></trkpt>
      <trkpt lat="42.150491" lon="24.720585"></trkpt>
      <trkpt lat="42.150529" lon="24.720553"></trkpt>
      <trkpt lat="42.150598" lon="24.720482"></trkpt>
      <trkpt lat="42.150671" lon="24.720391"></trkpt>
      <trkpt lat="42.15075" lon="24.720266"></trkpt>
      <trkpt lat="42.150815" lon="24.72011"></trkpt>
      <trkpt lat="42.150858" lon="24.719952"></trkpt>
      <trkpt lat="42.150882" lon="24.719814"></trkpt>
      <trkpt lat="42.150885" lon="24.719678"></trkpt>
      <trkpt lat="42.150885" lon="24.71958"></trkpt>
      <trkpt lat="42.150852" lon="24.719392"></trkpt>
      <trkpt lat="42.150793" lon="24.719195"></trkpt>
      <trkpt lat="42.150725" lon="24.719073"></trkpt>
      <trkpt lat="42.150613" lon="24.718936"></trkpt>
      <trkpt lat="42.150619" lon="24.71886"></trkpt>
      <trkpt lat="42.150619" lon="24.718762"></trkpt>
      <trkpt lat="42.15061" lon="24.718654"></trkpt>
      <trkpt lat="42.15059" lon="24.718476"></trkpt>
      <trkpt lat="42.150584" lon="24.718432"></trkpt>
      <trkpt lat="42.150576" lon="24.718393"></trkpt>
      <trkpt lat="42.150563" lon="24.718352"></trkpt>
      <trkpt lat="42.150543" lon="24.718311"></trkpt>
      <trkpt lat="42.150496" lon="24.718245"></trkpt>
      <trkpt lat="42.150496" lon="24.718245"></trkpt>
    </trkseg>
  </trk>
</gpx>
