<?xml version="1.0" encoding="UTF-8"?>
<gpx version="1.1" creator="Open Plovdiv" xmlns="http://www.topografix.com/GPX/1/1">
  <metadata>
    <name>Kapana and the creative city</name>
  </metadata>
  <wpt lat="42.147781" lon="24.748001">
    <name>1. Dzhumaya square</name>
  </wpt>
  <wpt lat="42.147552" lon="24.747982">
    <name>2. Ancient Stadium</name>
  </wpt>
  <wpt lat="42.149922" lon="24.748517">
    <name>3. Kapana</name>
  </wpt>
  <wpt lat="42.151864" lon="24.749915">
    <name>4. Chifte Hamam</name>
  </wpt>
  <trk>
    <name>Kapana and the creative city</name>
    <trkseg>
      <trkpt lat="42.147781" lon="24.748001"></trkpt>
      <trkpt lat="42.147917" lon="24.748089"></trkpt>
      <trkpt lat="42.147938" lon="24.748103"></trkpt>
      <trkpt lat="42.148068" lon="24.747991"></trkpt>
      <trkpt lat="42.148049" lon="24.747941"></trkpt>
      <trkpt lat="42.147985" lon="24.74777"></trkpt>
      <trkpt lat="42.147837" lon="24.747756"></trkpt>
      <trkpt lat="42.147552" lon="24.747982"></trkpt>
      <trkpt lat="42.147837" lon="24.747756"></trkpt>
      <trkpt lat="42.147985" lon="24.74777"></trkpt>
      <trkpt lat="42.148049" lon="24.747941"></trkpt>
      <trkpt lat="42.148106" lon="24.747921"></trkpt>
      <trkpt lat="42.148465" lon="24.747773"></trkpt>
      <trkpt lat="42.148823" lon="24.747625"></trkpt>
      <trkpt lat="42.149042" lon="24.747534"></trkpt>
      <trkpt lat="42.14928" lon="24.748354"></trkpt>
      <trkpt lat="42.149448" lon="24.748276"></trkpt>
      <trkpt lat="42.149519" lon="24.748243"></trkpt>
      <trkpt lat="42.149614" lon="24.748202"></trkpt>
      <trkpt lat="42.149922" lon="24.748517"></trkpt>
      <trkpt lat="42.150005" lon="24.748602"></trkpt>
      <trkpt lat="42.150566" lon="24.74849"></trkpt>
      <trkpt lat="42.150686" lon="24.748485"></trkpt>
      <trkpt lat="42.150974" lon="24.748473"></trkpt>
      <trkpt lat="42.151159" lon="24.748465"></trkpt>
      <trkpt lat="42.151254" lon="24.748465"></trkpt>
      <trkpt lat="42.151329" lon="24.749157"></trkpt>
      <trkpt lat="42.151353" lon="24.749541"></trkpt>
      <trkpt lat="42.151351" lon="24.749706"></trkpt>
      <trkpt lat="42.151317" lon="24.749894"></trkpt>
      <trkpt lat="42.151432" lon="24.749937"></trkpt>
      <trkpt lat="42.151938" lon="24.750157"></trkpt>
      <trkpt lat="42.151852" lon="24.74998"></trkpt>
      <trkpt lat="42.151809" lon="24.749886"></trkpt>
      <trkpt lat="42.151802" lon="24.749872"></trkpt>
      <trkpt lat="42.151821" lon="24.74986"></trkpt>
      <trkpt lat="42.151826" lon="24.749857"></trkpt>
      <trkpt lat="42.151836" lon="24.74985"></trkpt>
      <trkpt lat="42.151864" lon="24.749915"></trkpt>
    </trkseg>
  </trk>
</gpx>
