<?xml version="1.0" encoding="UTF-8"?>
<gpx version="1.1" creator="Open Plovdiv" xmlns="http://www.topografix.com/GPX/1/1">
  <metadata>
    <name>Karshiyaka: the opposite shore</name>
  </metadata>
  <wpt lat="42.154939" lon="24.749639">
    <name>1. Fairground Bridge</name>
  </wpt>
  <wpt lat="42.156174" lon="24.748968">
    <name>2. Maritsa Hotel</name>
  </wpt>
  <wpt lat="42.15509" lon="24.745705">
    <name>3. Novotel Plovdiv</name>
  </wpt>
  <wpt lat="42.158245" lon="24.735257">
    <name>4. Park Sankt Peterburg Hotel</name>
  </wpt>
  <wpt lat="42.160916" lon="24.742094">
    <name>5. Saint Ivan of Rila church</name>
  </wpt>
  <wpt lat="42.158139" lon="24.756931">
    <name>6. International Fair Plovdiv</name>
  </wpt>
  <trk>
    <name>Karshiyaka: the opposite shore</name>
    <trkseg>
      <trkpt lat="42.154939" lon="24.749639"></trkpt>
      <trkpt lat="42.155523" lon="24.749462"></trkpt>
      <trkpt lat="42.155712" lon="24.749392"></trkpt>
      <trkpt lat="42.15569" lon="24.749259"></trkpt>
      <trkpt lat="42.15575" lon="24.749243"></trkpt>
      <trkpt lat="42.155782" lon="24.74925"></trkpt>
      <trkpt lat="42.1559" lon="24.749216"></trkpt>
      <trkpt lat="42.155939" lon="24.749243"></trkpt>
      <trkpt lat="42.156013" lon="24.74923"></trkpt>
      <trkpt lat="42.156036" lon="24.74918"></trkpt>
      <trkpt lat="42.156119" lon="24.748986"></trkpt>
      <trkpt lat="42.156174" lon="24.748968"></trkpt>
      <trkpt lat="42.156119" lon="24.748986"></trkpt>
      <trkpt lat="42.156036" lon="24.74918"></trkpt>
      <trkpt lat="42.156013" lon="24.74923"></trkpt>
      <trkpt lat="42.155939" lon="24.749243"></trkpt>
      <trkpt lat="42.1559" lon="24.749216"></trkpt>
      <trkpt lat="42.155782" lon="24.74925"></trkpt>
      <trkpt lat="42.15575" lon="24.749243"></trkpt>
      <trkpt lat="42.15569" lon="24.749259"></trkpt>
      <trkpt lat="42.155546" lon="24.748395"></trkpt>
      <trkpt lat="42.155402" lon="24.747528"></trkpt>
      <trkpt lat="42.155255" lon="24.746641"></trkpt>
      <trkpt lat="42.15509" lon="24.745705"></trkpt>
      <trkpt lat="42.154925" lon="24.744767"></trkpt>
      <trkpt lat="42.155124" lon="24.744681"></trkpt>
      <trkpt lat="42.155213" lon="24.744647"></trkpt>
      <trkpt lat="42.155251" lon="24.744634"></trkpt>
      <trkpt lat="42.155255" lon="24.744654"></trkpt>
      <trkpt lat="42.155328" lon="24.744628"></trkpt>
      <trkpt lat="42.155317" lon="24.744565"></trkpt>
      <trkpt lat="42.155931" lon="24.744377"></trkpt>
      <trkpt lat="42.156032" lon="24.744346"></trkpt>
      <trkpt lat="42.15608" lon="24.744347"></trkpt>
      <trkpt lat="42.156165" lon="24.7444"></trkpt>
      <trkpt lat="42.156253" lon="24.744291"></trkpt>
      <trkpt lat="42.156308" lon="24.744228"></trkpt>
      <trkpt lat="42.156587" lon="24.744041"></trkpt>
      <trkpt lat="42.156906" lon="24.743812"></trkpt>
      <trkpt lat="42.157539" lon="24.743371"></trkpt>
      <trkpt lat="42.157579" lon="24.743343"></trkpt>
      <trkpt lat="42.158234" lon="24.742851"></trkpt>
      <trkpt lat="42.158285" lon="24.742818"></trkpt>
      <trkpt lat="42.158343" lon="24.742686"></trkpt>
      <trkpt lat="42.158772" lon="24.74242"></trkpt>
      <trkpt lat="42.158684" lon="24.742131"></trkpt>
      <trkpt lat="42.158642" lon="24.74193"></trkpt>
      <trkpt lat="42.158605" lon="24.741198"></trkpt>
      <trkpt lat="42.158846" lon="24.740726"></trkpt>
      <trkpt lat="42.158843" lon="24.740645"></trkpt>
      <trkpt lat="42.15884" lon="24.740552"></trkpt>
      <trkpt lat="42.158816" lon="24.740457"></trkpt>
      <trkpt lat="42.158797" lon="24.740358"></trkpt>
      <trkpt lat="42.158798" lon="24.740323"></trkpt>
      <trkpt lat="42.158813" lon="24.74019"></trkpt>
      <trkpt lat="42.158814" lon="24.74015"></trkpt>
      <trkpt lat="42.15882" lon="24.739979"></trkpt>
      <trkpt lat="42.15883" lon="24.739648"></trkpt>
      <trkpt lat="42.158844" lon="24.739224"></trkpt>
      <trkpt lat="42.158909" lon="24.739219"></trkpt>
      <trkpt lat="42.158952" lon="24.739215"></trkpt>
      <trkpt lat="42.158955" lon="24.739165"></trkpt>
      <trkpt lat="42.158949" lon="24.739089"></trkpt>
      <trkpt lat="42.158918" lon="24.738174"></trkpt>
      <trkpt lat="42.15894" lon="24.738167"></trkpt>
      <trkpt lat="42.158928" lon="24.738031"></trkpt>
      <trkpt lat="42.158895" lon="24.737819"></trkpt>
      <trkpt lat="42.158884" lon="24.737709"></trkpt>
      <trkpt lat="42.158879" lon="24.737675"></trkpt>
      <trkpt lat="42.158866" lon="24.737584"></trkpt>
      <trkpt lat="42.158688" lon="24.737449"></trkpt>
      <trkpt lat="42.158583" lon="24.737378"></trkpt>
      <trkpt lat="42.158525" lon="24.737339"></trkpt>
      <trkpt lat="42.158516" lon="24.737287"></trkpt>
      <trkpt lat="42.158492" lon="24.736989"></trkpt>
      <trkpt lat="42.158478" lon="24.736903"></trkpt>
      <trkpt lat="42.158492" lon="24.736899"></trkpt>
      <trkpt lat="42.158257" lon="24.735336"></trkpt>
      <trkpt lat="42.158245" lon="24.735257"></trkpt>
      <trkpt lat="42.158257" lon="24.735336"></trkpt>
      <trkpt lat="42.158492" lon="24.736899"></trkpt>
      <trkpt lat="42.158478" lon="24.736903"></trkpt>
      <trkpt lat="42.158492" lon="24.736989"></trkpt>
      <trkpt lat="42.158516" lon="24.737287"></trkpt>
      <trkpt lat="42.158525" lon="24.737339"></trkpt>
      <trkpt lat="42.158583" lon="24.737378"></trkpt>
      <trkpt lat="42.158688" lon="24.737449"></trkpt>
      <trkpt lat="42.158866" lon="24.737584"></trkpt>
      <trkpt lat="42.158879" lon="24.737675"></trkpt>
      <trkpt lat="42.158884" lon="24.737709"></trkpt>
      <trkpt lat="42.158895" lon="24.737819"></trkpt>
      <trkpt lat="42.158928" lon="24.738031"></trkpt>
      <trkpt lat="42.15894" lon="24.738167"></trkpt>
      <trkpt lat="42.158918" lon="24.738174"></trkpt>
      <trkpt lat="42.158949" lon="24.739089"></trkpt>
      <trkpt lat="42.158955" lon="24.739165"></trkpt>
      <trkpt lat="42.158952" lon="24.739215"></trkpt>
      <trkpt lat="42.158909" lon="24.739219"></trkpt>
      <trkpt lat="42.158844" lon="24.739224"></trkpt>
      <trkpt lat="42.15883" lon="24.739648"></trkpt>
      <trkpt lat="42.15882" lon="24.739979"></trkpt>
      <trkpt lat="42.158814" lon="24.74015"></trkpt>
      <trkpt lat="42.158813" lon="24.74019"></trkpt>
      <trkpt lat="42.158914" lon="24.740197"></trkpt>
      <trkpt lat="42.158909" lon="24.740295"></trkpt>
      <trkpt lat="42.158929" lon="24.740295"></trkpt>
      <trkpt lat="42.158947" lon="24.740295"></trkpt>
      <trkpt lat="42.158951" lon="24.740194"></trkpt>
      <trkpt lat="42.159258" lon="24.74022"></trkpt>
      <trkpt lat="42.159263" lon="24.740114"></trkpt>
      <trkpt lat="42.159304" lon="24.740121"></trkpt>
      <trkpt lat="42.159301" lon="24.740219"></trkpt>
      <trkpt lat="42.159344" lon="24.740222"></trkpt>
      <trkpt lat="42.159363" lon="24.740229"></trkpt>
      <trkpt lat="42.159382" lon="24.740263"></trkpt>
      <trkpt lat="42.1594" lon="24.740356"></trkpt>
      <trkpt lat="42.15943" lon="24.7404"></trkpt>
      <trkpt lat="42.159459" lon="24.740403"></trkpt>
      <trkpt lat="42.159499" lon="24.740393"></trkpt>
      <trkpt lat="42.15954" lon="24.740384"></trkpt>
      <trkpt lat="42.159596" lon="24.740907"></trkpt>
      <trkpt lat="42.159668" lon="24.74089"></trkpt>
      <trkpt lat="42.159794" lon="24.740861"></trkpt>
      <trkpt lat="42.15981" lon="24.740858"></trkpt>
      <trkpt lat="42.159843" lon="24.740852"></trkpt>
      <trkpt lat="42.159849" lon="24.740894"></trkpt>
      <trkpt lat="42.160021" lon="24.740861"></trkpt>
      <trkpt lat="42.160277" lon="24.740815"></trkpt>
      <trkpt lat="42.160336" lon="24.741367"></trkpt>
      <trkpt lat="42.160391" lon="24.741382"></trkpt>
      <trkpt lat="42.160984" lon="24.741575"></trkpt>
      <trkpt lat="42.160916" lon="24.742094"></trkpt>
      <trkpt lat="42.160897" lon="24.742237"></trkpt>
      <trkpt lat="42.160909" lon="24.742266"></trkpt>
      <trkpt lat="42.16089" lon="24.742488"></trkpt>
      <trkpt lat="42.160797" lon="24.742473"></trkpt>
      <trkpt lat="42.160711" lon="24.74246"></trkpt>
      <trkpt lat="42.160703" lon="24.742582"></trkpt>
      <trkpt lat="42.160698" lon="24.742662"></trkpt>
      <trkpt lat="42.160673" lon="24.743458"></trkpt>
      <trkpt lat="42.160855" lon="24.74422"></trkpt>
      <trkpt lat="42.160975" lon="24.744692"></trkpt>
      <trkpt lat="42.160905" lon="24.745168"></trkpt>
      <trkpt lat="42.160884" lon="24.74563"></trkpt>
      <trkpt lat="42.160831" lon="24.745552"></trkpt>
      <trkpt lat="42.160644" lon="24.745401"></trkpt>
      <trkpt lat="42.160294" lon="24.74594"></trkpt>
      <trkpt lat="42.16027" lon="24.745977"></trkpt>
      <trkpt lat="42.160138" lon="24.746176"></trkpt>
      <trkpt lat="42.159516" lon="24.747023"></trkpt>
      <trkpt lat="42.15951" lon="24.747271"></trkpt>
      <trkpt lat="42.159323" lon="24.747278"></trkpt>
      <trkpt lat="42.159351" lon="24.747636"></trkpt>
      <trkpt lat="42.159377" lon="24.748239"></trkpt>
      <trkpt lat="42.159323" lon="24.748255"></trkpt>
      <trkpt lat="42.159138" lon="24.748315"></trkpt>
      <trkpt lat="42.159085" lon="24.74831"></trkpt>
      <trkpt lat="42.159004" lon="24.748305"></trkpt>
      <trkpt lat="42.158986" lon="24.748402"></trkpt>
      <trkpt lat="42.158966" lon="24.748467"></trkpt>
      <trkpt lat="42.158939" lon="24.748516"></trkpt>
      <trkpt lat="42.158851" lon="24.748579"></trkpt>
      <trkpt lat="42.158866" lon="24.748662"></trkpt>
      <trkpt lat="42.158889" lon="24.748832"></trkpt>
      <trkpt lat="42.1589" lon="24.748984"></trkpt>
      <trkpt lat="42.158897" lon="24.749075"></trkpt>
      <trkpt lat="42.158589" lon="24.749082"></trkpt>
      <trkpt lat="42.158493" lon="24.749086"></trkpt>
      <trkpt lat="42.158207" lon="24.749135"></trkpt>
      <trkpt lat="42.157926" lon="24.749184"></trkpt>
      <trkpt lat="42.15789" lon="24.749231"></trkpt>
      <trkpt lat="42.157798" lon="24.749256"></trkpt>
      <trkpt lat="42.15783" lon="24.749494"></trkpt>
      <trkpt lat="42.157879" lon="24.749866"></trkpt>
      <trkpt lat="42.15799" lon="24.7506"></trkpt>
      <trkpt lat="42.158192" lon="24.751791"></trkpt>
      <trkpt lat="42.158284" lon="24.752456"></trkpt>
      <trkpt lat="42.158267" lon="24.752604"></trkpt>
      <trkpt lat="42.158216" lon="24.752812"></trkpt>
      <trkpt lat="42.158344" lon="24.754005"></trkpt>
      <trkpt lat="42.15844" lon="24.754903"></trkpt>
      <trkpt lat="42.158283" lon="24.755411"></trkpt>
      <trkpt lat="42.158175" lon="24.755758"></trkpt>
      <trkpt lat="42.158082" lon="24.75611"></trkpt>
      <trkpt lat="42.158045" lon="24.756462"></trkpt>
      <trkpt lat="42.157971" lon="24.756732"></trkpt>
      <trkpt lat="42.158139" lon="24.756931"></trkpt>
    </trkseg>
  </trk>
</gpx>
