<?xml version="1.0" encoding="UTF-8"?>
<gpx version="1.1" creator="Open Plovdiv" xmlns="http://www.topografix.com/GPX/1/1">
  <metadata>
    <name>Kyuchuk Parizh: the Little Paris of the south</name>
  </metadata>
  <wpt lat="42.134649" lon="24.741307">
    <name>1. Plovdiv Central railway station</name>
  </wpt>
  <wpt lat="42.13287" lon="24.755751">
    <name>2. Rhodope overpass in Plovdiv</name>
  </wpt>
  <wpt lat="42.13156" lon="24.751778">
    <name>3. Our Lady of Lourdes Church</name>
  </wpt>
  <trk>
    <name>Kyuchuk Parizh: the Little Paris of the south</name>
    <trkseg>
      <trkpt lat="42.134649" lon="24.741307"></trkpt>
      <trkpt lat="42.134756" lon="24.741889"></trkpt>
      <trkpt lat="42.134818" lon="24.741915"></trkpt>
      <trkpt lat="42.134866" lon="24.741935"></trkpt>
      <trkpt lat="42.135031" lon="24.741887"></trkpt>
      <trkpt lat="42.135141" lon="24.742363"></trkpt>
      <trkpt lat="42.135195" lon="24.742468"></trkpt>
      <trkpt lat="42.135251" lon="24.742515"></trkpt>
      <trkpt lat="42.135296" lon="24.742529"></trkpt>
      <trkpt lat="42.135301" lon="24.742674"></trkpt>
      <trkpt lat="42.135303" lon="24.74271"></trkpt>
      <trkpt lat="42.135389" lon="24.74269"></trkpt>
      <trkpt lat="42.135424" lon="24.743482"></trkpt>
      <trkpt lat="42.135437" lon="24.743775"></trkpt>
      <trkpt lat="42.135453" lon="24.744756"></trkpt>
      <trkpt lat="42.135457" lon="24.744991"></trkpt>
      <trkpt lat="42.135508" lon="24.745079"></trkpt>
      <trkpt lat="42.135559" lon="24.745498"></trkpt>
      <trkpt lat="42.135584" lon="24.745684"></trkpt>
      <trkpt lat="42.135667" lon="24.746321"></trkpt>
      <trkpt lat="42.135673" lon="24.746385"></trkpt>
      <trkpt lat="42.135661" lon="24.746553"></trkpt>
      <trkpt lat="42.135736" lon="24.747184"></trkpt>
      <trkpt lat="42.135749" lon="24.747274"></trkpt>
      <trkpt lat="42.135898" lon="24.748252"></trkpt>
      <trkpt lat="42.136029" lon="24.749196"></trkpt>
      <trkpt lat="42.136047" lon="24.749324"></trkpt>
      <trkpt lat="42.136054" lon="24.749374"></trkpt>
      <trkpt lat="42.136075" lon="24.749523"></trkpt>
      <trkpt lat="42.136085" lon="24.749589"></trkpt>
      <trkpt lat="42.136004" lon="24.749687"></trkpt>
      <trkpt lat="42.135919" lon="24.749758"></trkpt>
      <trkpt lat="42.13584" lon="24.749827"></trkpt>
      <trkpt lat="42.13576" lon="24.749897"></trkpt>
      <trkpt lat="42.135526" lon="24.75003"></trkpt>
      <trkpt lat="42.135245" lon="24.75019"></trkpt>
      <trkpt lat="42.134934" lon="24.750366"></trkpt>
      <trkpt lat="42.13484" lon="24.750486"></trkpt>
      <trkpt lat="42.134796" lon="24.750482"></trkpt>
      <trkpt lat="42.134753" lon="24.750477"></trkpt>
      <trkpt lat="42.1347" lon="24.750472"></trkpt>
      <trkpt lat="42.13462" lon="24.750464"></trkpt>
      <trkpt lat="42.134603" lon="24.750462"></trkpt>
      <trkpt lat="42.13441" lon="24.750431"></trkpt>
      <trkpt lat="42.134329" lon="24.75073"></trkpt>
      <trkpt lat="42.134124" lon="24.751482"></trkpt>
      <trkpt lat="42.133964" lon="24.752001"></trkpt>
      <trkpt lat="42.133932" lon="24.752211"></trkpt>
      <trkpt lat="42.133756" lon="24.752707"></trkpt>
      <trkpt lat="42.133516" lon="24.753251"></trkpt>
      <trkpt lat="42.133418" lon="24.75347"></trkpt>
      <trkpt lat="42.13316" lon="24.753983"></trkpt>
      <trkpt lat="42.132951" lon="24.754375"></trkpt>
      <trkpt lat="42.132657" lon="24.754853"></trkpt>
      <trkpt lat="42.132469" lon="24.755158"></trkpt>
      <trkpt lat="42.132427" lon="24.755112"></trkpt>
      <trkpt lat="42.13239" lon="24.755106"></trkpt>
      <trkpt lat="42.132367" lon="24.755174"></trkpt>
      <trkpt lat="42.132382" lon="24.755219"></trkpt>
      <trkpt lat="42.132435" lon="24.755257"></trkpt>
      <trkpt lat="42.132465" lon="24.75529"></trkpt>
      <trkpt lat="42.132463" lon="24.755375"></trkpt>
      <trkpt lat="42.132633" lon="24.755515"></trkpt>
      <trkpt lat="42.13281" lon="24.755685"></trkpt>
      <trkpt lat="42.13287" lon="24.755751"></trkpt>
      <trkpt lat="42.13281" lon="24.755685"></trkpt>
      <trkpt lat="42.132633" lon="24.755515"></trkpt>
      <trkpt lat="42.132463" lon="24.755375"></trkpt>
      <trkpt lat="42.132465" lon="24.75529"></trkpt>
      <trkpt lat="42.132435" lon="24.755257"></trkpt>
      <trkpt lat="42.132382" lon="24.755219"></trkpt>
      <trkpt lat="42.132367" lon="24.755174"></trkpt>
      <trkpt lat="42.13239" lon="24.755106"></trkpt>
      <trkpt lat="42.132427" lon="24.755112"></trkpt>
      <trkpt lat="42.132469" lon="24.755158"></trkpt>
      <trkpt lat="42.132657" lon="24.754853"></trkpt>
      <trkpt lat="42.131963" lon="24.754832"></trkpt>
      <trkpt lat="42.132004" lon="24.754725"></trkpt>
      <trkpt lat="42.132496" lon="24.7536"></trkpt>
      <trkpt lat="42.132844" lon="24.752744"></trkpt>
      <trkpt lat="42.132002" lon="24.752696"></trkpt>
      <trkpt lat="42.131751" lon="24.752676"></trkpt>
      <trkpt lat="42.131526" lon="24.752661"></trkpt>
      <trkpt lat="42.13156" lon="24.751778"></trkpt>
    </trkseg>
  </trk>
</gpx>
