<?xml version="1.0" encoding="UTF-8"?>
<gpx version="1.1" creator="Open Plovdiv" xmlns="http://www.topografix.com/GPX/1/1">
  <metadata>
    <name>Marasha: between two bridges</name>
  </metadata>
  <wpt lat="42.152229" lon="24.746701">
    <name>1. Şahabettin İmaret Mosque</name>
  </wpt>
  <wpt lat="42.15347" lon="24.738697">
    <name>2. Gerdzhika Bridge</name>
  </wpt>
  <wpt lat="42.150507" lon="24.740686">
    <name>3. Plovdiv Synagogue</name>
  </wpt>
  <wpt lat="42.14934" lon="24.741248">
    <name>4. Orta mezar</name>
  </wpt>
  <wpt lat="42.149578" lon="24.743294">
    <name>5. City garden (Dondukova Garden)</name>
  </wpt>
  <wpt lat="42.153247" lon="24.731076">
    <name>6. Green Bridge in Plovdiv</name>
  </wpt>
  <trk>
    <name>Marasha: between two bridges</name>
    <trkseg>
      <trkpt lat="42.152229" lon="24.746701"></trkpt>
      <trkpt lat="42.152216" lon="24.746562"></trkpt>
      <trkpt lat="42.152206" lon="24.746418"></trkpt>
      <trkpt lat="42.152202" lon="24.74637"></trkpt>
      <trkpt lat="42.152167" lon="24.745991"></trkpt>
      <trkpt lat="42.152354" lon="24.745869"></trkpt>
      <trkpt lat="42.152796" lon="24.7454"></trkpt>
      <trkpt lat="42.152762" lon="24.745343"></trkpt>
      <trkpt lat="42.152687" lon="24.745406"></trkpt>
      <trkpt lat="42.152623" lon="24.745233"></trkpt>
      <trkpt lat="42.152694" lon="24.745203"></trkpt>
      <trkpt lat="42.153064" lon="24.744956"></trkpt>
      <trkpt lat="42.152989" lon="24.744514"></trkpt>
      <trkpt lat="42.152979" lon="24.744456"></trkpt>
      <trkpt lat="42.15296" lon="24.744328"></trkpt>
      <trkpt lat="42.152773" lon="24.742933"></trkpt>
      <trkpt lat="42.152761" lon="24.742737"></trkpt>
      <trkpt lat="42.15283" lon="24.742751"></trkpt>
      <trkpt lat="42.15287" lon="24.742748"></trkpt>
      <trkpt lat="42.15281" lon="24.741961"></trkpt>
      <trkpt lat="42.152772" lon="24.741094"></trkpt>
      <trkpt lat="42.152794" lon="24.740251"></trkpt>
      <trkpt lat="42.152802" lon="24.739052"></trkpt>
      <trkpt lat="42.152721" lon="24.739044"></trkpt>
      <trkpt lat="42.152645" lon="24.739056"></trkpt>
      <trkpt lat="42.152567" lon="24.739062"></trkpt>
      <trkpt lat="42.152565" lon="24.738956"></trkpt>
      <trkpt lat="42.152564" lon="24.738887"></trkpt>
      <trkpt lat="42.152259" lon="24.738944"></trkpt>
      <trkpt lat="42.152237" lon="24.738924"></trkpt>
      <trkpt lat="42.152231" lon="24.738884"></trkpt>
      <trkpt lat="42.152237" lon="24.738854"></trkpt>
      <trkpt lat="42.152178" lon="24.738876"></trkpt>
      <trkpt lat="42.152185" lon="24.738794"></trkpt>
      <trkpt lat="42.152392" lon="24.738731"></trkpt>
      <trkpt lat="42.152474" lon="24.738713"></trkpt>
      <trkpt lat="42.152584" lon="24.738709"></trkpt>
      <trkpt lat="42.152711" lon="24.738705"></trkpt>
      <trkpt lat="42.15347" lon="24.738697"></trkpt>
      <trkpt lat="42.152711" lon="24.738705"></trkpt>
      <trkpt lat="42.152584" lon="24.738709"></trkpt>
      <trkpt lat="42.152474" lon="24.738713"></trkpt>
      <trkpt lat="42.152392" lon="24.738731"></trkpt>
      <trkpt lat="42.152185" lon="24.738794"></trkpt>
      <trkpt lat="42.152178" lon="24.738876"></trkpt>
      <trkpt lat="42.152013" lon="24.738965"></trkpt>
      <trkpt lat="42.151958" lon="24.739005"></trkpt>
      <trkpt lat="42.151852" lon="24.739101"></trkpt>
      <trkpt lat="42.151235" lon="24.739628"></trkpt>
      <trkpt lat="42.151204" lon="24.739659"></trkpt>
      <trkpt lat="42.151194" lon="24.739688"></trkpt>
      <trkpt lat="42.151194" lon="24.739743"></trkpt>
      <trkpt lat="42.151128" lon="24.739788"></trkpt>
      <trkpt lat="42.151144" lon="24.739843"></trkpt>
      <trkpt lat="42.151218" lon="24.740083"></trkpt>
      <trkpt lat="42.151261" lon="24.740224"></trkpt>
      <trkpt lat="42.150507" lon="24.740686"></trkpt>
      <trkpt lat="42.150236" lon="24.740852"></trkpt>
      <trkpt lat="42.150003" lon="24.741016"></trkpt>
      <trkpt lat="42.14997" lon="24.74092"></trkpt>
      <trkpt lat="42.149745" lon="24.741091"></trkpt>
      <trkpt lat="42.149674" lon="24.740896"></trkpt>
      <trkpt lat="42.14957" lon="24.740982"></trkpt>
      <trkpt lat="42.149541" lon="24.741006"></trkpt>
      <trkpt lat="42.149513" lon="24.740887"></trkpt>
      <trkpt lat="42.149516" lon="24.740815"></trkpt>
      <trkpt lat="42.149414" lon="24.740862"></trkpt>
      <trkpt lat="42.149295" lon="24.740917"></trkpt>
      <trkpt lat="42.149234" lon="24.740946"></trkpt>
      <trkpt lat="42.14934" lon="24.741248"></trkpt>
      <trkpt lat="42.149481" lon="24.74165"></trkpt>
      <trkpt lat="42.149541" lon="24.741814"></trkpt>
      <trkpt lat="42.149599" lon="24.74196"></trkpt>
      <trkpt lat="42.149796" lon="24.742438"></trkpt>
      <trkpt lat="42.149822" lon="24.7425"></trkpt>
      <trkpt lat="42.149674" lon="24.742987"></trkpt>
      <trkpt lat="42.149648" lon="24.742976"></trkpt>
      <trkpt lat="42.149604" lon="24.74298"></trkpt>
      <trkpt lat="42.149572" lon="24.742997"></trkpt>
      <trkpt lat="42.149544" lon="24.743027"></trkpt>
      <trkpt lat="42.149523" lon="24.743065"></trkpt>
      <trkpt lat="42.149511" lon="24.74311"></trkpt>
      <trkpt lat="42.149509" lon="24.743158"></trkpt>
      <trkpt lat="42.149518" lon="24.743209"></trkpt>
      <trkpt lat="42.149538" lon="24.743254"></trkpt>
      <trkpt lat="42.149566" lon="24.743287"></trkpt>
      <trkpt lat="42.149578" lon="24.743294"></trkpt>
      <trkpt lat="42.149566" lon="24.743287"></trkpt>
      <trkpt lat="42.149538" lon="24.743254"></trkpt>
      <trkpt lat="42.149518" lon="24.743209"></trkpt>
      <trkpt lat="42.149509" lon="24.743158"></trkpt>
      <trkpt lat="42.149511" lon="24.74311"></trkpt>
      <trkpt lat="42.149523" lon="24.743065"></trkpt>
      <trkpt lat="42.149544" lon="24.743027"></trkpt>
      <trkpt lat="42.149572" lon="24.742997"></trkpt>
      <trkpt lat="42.149604" lon="24.74298"></trkpt>
      <trkpt lat="42.149648" lon="24.742976"></trkpt>
      <trkpt lat="42.149674" lon="24.742987"></trkpt>
      <trkpt lat="42.149822" lon="24.7425"></trkpt>
      <trkpt lat="42.149796" lon="24.742438"></trkpt>
      <trkpt lat="42.149599" lon="24.74196"></trkpt>
      <trkpt lat="42.149541" lon="24.741814"></trkpt>
      <trkpt lat="42.149481" lon="24.74165"></trkpt>
      <trkpt lat="42.149234" lon="24.740946"></trkpt>
      <trkpt lat="42.149295" lon="24.740917"></trkpt>
      <trkpt lat="42.149414" lon="24.740862"></trkpt>
      <trkpt lat="42.149516" lon="24.740815"></trkpt>
      <trkpt lat="42.149542" lon="24.740714"></trkpt>
      <trkpt lat="42.149519" lon="24.740642"></trkpt>
      <trkpt lat="42.149458" lon="24.740452"></trkpt>
      <trkpt lat="42.149416" lon="24.740321"></trkpt>
      <trkpt lat="42.149378" lon="24.740313"></trkpt>
      <trkpt lat="42.149356" lon="24.740285"></trkpt>
      <trkpt lat="42.149234" lon="24.739743"></trkpt>
      <trkpt lat="42.149142" lon="24.739338"></trkpt>
      <trkpt lat="42.149138" lon="24.739311"></trkpt>
      <trkpt lat="42.149054" lon="24.738815"></trkpt>
      <trkpt lat="42.14898" lon="24.738272"></trkpt>
      <trkpt lat="42.14893" lon="24.73793"></trkpt>
      <trkpt lat="42.148915" lon="24.737838"></trkpt>
      <trkpt lat="42.148853" lon="24.73745"></trkpt>
      <trkpt lat="42.149039" lon="24.7374"></trkpt>
      <trkpt lat="42.149078" lon="24.737331"></trkpt>
      <trkpt lat="42.149046" lon="24.737063"></trkpt>
      <trkpt lat="42.149021" lon="24.736861"></trkpt>
      <trkpt lat="42.149195" lon="24.736803"></trkpt>
      <trkpt lat="42.149284" lon="24.73674"></trkpt>
      <trkpt lat="42.149748" lon="24.735939"></trkpt>
      <trkpt lat="42.150339" lon="24.734903"></trkpt>
      <trkpt lat="42.150833" lon="24.734118"></trkpt>
      <trkpt lat="42.150969" lon="24.733893"></trkpt>
      <trkpt lat="42.151066" lon="24.733735"></trkpt>
      <trkpt lat="42.151466" lon="24.733084"></trkpt>
      <trkpt lat="42.151464" lon="24.732923"></trkpt>
      <trkpt lat="42.151461" lon="24.732781"></trkpt>
      <trkpt lat="42.151539" lon="24.732781"></trkpt>
      <trkpt lat="42.151533" lon="24.731883"></trkpt>
      <trkpt lat="42.151583" lon="24.731816"></trkpt>
      <trkpt lat="42.151582" lon="24.731662"></trkpt>
      <trkpt lat="42.151619" lon="24.73156"></trkpt>
      <trkpt lat="42.151671" lon="24.731481"></trkpt>
      <trkpt lat="42.151832" lon="24.731474"></trkpt>
      <trkpt lat="42.151829" lon="24.731362"></trkpt>
      <trkpt lat="42.151828" lon="24.731316"></trkpt>
      <trkpt lat="42.151826" lon="24.730913"></trkpt>
      <trkpt lat="42.151824" lon="24.730794"></trkpt>
      <trkpt lat="42.151905" lon="24.730795"></trkpt>
      <trkpt lat="42.151905" lon="24.730848"></trkpt>
      <trkpt lat="42.151952" lon="24.73085"></trkpt>
      <trkpt lat="42.152001" lon="24.730862"></trkpt>
      <trkpt lat="42.152048" lon="24.730861"></trkpt>
      <trkpt lat="42.152123" lon="24.730858"></trkpt>
      <trkpt lat="42.152187" lon="24.730866"></trkpt>
      <trkpt lat="42.15214" lon="24.730945"></trkpt>
      <trkpt lat="42.152187" lon="24.730941"></trkpt>
      <trkpt lat="42.152337" lon="24.730948"></trkpt>
      <trkpt lat="42.152348" lon="24.730975"></trkpt>
      <trkpt lat="42.152365" lon="24.730998"></trkpt>
      <trkpt lat="42.152385" lon="24.731019"></trkpt>
      <trkpt lat="42.152479" lon="24.731069"></trkpt>
      <trkpt lat="42.15251" lon="24.731069"></trkpt>
      <trkpt lat="42.152792" lon="24.731077"></trkpt>
      <trkpt lat="42.153247" lon="24.731076"></trkpt>
    </trkseg>
  </trk>
</gpx>
