<?xml version="1.0" encoding="UTF-8"?>
<gpx version="1.1" creator="Open Plovdiv" xmlns="http://www.topografix.com/GPX/1/1">
  <metadata>
    <name>Modern Plovdiv of the 20th century</name>
  </metadata>
  <wpt lat="42.140837" lon="24.751155">
    <name>1. Trimontsium Hotel in Plovdiv</name>
  </wpt>
  <wpt lat="42.143627" lon="24.737437">
    <name>2. Alyosha Monument</name>
  </wpt>
  <wpt lat="42.15509" lon="24.745705">
    <name>3. Novotel Plovdiv</name>
  </wpt>
  <wpt lat="42.156174" lon="24.748968">
    <name>4. Maritsa Hotel</name>
  </wpt>
  <wpt lat="42.154939" lon="24.749639">
    <name>5. Fairground Bridge</name>
  </wpt>
  <wpt lat="42.158139" lon="24.756931">
    <name>6. International Fair Plovdiv</name>
  </wpt>
  <trk>
    <name>Modern Plovdiv of the 20th century</name>
    <trkseg>
      <trkpt lat="42.140837" lon="24.751155"></trkpt>
      <trkpt lat="42.14077" lon="24.750607"></trkpt>
      <trkpt lat="42.140793" lon="24.750586"></trkpt>
      <trkpt lat="42.141217" lon="24.750549"></trkpt>
      <trkpt lat="42.141225" lon="24.750548"></trkpt>
      <trkpt lat="42.141222" lon="24.750486"></trkpt>
      <trkpt lat="42.141177" lon="24.749606"></trkpt>
      <trkpt lat="42.141302" lon="24.749803"></trkpt>
      <trkpt lat="42.141486" lon="24.749786"></trkpt>
      <trkpt lat="42.141847" lon="24.749755"></trkpt>
      <trkpt lat="42.141875" lon="24.749753"></trkpt>
      <trkpt lat="42.141864" lon="24.74948"></trkpt>
      <trkpt lat="42.141854" lon="24.749226"></trkpt>
      <trkpt lat="42.141835" lon="24.749044"></trkpt>
      <trkpt lat="42.141808" lon="24.748694"></trkpt>
      <trkpt lat="42.141785" lon="24.748401"></trkpt>
      <trkpt lat="42.141762" lon="24.74807"></trkpt>
      <trkpt lat="42.141737" lon="24.747708"></trkpt>
      <trkpt lat="42.141913" lon="24.74768"></trkpt>
      <trkpt lat="42.141912" lon="24.74762"></trkpt>
      <trkpt lat="42.141929" lon="24.747564"></trkpt>
      <trkpt lat="42.141961" lon="24.747521"></trkpt>
      <trkpt lat="42.14196" lon="24.747237"></trkpt>
      <trkpt lat="42.141942" lon="24.746962"></trkpt>
      <trkpt lat="42.141923" lon="24.74682"></trkpt>
      <trkpt lat="42.141997" lon="24.746795"></trkpt>
      <trkpt lat="42.142061" lon="24.746716"></trkpt>
      <trkpt lat="42.142035" lon="24.746252"></trkpt>
      <trkpt lat="42.142152" lon="24.746209"></trkpt>
      <trkpt lat="42.142279" lon="24.746157"></trkpt>
      <trkpt lat="42.14236" lon="24.746114"></trkpt>
      <trkpt lat="42.142509" lon="24.745887"></trkpt>
      <trkpt lat="42.142673" lon="24.745885"></trkpt>
      <trkpt lat="42.142681" lon="24.745759"></trkpt>
      <trkpt lat="42.142737" lon="24.74551"></trkpt>
      <trkpt lat="42.142724" lon="24.745366"></trkpt>
      <trkpt lat="42.142562" lon="24.744582"></trkpt>
      <trkpt lat="42.142372" lon="24.743647"></trkpt>
      <trkpt lat="42.142316" lon="24.743371"></trkpt>
      <trkpt lat="42.142159" lon="24.742511"></trkpt>
      <trkpt lat="42.142096" lon="24.74207"></trkpt>
      <trkpt lat="42.142058" lon="24.741807"></trkpt>
      <trkpt lat="42.141998" lon="24.741718"></trkpt>
      <trkpt lat="42.141991" lon="24.741597"></trkpt>
      <trkpt lat="42.141978" lon="24.741491"></trkpt>
      <trkpt lat="42.141973" lon="24.741381"></trkpt>
      <trkpt lat="42.141945" lon="24.741311"></trkpt>
      <trkpt lat="42.1419" lon="24.74125"></trkpt>
      <trkpt lat="42.141927" lon="24.741203"></trkpt>
      <trkpt lat="42.141935" lon="24.741148"></trkpt>
      <trkpt lat="42.141936" lon="24.741066"></trkpt>
      <trkpt lat="42.141934" lon="24.741021"></trkpt>
      <trkpt lat="42.141915" lon="24.740459"></trkpt>
      <trkpt lat="42.141928" lon="24.740394"></trkpt>
      <trkpt lat="42.141943" lon="24.740376"></trkpt>
      <trkpt lat="42.141937" lon="24.74018"></trkpt>
      <trkpt lat="42.141928" lon="24.740113"></trkpt>
      <trkpt lat="42.141875" lon="24.739985"></trkpt>
      <trkpt lat="42.141915" lon="24.739957"></trkpt>
      <trkpt lat="42.141949" lon="24.739934"></trkpt>
      <trkpt lat="42.141984" lon="24.739915"></trkpt>
      <trkpt lat="42.142016" lon="24.739916"></trkpt>
      <trkpt lat="42.142009" lon="24.739752"></trkpt>
      <trkpt lat="42.142016" lon="24.739631"></trkpt>
      <trkpt lat="42.142594" lon="24.739566"></trkpt>
      <trkpt lat="42.142668" lon="24.739418"></trkpt>
      <trkpt lat="42.142688" lon="24.739299"></trkpt>
      <trkpt lat="42.142739" lon="24.739054"></trkpt>
      <trkpt lat="42.142798" lon="24.73892"></trkpt>
      <trkpt lat="42.142873" lon="24.738771"></trkpt>
      <trkpt lat="42.14292" lon="24.738845"></trkpt>
      <trkpt lat="42.142904" lon="24.738919"></trkpt>
      <trkpt lat="42.142896" lon="24.738982"></trkpt>
      <trkpt lat="42.142904" lon="24.739004"></trkpt>
      <trkpt lat="42.142924" lon="24.739011"></trkpt>
      <trkpt lat="42.143018" lon="24.73903"></trkpt>
      <trkpt lat="42.14305" lon="24.738782"></trkpt>
      <trkpt lat="42.14309" lon="24.738792"></trkpt>
      <trkpt lat="42.143101" lon="24.738733"></trkpt>
      <trkpt lat="42.143116" lon="24.738656"></trkpt>
      <trkpt lat="42.143245" lon="24.738687"></trkpt>
      <trkpt lat="42.143263" lon="24.738691"></trkpt>
      <trkpt lat="42.14342" lon="24.73873"></trkpt>
      <trkpt lat="42.143452" lon="24.738632"></trkpt>
      <trkpt lat="42.143454" lon="24.738431"></trkpt>
      <trkpt lat="42.143394" lon="24.738373"></trkpt>
      <trkpt lat="42.143446" lon="24.73827"></trkpt>
      <trkpt lat="42.143476" lon="24.738189"></trkpt>
      <trkpt lat="42.143614" lon="24.737911"></trkpt>
      <trkpt lat="42.143601" lon="24.737814"></trkpt>
      <trkpt lat="42.14362" lon="24.737687"></trkpt>
      <trkpt lat="42.14368" lon="24.737569"></trkpt>
      <trkpt lat="42.14373" lon="24.737485"></trkpt>
      <trkpt lat="42.143627" lon="24.737437"></trkpt>
      <trkpt lat="42.14373" lon="24.737485"></trkpt>
      <trkpt lat="42.143794" lon="24.737409"></trkpt>
      <trkpt lat="42.143803" lon="24.737366"></trkpt>
      <trkpt lat="42.143847" lon="24.73737"></trkpt>
      <trkpt lat="42.143895" lon="24.737356"></trkpt>
      <trkpt lat="42.143916" lon="24.737359"></trkpt>
      <trkpt lat="42.14395" lon="24.737355"></trkpt>
      <trkpt lat="42.143977" lon="24.737331"></trkpt>
      <trkpt lat="42.144011" lon="24.737398"></trkpt>
      <trkpt lat="42.144047" lon="24.737469"></trkpt>
      <trkpt lat="42.144137" lon="24.737377"></trkpt>
      <trkpt lat="42.144173" lon="24.737446"></trkpt>
      <trkpt lat="42.144229" lon="24.737394"></trkpt>
      <trkpt lat="42.144304" lon="24.73754"></trkpt>
      <trkpt lat="42.144333" lon="24.737596"></trkpt>
      <trkpt lat="42.144368" lon="24.737657"></trkpt>
      <trkpt lat="42.144452" lon="24.737695"></trkpt>
      <trkpt lat="42.144519" lon="24.737736"></trkpt>
      <trkpt lat="42.144564" lon="24.737782"></trkpt>
      <trkpt lat="42.144569" lon="24.737807"></trkpt>
      <trkpt lat="42.144575" lon="24.737831"></trkpt>
      <trkpt lat="42.144563" lon="24.737862"></trkpt>
      <trkpt lat="42.144536" lon="24.737873"></trkpt>
      <trkpt lat="42.144498" lon="24.737887"></trkpt>
      <trkpt lat="42.144522" lon="24.737944"></trkpt>
      <trkpt lat="42.144681" lon="24.738017"></trkpt>
      <trkpt lat="42.144831" lon="24.737962"></trkpt>
      <trkpt lat="42.144884" lon="24.737983"></trkpt>
      <trkpt lat="42.144927" lon="24.73805"></trkpt>
      <trkpt lat="42.145375" lon="24.73821"></trkpt>
      <trkpt lat="42.145405" lon="24.738213"></trkpt>
      <trkpt lat="42.145465" lon="24.738227"></trkpt>
      <trkpt lat="42.145519" lon="24.738263"></trkpt>
      <trkpt lat="42.145566" lon="24.738326"></trkpt>
      <trkpt lat="42.14559" lon="24.738386"></trkpt>
      <trkpt lat="42.145605" lon="24.738529"></trkpt>
      <trkpt lat="42.145633" lon="24.73859"></trkpt>
      <trkpt lat="42.145677" lon="24.738618"></trkpt>
      <trkpt lat="42.145738" lon="24.738658"></trkpt>
      <trkpt lat="42.145828" lon="24.738706"></trkpt>
      <trkpt lat="42.146132" lon="24.738878"></trkpt>
      <trkpt lat="42.146265" lon="24.739095"></trkpt>
      <trkpt lat="42.146266" lon="24.739135"></trkpt>
      <trkpt lat="42.146276" lon="24.739174"></trkpt>
      <trkpt lat="42.146288" lon="24.739196"></trkpt>
      <trkpt lat="42.146451" lon="24.739514"></trkpt>
      <trkpt lat="42.146531" lon="24.739587"></trkpt>
      <trkpt lat="42.14658" lon="24.739648"></trkpt>
      <trkpt lat="42.146622" lon="24.739832"></trkpt>
      <trkpt lat="42.146652" lon="24.740003"></trkpt>
      <trkpt lat="42.146787" lon="24.740139"></trkpt>
      <trkpt lat="42.146783" lon="24.740205"></trkpt>
      <trkpt lat="42.14679" lon="24.740263"></trkpt>
      <trkpt lat="42.146981" lon="24.74068"></trkpt>
      <trkpt lat="42.146996" lon="24.740818"></trkpt>
      <trkpt lat="42.14712" lon="24.7408"></trkpt>
      <trkpt lat="42.147125" lon="24.740888"></trkpt>
      <trkpt lat="42.14714" lon="24.740886"></trkpt>
      <trkpt lat="42.147142" lon="24.740964"></trkpt>
      <trkpt lat="42.147147" lon="24.741065"></trkpt>
      <trkpt lat="42.147181" lon="24.741069"></trkpt>
      <trkpt lat="42.147232" lon="24.74107"></trkpt>
      <trkpt lat="42.147267" lon="24.741067"></trkpt>
      <trkpt lat="42.147293" lon="24.741044"></trkpt>
      <trkpt lat="42.147344" lon="24.741035"></trkpt>
      <trkpt lat="42.147345" lon="24.741085"></trkpt>
      <trkpt lat="42.147345" lon="24.741334"></trkpt>
      <trkpt lat="42.147345" lon="24.741354"></trkpt>
      <trkpt lat="42.14733" lon="24.741354"></trkpt>
      <trkpt lat="42.14733" lon="24.741383"></trkpt>
      <trkpt lat="42.14733" lon="24.741411"></trkpt>
      <trkpt lat="42.147346" lon="24.741411"></trkpt>
      <trkpt lat="42.147346" lon="24.741438"></trkpt>
      <trkpt lat="42.147346" lon="24.741465"></trkpt>
      <trkpt lat="42.147344" lon="24.741737"></trkpt>
      <trkpt lat="42.147442" lon="24.741762"></trkpt>
      <trkpt lat="42.147877" lon="24.741782"></trkpt>
      <trkpt lat="42.148315" lon="24.741775"></trkpt>
      <trkpt lat="42.148423" lon="24.741852"></trkpt>
      <trkpt lat="42.148534" lon="24.741939"></trkpt>
      <trkpt lat="42.148628" lon="24.742009"></trkpt>
      <trkpt lat="42.14897" lon="24.742029"></trkpt>
      <trkpt lat="42.149274" lon="24.742195"></trkpt>
      <trkpt lat="42.14932" lon="24.742267"></trkpt>
      <trkpt lat="42.149419" lon="24.742422"></trkpt>
      <trkpt lat="42.149435" lon="24.74246"></trkpt>
      <trkpt lat="42.149517" lon="24.742652"></trkpt>
      <trkpt lat="42.149604" lon="24.74298"></trkpt>
      <trkpt lat="42.149648" lon="24.742976"></trkpt>
      <trkpt lat="42.149674" lon="24.742987"></trkpt>
      <trkpt lat="42.149689" lon="24.742992"></trkpt>
      <trkpt lat="42.149724" lon="24.743027"></trkpt>
      <trkpt lat="42.149748" lon="24.743075"></trkpt>
      <trkpt lat="42.149759" lon="24.743131"></trkpt>
      <trkpt lat="42.149755" lon="24.743189"></trkpt>
      <trkpt lat="42.149742" lon="24.743234"></trkpt>
      <trkpt lat="42.149867" lon="24.743356"></trkpt>
      <trkpt lat="42.149913" lon="24.74341"></trkpt>
      <trkpt lat="42.149944" lon="24.743444"></trkpt>
      <trkpt lat="42.150228" lon="24.743759"></trkpt>
      <trkpt lat="42.150257" lon="24.743792"></trkpt>
      <trkpt lat="42.150343" lon="24.743842"></trkpt>
      <trkpt lat="42.150389" lon="24.743836"></trkpt>
      <trkpt lat="42.150425" lon="24.743831"></trkpt>
      <trkpt lat="42.150453" lon="24.743803"></trkpt>
      <trkpt lat="42.150499" lon="24.743758"></trkpt>
      <trkpt lat="42.150551" lon="24.743708"></trkpt>
      <trkpt lat="42.150676" lon="24.743942"></trkpt>
      <trkpt lat="42.150826" lon="24.744213"></trkpt>
      <trkpt lat="42.150866" lon="24.744298"></trkpt>
      <trkpt lat="42.150908" lon="24.744396"></trkpt>
      <trkpt lat="42.150939" lon="24.744495"></trkpt>
      <trkpt lat="42.151095" lon="24.745025"></trkpt>
      <trkpt lat="42.151447" lon="24.744855"></trkpt>
      <trkpt lat="42.151695" lon="24.744732"></trkpt>
      <trkpt lat="42.15183" lon="24.74479"></trkpt>
      <trkpt lat="42.151825" lon="24.744836"></trkpt>
      <trkpt lat="42.151836" lon="24.744888"></trkpt>
      <trkpt lat="42.151955" lon="24.745271"></trkpt>
      <trkpt lat="42.152553" lon="24.74525"></trkpt>
      <trkpt lat="42.152623" lon="24.745233"></trkpt>
      <trkpt lat="42.152687" lon="24.745406"></trkpt>
      <trkpt lat="42.152762" lon="24.745343"></trkpt>
      <trkpt lat="42.152796" lon="24.7454"></trkpt>
      <trkpt lat="42.152958" lon="24.745272"></trkpt>
      <trkpt lat="42.153164" lon="24.74519"></trkpt>
      <trkpt lat="42.153294" lon="24.745153"></trkpt>
      <trkpt lat="42.15377" lon="24.745018"></trkpt>
      <trkpt lat="42.154678" lon="24.744759"></trkpt>
      <trkpt lat="42.154781" lon="24.744729"></trkpt>
      <trkpt lat="42.154793" lon="24.744726"></trkpt>
      <trkpt lat="42.154809" lon="24.744826"></trkpt>
      <trkpt lat="42.154828" lon="24.74482"></trkpt>
      <trkpt lat="42.154817" lon="24.744759"></trkpt>
      <trkpt lat="42.154829" lon="24.744755"></trkpt>
      <trkpt lat="42.154839" lon="24.744809"></trkpt>
      <trkpt lat="42.154925" lon="24.744767"></trkpt>
      <trkpt lat="42.15509" lon="24.745705"></trkpt>
      <trkpt lat="42.155255" lon="24.746641"></trkpt>
      <trkpt lat="42.155402" lon="24.747528"></trkpt>
      <trkpt lat="42.155546" lon="24.748395"></trkpt>
      <trkpt lat="42.15569" lon="24.749259"></trkpt>
      <trkpt lat="42.15575" lon="24.749243"></trkpt>
      <trkpt lat="42.155782" lon="24.74925"></trkpt>
      <trkpt lat="42.1559" lon="24.749216"></trkpt>
      <trkpt lat="42.155939" lon="24.749243"></trkpt>
      <trkpt lat="42.156013" lon="24.74923"></trkpt>
      <trkpt lat="42.156036" lon="24.74918"></trkpt>
      <trkpt lat="42.156119" lon="24.748986"></trkpt>
      <trkpt lat="42.156174" lon="24.748968"></trkpt>
      <trkpt lat="42.156119" lon="24.748986"></trkpt>
      <trkpt lat="42.156036" lon="24.74918"></trkpt>
      <trkpt lat="42.156013" lon="24.74923"></trkpt>
      <trkpt lat="42.155939" lon="24.749243"></trkpt>
      <trkpt lat="42.1559" lon="24.749216"></trkpt>
      <trkpt lat="42.155782" lon="24.74925"></trkpt>
      <trkpt lat="42.15575" lon="24.749243"></trkpt>
      <trkpt lat="42.15569" lon="24.749259"></trkpt>
      <trkpt lat="42.155712" lon="24.749392"></trkpt>
      <trkpt lat="42.155523" lon="24.749462"></trkpt>
      <trkpt lat="42.154939" lon="24.749639"></trkpt>
      <trkpt lat="42.155523" lon="24.749462"></trkpt>
      <trkpt lat="42.155712" lon="24.749392"></trkpt>
      <trkpt lat="42.15569" lon="24.749259"></trkpt>
      <trkpt lat="42.15575" lon="24.749243"></trkpt>
      <trkpt lat="42.155782" lon="24.74925"></trkpt>
      <trkpt lat="42.1559" lon="24.749216"></trkpt>
      <trkpt lat="42.155939" lon="24.749243"></trkpt>
      <trkpt lat="42.156013" lon="24.74923"></trkpt>
      <trkpt lat="42.15659" lon="24.74911"></trkpt>
      <trkpt lat="42.15659" lon="24.749067"></trkpt>
      <trkpt lat="42.156591" lon="24.749008"></trkpt>
      <trkpt lat="42.156677" lon="24.74897"></trkpt>
      <trkpt lat="42.156717" lon="24.748963"></trkpt>
      <trkpt lat="42.156719" lon="24.748983"></trkpt>
      <trkpt lat="42.15673" lon="24.749104"></trkpt>
      <trkpt lat="42.156763" lon="24.749378"></trkpt>
      <trkpt lat="42.156775" lon="24.749497"></trkpt>
      <trkpt lat="42.156777" lon="24.749519"></trkpt>
      <trkpt lat="42.156825" lon="24.74994"></trkpt>
      <trkpt lat="42.156826" lon="24.749943"></trkpt>
      <trkpt lat="42.156854" lon="24.750147"></trkpt>
      <trkpt lat="42.156894" lon="24.750356"></trkpt>
      <trkpt lat="42.156912" lon="24.750469"></trkpt>
      <trkpt lat="42.156933" lon="24.750501"></trkpt>
      <trkpt lat="42.156959" lon="24.750518"></trkpt>
      <trkpt lat="42.157003" lon="24.750902"></trkpt>
      <trkpt lat="42.157004" lon="24.750969"></trkpt>
      <trkpt lat="42.157004" lon="24.751017"></trkpt>
      <trkpt lat="42.156838" lon="24.751062"></trkpt>
      <trkpt lat="42.156925" lon="24.751607"></trkpt>
      <trkpt lat="42.157023" lon="24.752171"></trkpt>
      <trkpt lat="42.156925" lon="24.752196"></trkpt>
      <trkpt lat="42.157102" lon="24.752895"></trkpt>
      <trkpt lat="42.157178" lon="24.753425"></trkpt>
      <trkpt lat="42.15724" lon="24.753858"></trkpt>
      <trkpt lat="42.157262" lon="24.754312"></trkpt>
      <trkpt lat="42.157272" lon="24.754582"></trkpt>
      <trkpt lat="42.157238" lon="24.754894"></trkpt>
      <trkpt lat="42.157345" lon="24.755416"></trkpt>
      <trkpt lat="42.157344" lon="24.755904"></trkpt>
      <trkpt lat="42.157672" lon="24.756296"></trkpt>
      <trkpt lat="42.157832" lon="24.756527"></trkpt>
      <trkpt lat="42.157971" lon="24.756732"></trkpt>
      <trkpt lat="42.158139" lon="24.756931"></trkpt>
    </trkseg>
  </trk>
</gpx>
