<?xml version="1.0" encoding="UTF-8"?>
<gpx version="1.1" creator="Open Plovdiv" xmlns="http://www.topografix.com/GPX/1/1">
  <metadata>
    <name>Plovdiv of many communities</name>
  </metadata>
  <wpt lat="42.150507" lon="24.740686">
    <name>1. Plovdiv Synagogue</name>
  </wpt>
  <wpt lat="42.148218" lon="24.745595">
    <name>2. Jewish cultural centre Shalom Aleichem, Plovdiv</name>
  </wpt>
  <wpt lat="42.147398" lon="24.745405">
    <name>3. Evangelical Cathedral, Plovdiv</name>
  </wpt>
  <wpt lat="42.147801" lon="24.748228">
    <name>4. Dzhumaya Mosque</name>
  </wpt>
  <wpt lat="42.150793" lon="24.751744">
    <name>5. Saint George Armenian Church</name>
  </wpt>
  <wpt lat="42.14439" lon="24.75252">
    <name>6. Cathedral of St Louis</name>
  </wpt>
  <trk>
    <name>Plovdiv of many communities</name>
    <trkseg>
      <trkpt lat="42.150507" lon="24.740686"></trkpt>
      <trkpt lat="42.150236" lon="24.740852"></trkpt>
      <trkpt lat="42.150003" lon="24.741016"></trkpt>
      <trkpt lat="42.14997" lon="24.74092"></trkpt>
      <trkpt lat="42.149745" lon="24.741091"></trkpt>
      <trkpt lat="42.149674" lon="24.740896"></trkpt>
      <trkpt lat="42.14957" lon="24.740982"></trkpt>
      <trkpt lat="42.149541" lon="24.741006"></trkpt>
      <trkpt lat="42.149513" lon="24.740887"></trkpt>
      <trkpt lat="42.149516" lon="24.740815"></trkpt>
      <trkpt lat="42.149414" lon="24.740862"></trkpt>
      <trkpt lat="42.149295" lon="24.740917"></trkpt>
      <trkpt lat="42.149234" lon="24.740946"></trkpt>
      <trkpt lat="42.149481" lon="24.74165"></trkpt>
      <trkpt lat="42.149541" lon="24.741814"></trkpt>
      <trkpt lat="42.14949" lon="24.741841"></trkpt>
      <trkpt lat="42.149309" lon="24.741795"></trkpt>
      <trkpt lat="42.149317" lon="24.741949"></trkpt>
      <trkpt lat="42.149304" lon="24.742088"></trkpt>
      <trkpt lat="42.149274" lon="24.742195"></trkpt>
      <trkpt lat="42.148999" lon="24.742681"></trkpt>
      <trkpt lat="42.148759" lon="24.74313"></trkpt>
      <trkpt lat="42.148747" lon="24.743152"></trkpt>
      <trkpt lat="42.148478" lon="24.743657"></trkpt>
      <trkpt lat="42.148411" lon="24.743916"></trkpt>
      <trkpt lat="42.148394" lon="24.744011"></trkpt>
      <trkpt lat="42.148338" lon="24.7445"></trkpt>
      <trkpt lat="42.148294" lon="24.744939"></trkpt>
      <trkpt lat="42.148279" lon="24.745095"></trkpt>
      <trkpt lat="42.148218" lon="24.745595"></trkpt>
      <trkpt lat="42.148135" lon="24.746281"></trkpt>
      <trkpt lat="42.148029" lon="24.747002"></trkpt>
      <trkpt lat="42.147995" lon="24.74699"></trkpt>
      <trkpt lat="42.147895" lon="24.746952"></trkpt>
      <trkpt lat="42.147722" lon="24.746923"></trkpt>
      <trkpt lat="42.147682" lon="24.746952"></trkpt>
      <trkpt lat="42.147582" lon="24.74693"></trkpt>
      <trkpt lat="42.147566" lon="24.746926"></trkpt>
      <trkpt lat="42.147518" lon="24.746917"></trkpt>
      <trkpt lat="42.147295" lon="24.746874"></trkpt>
      <trkpt lat="42.147252" lon="24.746019"></trkpt>
      <trkpt lat="42.147302" lon="24.745726"></trkpt>
      <trkpt lat="42.147361" lon="24.745462"></trkpt>
      <trkpt lat="42.147398" lon="24.745405"></trkpt>
      <trkpt lat="42.147361" lon="24.745462"></trkpt>
      <trkpt lat="42.147302" lon="24.745726"></trkpt>
      <trkpt lat="42.147252" lon="24.746019"></trkpt>
      <trkpt lat="42.147295" lon="24.746874"></trkpt>
      <trkpt lat="42.147308" lon="24.747406"></trkpt>
      <trkpt lat="42.147296" lon="24.747527"></trkpt>
      <trkpt lat="42.147285" lon="24.747561"></trkpt>
      <trkpt lat="42.147259" lon="24.74764"></trkpt>
      <trkpt lat="42.147302" lon="24.747669"></trkpt>
      <trkpt lat="42.14736" lon="24.747787"></trkpt>
      <trkpt lat="42.147467" lon="24.748002"></trkpt>
      <trkpt lat="42.147483" lon="24.748036"></trkpt>
      <trkpt lat="42.147466" lon="24.74805"></trkpt>
      <trkpt lat="42.147453" lon="24.748154"></trkpt>
      <trkpt lat="42.147576" lon="24.748384"></trkpt>
      <trkpt lat="42.147601" lon="24.748408"></trkpt>
      <trkpt lat="42.147679" lon="24.748338"></trkpt>
      <trkpt lat="42.147801" lon="24.748228"></trkpt>
      <trkpt lat="42.147938" lon="24.748103"></trkpt>
      <trkpt lat="42.148068" lon="24.747991"></trkpt>
      <trkpt lat="42.148082" lon="24.748029"></trkpt>
      <trkpt lat="42.148207" lon="24.748319"></trkpt>
      <trkpt lat="42.148236" lon="24.748387"></trkpt>
      <trkpt lat="42.148261" lon="24.748417"></trkpt>
      <trkpt lat="42.148464" lon="24.748733"></trkpt>
      <trkpt lat="42.14858" lon="24.748953"></trkpt>
      <trkpt lat="42.148662" lon="24.749109"></trkpt>
      <trkpt lat="42.148783" lon="24.749352"></trkpt>
      <trkpt lat="42.148848" lon="24.749485"></trkpt>
      <trkpt lat="42.148904" lon="24.749556"></trkpt>
      <trkpt lat="42.149054" lon="24.749719"></trkpt>
      <trkpt lat="42.14938" lon="24.750066"></trkpt>
      <trkpt lat="42.149438" lon="24.750127"></trkpt>
      <trkpt lat="42.149449" lon="24.750061"></trkpt>
      <trkpt lat="42.149626" lon="24.750133"></trkpt>
      <trkpt lat="42.149665" lon="24.750149"></trkpt>
      <trkpt lat="42.149704" lon="24.750165"></trkpt>
      <trkpt lat="42.149591" lon="24.750646"></trkpt>
      <trkpt lat="42.149548" lon="24.750651"></trkpt>
      <trkpt lat="42.149495" lon="24.750658"></trkpt>
      <trkpt lat="42.149478" lon="24.75066"></trkpt>
      <trkpt lat="42.149452" lon="24.750748"></trkpt>
      <trkpt lat="42.149422" lon="24.751084"></trkpt>
      <trkpt lat="42.149434" lon="24.751256"></trkpt>
      <trkpt lat="42.149851" lon="24.751686"></trkpt>
      <trkpt lat="42.14986" lon="24.751776"></trkpt>
      <trkpt lat="42.149971" lon="24.751996"></trkpt>
      <trkpt lat="42.150066" lon="24.751875"></trkpt>
      <trkpt lat="42.150157" lon="24.751916"></trkpt>
      <trkpt lat="42.150206" lon="24.751958"></trkpt>
      <trkpt lat="42.150258" lon="24.751977"></trkpt>
      <trkpt lat="42.15033" lon="24.751975"></trkpt>
      <trkpt lat="42.150518" lon="24.751881"></trkpt>
      <trkpt lat="42.150554" lon="24.751861"></trkpt>
      <trkpt lat="42.150773" lon="24.751757"></trkpt>
      <trkpt lat="42.150793" lon="24.751744"></trkpt>
      <trkpt lat="42.150773" lon="24.751757"></trkpt>
      <trkpt lat="42.150554" lon="24.751861"></trkpt>
      <trkpt lat="42.150518" lon="24.751881"></trkpt>
      <trkpt lat="42.15033" lon="24.751975"></trkpt>
      <trkpt lat="42.150258" lon="24.751977"></trkpt>
      <trkpt lat="42.150206" lon="24.751958"></trkpt>
      <trkpt lat="42.150157" lon="24.751916"></trkpt>
      <trkpt lat="42.150066" lon="24.751875"></trkpt>
      <trkpt lat="42.149971" lon="24.751996"></trkpt>
      <trkpt lat="42.149912" lon="24.752108"></trkpt>
      <trkpt lat="42.149883" lon="24.752353"></trkpt>
      <trkpt lat="42.14985" lon="24.752706"></trkpt>
      <trkpt lat="42.149472" lon="24.75249"></trkpt>
      <trkpt lat="42.149394" lon="24.752438"></trkpt>
      <trkpt lat="42.149068" lon="24.752201"></trkpt>
      <trkpt lat="42.148849" lon="24.752106"></trkpt>
      <trkpt lat="42.148586" lon="24.752391"></trkpt>
      <trkpt lat="42.148343" lon="24.752654"></trkpt>
      <trkpt lat="42.147487" lon="24.752491"></trkpt>
      <trkpt lat="42.147474" lon="24.752753"></trkpt>
      <trkpt lat="42.147319" lon="24.75274"></trkpt>
      <trkpt lat="42.147212" lon="24.752758"></trkpt>
      <trkpt lat="42.147096" lon="24.752958"></trkpt>
      <trkpt lat="42.147002" lon="24.753135"></trkpt>
      <trkpt lat="42.146844" lon="24.753391"></trkpt>
      <trkpt lat="42.146795" lon="24.753444"></trkpt>
      <trkpt lat="42.14672" lon="24.753449"></trkpt>
      <trkpt lat="42.146525" lon="24.753442"></trkpt>
      <trkpt lat="42.14647" lon="24.753537"></trkpt>
      <trkpt lat="42.146425" lon="24.753672"></trkpt>
      <trkpt lat="42.146351" lon="24.753719"></trkpt>
      <trkpt lat="42.146289" lon="24.753635"></trkpt>
      <trkpt lat="42.146263" lon="24.753566"></trkpt>
      <trkpt lat="42.146253" lon="24.753438"></trkpt>
      <trkpt lat="42.146109" lon="24.75342"></trkpt>
      <trkpt lat="42.145969" lon="24.753455"></trkpt>
      <trkpt lat="42.145842" lon="24.752918"></trkpt>
      <trkpt lat="42.145665" lon="24.753133"></trkpt>
      <trkpt lat="42.145642" lon="24.753161"></trkpt>
      <trkpt lat="42.145606" lon="24.753204"></trkpt>
      <trkpt lat="42.145373" lon="24.752902"></trkpt>
      <trkpt lat="42.145344" lon="24.752874"></trkpt>
      <trkpt lat="42.145322" lon="24.752854"></trkpt>
      <trkpt lat="42.145267" lon="24.752821"></trkpt>
      <trkpt lat="42.145179" lon="24.75248"></trkpt>
      <trkpt lat="42.14515" lon="24.75235"></trkpt>
      <trkpt lat="42.14513" lon="24.752211"></trkpt>
      <trkpt lat="42.144933" lon="24.751917"></trkpt>
      <trkpt lat="42.144921" lon="24.751815"></trkpt>
      <trkpt lat="42.144875" lon="24.751827"></trkpt>
      <trkpt lat="42.144806" lon="24.751849"></trkpt>
      <trkpt lat="42.144776" lon="24.751832"></trkpt>
      <trkpt lat="42.144759" lon="24.751883"></trkpt>
      <trkpt lat="42.144635" lon="24.751865"></trkpt>
      <trkpt lat="42.144509" lon="24.751986"></trkpt>
      <trkpt lat="42.144318" lon="24.752162"></trkpt>
      <trkpt lat="42.144382" lon="24.752483"></trkpt>
      <trkpt lat="42.14439" lon="24.75252"></trkpt>
    </trkseg>
  </trk>
</gpx>
