<?xml version="1.0" encoding="UTF-8"?>
<gpx version="1.1" creator="Open Plovdiv" xmlns="http://www.topografix.com/GPX/1/1">
  <metadata>
    <name>Old Town and Revival houses</name>
  </metadata>
  <wpt lat="42.149817" lon="24.752687">
    <name>1. The Old Town (Old Plovdiv)</name>
  </wpt>
  <wpt lat="42.149849" lon="24.751323">
    <name>2. Hindliyan house</name>
  </wpt>
  <wpt lat="42.147333" lon="24.752461">
    <name>3. Lamartine House</name>
  </wpt>
  <wpt lat="42.14769" lon="24.750671">
    <name>4. Church of the Holy Mother of God</name>
  </wpt>
  <wpt lat="42.147148" lon="24.749141">
    <name>5. House of Hristo G. Danov</name>
  </wpt>
  <wpt lat="42.152353" lon="24.74787">
    <name>6. Humanitarian High School &quot;Saints Cyril and Methodius&quot; Plovdiv</name>
  </wpt>
  <trk>
    <name>Old Town and Revival houses</name>
    <trkseg>
      <trkpt lat="42.149817" lon="24.752687"></trkpt>
      <trkpt lat="42.14985" lon="24.752706"></trkpt>
      <trkpt lat="42.149883" lon="24.752353"></trkpt>
      <trkpt lat="42.149912" lon="24.752108"></trkpt>
      <trkpt lat="42.149971" lon="24.751996"></trkpt>
      <trkpt lat="42.14986" lon="24.751776"></trkpt>
      <trkpt lat="42.149851" lon="24.751686"></trkpt>
      <trkpt lat="42.14992" lon="24.751629"></trkpt>
      <trkpt lat="42.149884" lon="24.751483"></trkpt>
      <trkpt lat="42.149849" lon="24.751323"></trkpt>
      <trkpt lat="42.149796" lon="24.751084"></trkpt>
      <trkpt lat="42.149422" lon="24.751084"></trkpt>
      <trkpt lat="42.149434" lon="24.751256"></trkpt>
      <trkpt lat="42.149255" lon="24.751476"></trkpt>
      <trkpt lat="42.149036" lon="24.751409"></trkpt>
      <trkpt lat="42.148841" lon="24.751349"></trkpt>
      <trkpt lat="42.148702" lon="24.75147"></trkpt>
      <trkpt lat="42.148532" lon="24.751595"></trkpt>
      <trkpt lat="42.148404" lon="24.751707"></trkpt>
      <trkpt lat="42.148223" lon="24.751691"></trkpt>
      <trkpt lat="42.147771" lon="24.751404"></trkpt>
      <trkpt lat="42.147607" lon="24.751553"></trkpt>
      <trkpt lat="42.147504" lon="24.751923"></trkpt>
      <trkpt lat="42.147483" lon="24.752063"></trkpt>
      <trkpt lat="42.147411" lon="24.752476"></trkpt>
      <trkpt lat="42.147333" lon="24.752461"></trkpt>
      <trkpt lat="42.147411" lon="24.752476"></trkpt>
      <trkpt lat="42.147483" lon="24.752063"></trkpt>
      <trkpt lat="42.147504" lon="24.751923"></trkpt>
      <trkpt lat="42.147607" lon="24.751553"></trkpt>
      <trkpt lat="42.147771" lon="24.751404"></trkpt>
      <trkpt lat="42.147732" lon="24.750985"></trkpt>
      <trkpt lat="42.14769" lon="24.750671"></trkpt>
      <trkpt lat="42.147674" lon="24.750551"></trkpt>
      <trkpt lat="42.147773" lon="24.750331"></trkpt>
      <trkpt lat="42.147989" lon="24.749848"></trkpt>
      <trkpt lat="42.148062" lon="24.749735"></trkpt>
      <trkpt lat="42.14801" lon="24.749215"></trkpt>
      <trkpt lat="42.14797" lon="24.749075"></trkpt>
      <trkpt lat="42.147883" lon="24.748976"></trkpt>
      <trkpt lat="42.147828" lon="24.748953"></trkpt>
      <trkpt lat="42.147511" lon="24.748819"></trkpt>
      <trkpt lat="42.147393" lon="24.74877"></trkpt>
      <trkpt lat="42.147331" lon="24.748783"></trkpt>
      <trkpt lat="42.147101" lon="24.748888"></trkpt>
      <trkpt lat="42.147148" lon="24.749141"></trkpt>
      <trkpt lat="42.147148" lon="24.749141"></trkpt>
      <trkpt lat="42.147148" lon="24.749141"></trkpt>
      <trkpt lat="42.147101" lon="24.748888"></trkpt>
      <trkpt lat="42.147331" lon="24.748783"></trkpt>
      <trkpt lat="42.147393" lon="24.74877"></trkpt>
      <trkpt lat="42.147434" lon="24.748694"></trkpt>
      <trkpt lat="42.147539" lon="24.748513"></trkpt>
      <trkpt lat="42.147585" lon="24.748433"></trkpt>
      <trkpt lat="42.147601" lon="24.748408"></trkpt>
      <trkpt lat="42.147679" lon="24.748338"></trkpt>
      <trkpt lat="42.147938" lon="24.748103"></trkpt>
      <trkpt lat="42.148068" lon="24.747991"></trkpt>
      <trkpt lat="42.148049" lon="24.747941"></trkpt>
      <trkpt lat="42.148106" lon="24.747921"></trkpt>
      <trkpt lat="42.148465" lon="24.747773"></trkpt>
      <trkpt lat="42.148823" lon="24.747625"></trkpt>
      <trkpt lat="42.149042" lon="24.747534"></trkpt>
      <trkpt lat="42.149211" lon="24.747458"></trkpt>
      <trkpt lat="42.149435" lon="24.747357"></trkpt>
      <trkpt lat="42.149945" lon="24.747126"></trkpt>
      <trkpt lat="42.150129" lon="24.747044"></trkpt>
      <trkpt lat="42.15049" lon="24.746881"></trkpt>
      <trkpt lat="42.150727" lon="24.746774"></trkpt>
      <trkpt lat="42.151085" lon="24.746613"></trkpt>
      <trkpt lat="42.151229" lon="24.746552"></trkpt>
      <trkpt lat="42.151523" lon="24.746432"></trkpt>
      <trkpt lat="42.151541" lon="24.746424"></trkpt>
      <trkpt lat="42.151574" lon="24.746407"></trkpt>
      <trkpt lat="42.151584" lon="24.746463"></trkpt>
      <trkpt lat="42.151599" lon="24.746549"></trkpt>
      <trkpt lat="42.151609" lon="24.746668"></trkpt>
      <trkpt lat="42.151622" lon="24.746665"></trkpt>
      <trkpt lat="42.1519" lon="24.746616"></trkpt>
      <trkpt lat="42.152216" lon="24.746562"></trkpt>
      <trkpt lat="42.152281" lon="24.747265"></trkpt>
      <trkpt lat="42.152353" lon="24.74787"></trkpt>
    </trkseg>
  </trk>
</gpx>
