<?xml version="1.0" encoding="UTF-8"?>
<gpx version="1.1" creator="Open Plovdiv" xmlns="http://www.topografix.com/GPX/1/1">
  <metadata>
    <name>Old Town: gates, churches and Nebet Tepe</name>
  </metadata>
  <wpt lat="42.149929" lon="24.753363">
    <name>1. Hisar Kapia</name>
  </wpt>
  <wpt lat="42.149765" lon="24.752657">
    <name>2. Church of St Constantine and Helena</name>
  </wpt>
  <wpt lat="42.14927" lon="24.754784">
    <name>3. St. Nedelya Church</name>
  </wpt>
  <wpt lat="42.148343" lon="24.752654">
    <name>4. Mevlevi Hane</name>
  </wpt>
  <wpt lat="42.146855" lon="24.750934">
    <name>5. Ancient Theatre</name>
  </wpt>
  <wpt lat="42.151321" lon="24.752296">
    <name>6. Nebet Tepe</name>
  </wpt>
  <trk>
    <name>Old Town: gates, churches and Nebet Tepe</name>
    <trkseg>
      <trkpt lat="42.149929" lon="24.753363"></trkpt>
      <trkpt lat="42.149754" lon="24.753191"></trkpt>
      <trkpt lat="42.149779" lon="24.753146"></trkpt>
      <trkpt lat="42.149913" lon="24.752916"></trkpt>
      <trkpt lat="42.149973" lon="24.752739"></trkpt>
      <trkpt lat="42.14985" lon="24.752706"></trkpt>
      <trkpt lat="42.149765" lon="24.752657"></trkpt>
      <trkpt lat="42.14985" lon="24.752706"></trkpt>
      <trkpt lat="42.149973" lon="24.752739"></trkpt>
      <trkpt lat="42.149913" lon="24.752916"></trkpt>
      <trkpt lat="42.149779" lon="24.753146"></trkpt>
      <trkpt lat="42.149754" lon="24.753191"></trkpt>
      <trkpt lat="42.149727" lon="24.753241"></trkpt>
      <trkpt lat="42.149681" lon="24.753424"></trkpt>
      <trkpt lat="42.149435" lon="24.754507"></trkpt>
      <trkpt lat="42.149304" lon="24.754683"></trkpt>
      <trkpt lat="42.14927" lon="24.754784"></trkpt>
      <trkpt lat="42.149304" lon="24.754683"></trkpt>
      <trkpt lat="42.149221" lon="24.754383"></trkpt>
      <trkpt lat="42.149179" lon="24.754173"></trkpt>
      <trkpt lat="42.149225" lon="24.75397"></trkpt>
      <trkpt lat="42.149262" lon="24.753545"></trkpt>
      <trkpt lat="42.149263" lon="24.753372"></trkpt>
      <trkpt lat="42.149263" lon="24.753162"></trkpt>
      <trkpt lat="42.14914" lon="24.75309"></trkpt>
      <trkpt lat="42.149098" lon="24.753084"></trkpt>
      <trkpt lat="42.149008" lon="24.753048"></trkpt>
      <trkpt lat="42.148731" lon="24.752964"></trkpt>
      <trkpt lat="42.148756" lon="24.752838"></trkpt>
      <trkpt lat="42.148761" lon="24.75273"></trkpt>
      <trkpt lat="42.148772" lon="24.752703"></trkpt>
      <trkpt lat="42.148655" lon="24.752521"></trkpt>
      <trkpt lat="42.148586" lon="24.752391"></trkpt>
      <trkpt lat="42.148343" lon="24.752654"></trkpt>
      <trkpt lat="42.148343" lon="24.752654"></trkpt>
      <trkpt lat="42.147487" lon="24.752491"></trkpt>
      <trkpt lat="42.147411" lon="24.752476"></trkpt>
      <trkpt lat="42.147483" lon="24.752063"></trkpt>
      <trkpt lat="42.147504" lon="24.751923"></trkpt>
      <trkpt lat="42.147607" lon="24.751553"></trkpt>
      <trkpt lat="42.147771" lon="24.751404"></trkpt>
      <trkpt lat="42.147732" lon="24.750985"></trkpt>
      <trkpt lat="42.147674" lon="24.750551"></trkpt>
      <trkpt lat="42.147773" lon="24.750331"></trkpt>
      <trkpt lat="42.147989" lon="24.749848"></trkpt>
      <trkpt lat="42.148062" lon="24.749735"></trkpt>
      <trkpt lat="42.14801" lon="24.749215"></trkpt>
      <trkpt lat="42.14797" lon="24.749075"></trkpt>
      <trkpt lat="42.147883" lon="24.748976"></trkpt>
      <trkpt lat="42.147828" lon="24.748953"></trkpt>
      <trkpt lat="42.147511" lon="24.748819"></trkpt>
      <trkpt lat="42.147393" lon="24.74877"></trkpt>
      <trkpt lat="42.147331" lon="24.748783"></trkpt>
      <trkpt lat="42.147101" lon="24.748888"></trkpt>
      <trkpt lat="42.147148" lon="24.749141"></trkpt>
      <trkpt lat="42.146776" lon="24.749701"></trkpt>
      <trkpt lat="42.146604" lon="24.749686"></trkpt>
      <trkpt lat="42.146453" lon="24.750743"></trkpt>
      <trkpt lat="42.146594" lon="24.750771"></trkpt>
      <trkpt lat="42.146664" lon="24.75072"></trkpt>
      <trkpt lat="42.146751" lon="24.750773"></trkpt>
      <trkpt lat="42.146844" lon="24.750773"></trkpt>
      <trkpt lat="42.146855" lon="24.750918"></trkpt>
      <trkpt lat="42.146855" lon="24.750934"></trkpt>
      <trkpt lat="42.146855" lon="24.750934"></trkpt>
      <trkpt lat="42.146855" lon="24.750918"></trkpt>
      <trkpt lat="42.146844" lon="24.750773"></trkpt>
      <trkpt lat="42.146751" lon="24.750773"></trkpt>
      <trkpt lat="42.146664" lon="24.75072"></trkpt>
      <trkpt lat="42.146594" lon="24.750771"></trkpt>
      <trkpt lat="42.146453" lon="24.750743"></trkpt>
      <trkpt lat="42.146604" lon="24.749686"></trkpt>
      <trkpt lat="42.146776" lon="24.749701"></trkpt>
      <trkpt lat="42.147148" lon="24.749141"></trkpt>
      <trkpt lat="42.147101" lon="24.748888"></trkpt>
      <trkpt lat="42.147331" lon="24.748783"></trkpt>
      <trkpt lat="42.147393" lon="24.74877"></trkpt>
      <trkpt lat="42.147511" lon="24.748819"></trkpt>
      <trkpt lat="42.147828" lon="24.748953"></trkpt>
      <trkpt lat="42.147883" lon="24.748976"></trkpt>
      <trkpt lat="42.14797" lon="24.749075"></trkpt>
      <trkpt lat="42.14801" lon="24.749215"></trkpt>
      <trkpt lat="42.148062" lon="24.749735"></trkpt>
      <trkpt lat="42.147989" lon="24.749848"></trkpt>
      <trkpt lat="42.147773" lon="24.750331"></trkpt>
      <trkpt lat="42.147674" lon="24.750551"></trkpt>
      <trkpt lat="42.147732" lon="24.750985"></trkpt>
      <trkpt lat="42.147771" lon="24.751404"></trkpt>
      <trkpt lat="42.148223" lon="24.751691"></trkpt>
      <trkpt lat="42.148404" lon="24.751707"></trkpt>
      <trkpt lat="42.148542" lon="24.751852"></trkpt>
      <trkpt lat="42.148849" lon="24.752106"></trkpt>
      <trkpt lat="42.149068" lon="24.752201"></trkpt>
      <trkpt lat="42.149394" lon="24.752438"></trkpt>
      <trkpt lat="42.149472" lon="24.75249"></trkpt>
      <trkpt lat="42.14985" lon="24.752706"></trkpt>
      <trkpt lat="42.149973" lon="24.752739"></trkpt>
      <trkpt lat="42.150086" lon="24.752762"></trkpt>
      <trkpt lat="42.150244" lon="24.752779"></trkpt>
      <trkpt lat="42.150525" lon="24.752731"></trkpt>
      <trkpt lat="42.150678" lon="24.75271"></trkpt>
      <trkpt lat="42.150877" lon="24.752765"></trkpt>
      <trkpt lat="42.150945" lon="24.75276"></trkpt>
      <trkpt lat="42.151057" lon="24.752691"></trkpt>
      <trkpt lat="42.151145" lon="24.752641"></trkpt>
      <trkpt lat="42.151206" lon="24.752607"></trkpt>
      <trkpt lat="42.151271" lon="24.752413"></trkpt>
      <trkpt lat="42.151278" lon="24.752355"></trkpt>
      <trkpt lat="42.151321" lon="24.752296"></trkpt>
    </trkseg>
  </trk>
</gpx>
