<?xml version="1.0" encoding="UTF-8"?>
<gpx version="1.1" creator="Open Plovdiv" xmlns="http://www.topografix.com/GPX/1/1">
  <metadata>
    <name>A museum day for the rain</name>
  </metadata>
  <wpt lat="42.149843" lon="24.753278">
    <name>1. Plovdiv Regional History Museum</name>
  </wpt>
  <wpt lat="42.150032" lon="24.753066">
    <name>2. Plovdiv Regional Ethnographic Museum</name>
  </wpt>
  <wpt lat="42.149763" lon="24.751595">
    <name>3. Balabanov house</name>
  </wpt>
  <wpt lat="42.149849" lon="24.751323">
    <name>4. Hindliyan house</name>
  </wpt>
  <wpt lat="42.149306" lon="24.752691">
    <name>5. Zlatyu Boyadzhiev Exposition</name>
  </wpt>
  <wpt lat="42.148569" lon="24.751568">
    <name>6. Hippocrates pharmacy, Plovdiv</name>
  </wpt>
  <wpt lat="42.148583" lon="24.750917">
    <name>7. Encho Pironkov Gallery</name>
  </wpt>
  <wpt lat="42.147438" lon="24.75232">
    <name>8. Klianti House</name>
  </wpt>
  <trk>
    <name>A museum day for the rain</name>
    <trkseg>
      <trkpt lat="42.149843" lon="24.753278"></trkpt>
      <trkpt lat="42.149754" lon="24.753191"></trkpt>
      <trkpt lat="42.149779" lon="24.753146"></trkpt>
      <trkpt lat="42.149913" lon="24.752916"></trkpt>
      <trkpt lat="42.149973" lon="24.752739"></trkpt>
      <trkpt lat="42.150086" lon="24.752762"></trkpt>
      <trkpt lat="42.150078" lon="24.752799"></trkpt>
      <trkpt lat="42.150032" lon="24.753066"></trkpt>
      <trkpt lat="42.150078" lon="24.752799"></trkpt>
      <trkpt lat="42.150086" lon="24.752762"></trkpt>
      <trkpt lat="42.149973" lon="24.752739"></trkpt>
      <trkpt lat="42.14985" lon="24.752706"></trkpt>
      <trkpt lat="42.149883" lon="24.752353"></trkpt>
      <trkpt lat="42.149912" lon="24.752108"></trkpt>
      <trkpt lat="42.149971" lon="24.751996"></trkpt>
      <trkpt lat="42.14986" lon="24.751776"></trkpt>
      <trkpt lat="42.149851" lon="24.751686"></trkpt>
      <trkpt lat="42.149763" lon="24.751595"></trkpt>
      <trkpt lat="42.149851" lon="24.751686"></trkpt>
      <trkpt lat="42.14992" lon="24.751629"></trkpt>
      <trkpt lat="42.149884" lon="24.751483"></trkpt>
      <trkpt lat="42.149849" lon="24.751323"></trkpt>
      <trkpt lat="42.149884" lon="24.751483"></trkpt>
      <trkpt lat="42.14992" lon="24.751629"></trkpt>
      <trkpt lat="42.149851" lon="24.751686"></trkpt>
      <trkpt lat="42.14986" lon="24.751776"></trkpt>
      <trkpt lat="42.149971" lon="24.751996"></trkpt>
      <trkpt lat="42.149912" lon="24.752108"></trkpt>
      <trkpt lat="42.149883" lon="24.752353"></trkpt>
      <trkpt lat="42.14985" lon="24.752706"></trkpt>
      <trkpt lat="42.149472" lon="24.75249"></trkpt>
      <trkpt lat="42.149394" lon="24.752438"></trkpt>
      <trkpt lat="42.149369" lon="24.752511"></trkpt>
      <trkpt lat="42.149352" lon="24.752559"></trkpt>
      <trkpt lat="42.149326" lon="24.752634"></trkpt>
      <trkpt lat="42.149306" lon="24.752691"></trkpt>
      <trkpt lat="42.149326" lon="24.752634"></trkpt>
      <trkpt lat="42.149352" lon="24.752559"></trkpt>
      <trkpt lat="42.149369" lon="24.752511"></trkpt>
      <trkpt lat="42.149394" lon="24.752438"></trkpt>
      <trkpt lat="42.149068" lon="24.752201"></trkpt>
      <trkpt lat="42.148849" lon="24.752106"></trkpt>
      <trkpt lat="42.148542" lon="24.751852"></trkpt>
      <trkpt lat="42.148404" lon="24.751707"></trkpt>
      <trkpt lat="42.148532" lon="24.751595"></trkpt>
      <trkpt lat="42.148569" lon="24.751568"></trkpt>
      <trkpt lat="42.148702" lon="24.75147"></trkpt>
      <trkpt lat="42.148841" lon="24.751349"></trkpt>
      <trkpt lat="42.149036" lon="24.751409"></trkpt>
      <trkpt lat="42.14905" lon="24.751355"></trkpt>
      <trkpt lat="42.149093" lon="24.751242"></trkpt>
      <trkpt lat="42.149125" lon="24.75122"></trkpt>
      <trkpt lat="42.149179" lon="24.751217"></trkpt>
      <trkpt lat="42.149304" lon="24.751122"></trkpt>
      <trkpt lat="42.149154" lon="24.750967"></trkpt>
      <trkpt lat="42.149166" lon="24.75067"></trkpt>
      <trkpt lat="42.148861" lon="24.750711"></trkpt>
      <trkpt lat="42.14874" lon="24.750794"></trkpt>
      <trkpt lat="42.148536" lon="24.750854"></trkpt>
      <trkpt lat="42.148549" lon="24.750926"></trkpt>
      <trkpt lat="42.148583" lon="24.750917"></trkpt>
      <trkpt lat="42.148549" lon="24.750926"></trkpt>
      <trkpt lat="42.148536" lon="24.750854"></trkpt>
      <trkpt lat="42.14874" lon="24.750794"></trkpt>
      <trkpt lat="42.148861" lon="24.750711"></trkpt>
      <trkpt lat="42.149166" lon="24.75067"></trkpt>
      <trkpt lat="42.149154" lon="24.750967"></trkpt>
      <trkpt lat="42.149304" lon="24.751122"></trkpt>
      <trkpt lat="42.149179" lon="24.751217"></trkpt>
      <trkpt lat="42.149125" lon="24.75122"></trkpt>
      <trkpt lat="42.149093" lon="24.751242"></trkpt>
      <trkpt lat="42.14905" lon="24.751355"></trkpt>
      <trkpt lat="42.149036" lon="24.751409"></trkpt>
      <trkpt lat="42.148841" lon="24.751349"></trkpt>
      <trkpt lat="42.148702" lon="24.75147"></trkpt>
      <trkpt lat="42.148532" lon="24.751595"></trkpt>
      <trkpt lat="42.148404" lon="24.751707"></trkpt>
      <trkpt lat="42.148223" lon="24.751691"></trkpt>
      <trkpt lat="42.147771" lon="24.751404"></trkpt>
      <trkpt lat="42.147607" lon="24.751553"></trkpt>
      <trkpt lat="42.147504" lon="24.751923"></trkpt>
      <trkpt lat="42.147483" lon="24.752063"></trkpt>
      <trkpt lat="42.147438" lon="24.75232"></trkpt>
    </trkseg>
  </trk>
</gpx>
