<?xml version="1.0" encoding="UTF-8"?>
<gpx version="1.1" creator="Open Plovdiv" xmlns="http://www.topografix.com/GPX/1/1">
  <metadata>
    <name>Roman Plovdiv in 90 minutes</name>
  </metadata>
  <wpt lat="42.151321" lon="24.752296">
    <name>1. Nebet Tepe</name>
  </wpt>
  <wpt lat="42.146855" lon="24.750934">
    <name>2. Ancient Theatre</name>
  </wpt>
  <wpt lat="42.144229" lon="24.752692">
    <name>3. Bishop's Basilica of Philippopolis</name>
  </wpt>
  <wpt lat="42.142142" lon="24.750932">
    <name>4. Forum of Philippopolis</name>
  </wpt>
  <wpt lat="42.143874" lon="24.750318">
    <name>5. Odeon of Philippopolis</name>
  </wpt>
  <wpt lat="42.147552" lon="24.747982">
    <name>6. Ancient Stadium</name>
  </wpt>
  <trk>
    <name>Roman Plovdiv in 90 minutes</name>
    <trkseg>
      <trkpt lat="42.151321" lon="24.752296"></trkpt>
      <trkpt lat="42.151278" lon="24.752355"></trkpt>
      <trkpt lat="42.151271" lon="24.752413"></trkpt>
      <trkpt lat="42.151206" lon="24.752607"></trkpt>
      <trkpt lat="42.151145" lon="24.752641"></trkpt>
      <trkpt lat="42.151057" lon="24.752691"></trkpt>
      <trkpt lat="42.150945" lon="24.75276"></trkpt>
      <trkpt lat="42.150877" lon="24.752765"></trkpt>
      <trkpt lat="42.150678" lon="24.75271"></trkpt>
      <trkpt lat="42.150525" lon="24.752731"></trkpt>
      <trkpt lat="42.150244" lon="24.752779"></trkpt>
      <trkpt lat="42.150086" lon="24.752762"></trkpt>
      <trkpt lat="42.149973" lon="24.752739"></trkpt>
      <trkpt lat="42.14985" lon="24.752706"></trkpt>
      <trkpt lat="42.149472" lon="24.75249"></trkpt>
      <trkpt lat="42.149394" lon="24.752438"></trkpt>
      <trkpt lat="42.149068" lon="24.752201"></trkpt>
      <trkpt lat="42.148849" lon="24.752106"></trkpt>
      <trkpt lat="42.148542" lon="24.751852"></trkpt>
      <trkpt lat="42.148404" lon="24.751707"></trkpt>
      <trkpt lat="42.148223" lon="24.751691"></trkpt>
      <trkpt lat="42.147771" lon="24.751404"></trkpt>
      <trkpt lat="42.147732" lon="24.750985"></trkpt>
      <trkpt lat="42.147674" lon="24.750551"></trkpt>
      <trkpt lat="42.147773" lon="24.750331"></trkpt>
      <trkpt lat="42.147989" lon="24.749848"></trkpt>
      <trkpt lat="42.148062" lon="24.749735"></trkpt>
      <trkpt lat="42.14801" lon="24.749215"></trkpt>
      <trkpt lat="42.14797" lon="24.749075"></trkpt>
      <trkpt lat="42.147883" lon="24.748976"></trkpt>
      <trkpt lat="42.147828" lon="24.748953"></trkpt>
      <trkpt lat="42.147511" lon="24.748819"></trkpt>
      <trkpt lat="42.147393" lon="24.74877"></trkpt>
      <trkpt lat="42.147331" lon="24.748783"></trkpt>
      <trkpt lat="42.147101" lon="24.748888"></trkpt>
      <trkpt lat="42.147148" lon="24.749141"></trkpt>
      <trkpt lat="42.146776" lon="24.749701"></trkpt>
      <trkpt lat="42.146604" lon="24.749686"></trkpt>
      <trkpt lat="42.146453" lon="24.750743"></trkpt>
      <trkpt lat="42.146594" lon="24.750771"></trkpt>
      <trkpt lat="42.146664" lon="24.75072"></trkpt>
      <trkpt lat="42.146751" lon="24.750773"></trkpt>
      <trkpt lat="42.146844" lon="24.750773"></trkpt>
      <trkpt lat="42.146855" lon="24.750918"></trkpt>
      <trkpt lat="42.146855" lon="24.750934"></trkpt>
      <trkpt lat="42.146855" lon="24.750934"></trkpt>
      <trkpt lat="42.146855" lon="24.750918"></trkpt>
      <trkpt lat="42.146844" lon="24.750773"></trkpt>
      <trkpt lat="42.146751" lon="24.750773"></trkpt>
      <trkpt lat="42.146664" lon="24.75072"></trkpt>
      <trkpt lat="42.146594" lon="24.750771"></trkpt>
      <trkpt lat="42.146453" lon="24.750743"></trkpt>
      <trkpt lat="42.146326" lon="24.750971"></trkpt>
      <trkpt lat="42.146221" lon="24.751083"></trkpt>
      <trkpt lat="42.146092" lon="24.751115"></trkpt>
      <trkpt lat="42.146024" lon="24.751057"></trkpt>
      <trkpt lat="42.145997" lon="24.750765"></trkpt>
      <trkpt lat="42.145256" lon="24.750996"></trkpt>
      <trkpt lat="42.145132" lon="24.751023"></trkpt>
      <trkpt lat="42.145111" lon="24.75092"></trkpt>
      <trkpt lat="42.145094" lon="24.750835"></trkpt>
      <trkpt lat="42.145015" lon="24.750844"></trkpt>
      <trkpt lat="42.145016" lon="24.751075"></trkpt>
      <trkpt lat="42.144973" lon="24.751176"></trkpt>
      <trkpt lat="42.144878" lon="24.751195"></trkpt>
      <trkpt lat="42.144908" lon="24.751687"></trkpt>
      <trkpt lat="42.144921" lon="24.751815"></trkpt>
      <trkpt lat="42.144875" lon="24.751827"></trkpt>
      <trkpt lat="42.144806" lon="24.751849"></trkpt>
      <trkpt lat="42.144776" lon="24.751832"></trkpt>
      <trkpt lat="42.144732" lon="24.75182"></trkpt>
      <trkpt lat="42.144477" lon="24.751838"></trkpt>
      <trkpt lat="42.144163" lon="24.752038"></trkpt>
      <trkpt lat="42.144099" lon="24.75206"></trkpt>
      <trkpt lat="42.144154" lon="24.752309"></trkpt>
      <trkpt lat="42.144229" lon="24.752692"></trkpt>
      <trkpt lat="42.144154" lon="24.752309"></trkpt>
      <trkpt lat="42.144099" lon="24.75206"></trkpt>
      <trkpt lat="42.144014" lon="24.752089"></trkpt>
      <trkpt lat="42.143961" lon="24.752107"></trkpt>
      <trkpt lat="42.143957" lon="24.752044"></trkpt>
      <trkpt lat="42.143864" lon="24.751806"></trkpt>
      <trkpt lat="42.143624" lon="24.751186"></trkpt>
      <trkpt lat="42.143651" lon="24.751174"></trkpt>
      <trkpt lat="42.143686" lon="24.751264"></trkpt>
      <trkpt lat="42.143614" lon="24.751274"></trkpt>
      <trkpt lat="42.143539" lon="24.751182"></trkpt>
      <trkpt lat="42.143233" lon="24.751202"></trkpt>
      <trkpt lat="42.143169" lon="24.751234"></trkpt>
      <trkpt lat="42.14316" lon="24.751034"></trkpt>
      <trkpt lat="42.143054" lon="24.751071"></trkpt>
      <trkpt lat="42.142957" lon="24.751116"></trkpt>
      <trkpt lat="42.142917" lon="24.751084"></trkpt>
      <trkpt lat="42.142504" lon="24.751213"></trkpt>
      <trkpt lat="42.142225" lon="24.751337"></trkpt>
      <trkpt lat="42.142142" lon="24.750932"></trkpt>
      <trkpt lat="42.142225" lon="24.751337"></trkpt>
      <trkpt lat="42.142504" lon="24.751213"></trkpt>
      <trkpt lat="42.142917" lon="24.751084"></trkpt>
      <trkpt lat="42.142957" lon="24.751116"></trkpt>
      <trkpt lat="42.143054" lon="24.751071"></trkpt>
      <trkpt lat="42.14316" lon="24.751034"></trkpt>
      <trkpt lat="42.143169" lon="24.751234"></trkpt>
      <trkpt lat="42.143233" lon="24.751202"></trkpt>
      <trkpt lat="42.143539" lon="24.751182"></trkpt>
      <trkpt lat="42.143568" lon="24.751113"></trkpt>
      <trkpt lat="42.143583" lon="24.75105"></trkpt>
      <trkpt lat="42.143645" lon="24.751007"></trkpt>
      <trkpt lat="42.143658" lon="24.751041"></trkpt>
      <trkpt lat="42.143687" lon="24.751018"></trkpt>
      <trkpt lat="42.143958" lon="24.750816"></trkpt>
      <trkpt lat="42.144066" lon="24.750737"></trkpt>
      <trkpt lat="42.143878" lon="24.750345"></trkpt>
      <trkpt lat="42.143874" lon="24.750318"></trkpt>
      <trkpt lat="42.143867" lon="24.750277"></trkpt>
      <trkpt lat="42.143851" lon="24.749554"></trkpt>
      <trkpt lat="42.144223" lon="24.749513"></trkpt>
      <trkpt lat="42.14466" lon="24.749464"></trkpt>
      <trkpt lat="42.145525" lon="24.749095"></trkpt>
      <trkpt lat="42.14561" lon="24.749052"></trkpt>
      <trkpt lat="42.146347" lon="24.748611"></trkpt>
      <trkpt lat="42.146559" lon="24.748487"></trkpt>
      <trkpt lat="42.146918" lon="24.748289"></trkpt>
      <trkpt lat="42.147145" lon="24.748175"></trkpt>
      <trkpt lat="42.14741" lon="24.748145"></trkpt>
      <trkpt lat="42.147453" lon="24.748154"></trkpt>
      <trkpt lat="42.147466" lon="24.74805"></trkpt>
      <trkpt lat="42.147483" lon="24.748036"></trkpt>
      <trkpt lat="42.147533" lon="24.747997"></trkpt>
      <trkpt lat="42.147552" lon="24.747982"></trkpt>
    </trkseg>
  </trk>
</gpx>
