<?xml version="1.0" encoding="UTF-8"?>
<gpx version="1.1" creator="Open Plovdiv" xmlns="http://www.topografix.com/GPX/1/1">
  <metadata>
    <name>Sacred Plovdiv</name>
  </metadata>
  <wpt lat="42.14439" lon="24.75252">
    <name>1. Cathedral of St Louis</name>
  </wpt>
  <wpt lat="42.14769" lon="24.750671">
    <name>2. Church of the Holy Mother of God</name>
  </wpt>
  <wpt lat="42.147545" lon="24.751777">
    <name>3. St. Dimitar Church, Plovdiv</name>
  </wpt>
  <wpt lat="42.149765" lon="24.752657">
    <name>4. Church of St Constantine and Helena</name>
  </wpt>
  <wpt lat="42.14927" lon="24.754784">
    <name>5. St. Nedelya Church</name>
  </wpt>
  <wpt lat="42.150793" lon="24.751744">
    <name>6. Saint George Armenian Church</name>
  </wpt>
  <wpt lat="42.147801" lon="24.748228">
    <name>7. Dzhumaya Mosque</name>
  </wpt>
  <wpt lat="42.150507" lon="24.740686">
    <name>8. Plovdiv Synagogue</name>
  </wpt>
  <trk>
    <name>Sacred Plovdiv</name>
    <trkseg>
      <trkpt lat="42.14439" lon="24.75252"></trkpt>
      <trkpt lat="42.144382" lon="24.752483"></trkpt>
      <trkpt lat="42.144318" lon="24.752162"></trkpt>
      <trkpt lat="42.144509" lon="24.751986"></trkpt>
      <trkpt lat="42.144635" lon="24.751865"></trkpt>
      <trkpt lat="42.144759" lon="24.751883"></trkpt>
      <trkpt lat="42.144776" lon="24.751832"></trkpt>
      <trkpt lat="42.144806" lon="24.751849"></trkpt>
      <trkpt lat="42.144875" lon="24.751827"></trkpt>
      <trkpt lat="42.144921" lon="24.751815"></trkpt>
      <trkpt lat="42.144933" lon="24.751917"></trkpt>
      <trkpt lat="42.14513" lon="24.752211"></trkpt>
      <trkpt lat="42.14515" lon="24.75235"></trkpt>
      <trkpt lat="42.145179" lon="24.75248"></trkpt>
      <trkpt lat="42.145267" lon="24.752821"></trkpt>
      <trkpt lat="42.145322" lon="24.752854"></trkpt>
      <trkpt lat="42.145344" lon="24.752874"></trkpt>
      <trkpt lat="42.145373" lon="24.752902"></trkpt>
      <trkpt lat="42.145606" lon="24.753204"></trkpt>
      <trkpt lat="42.145642" lon="24.753161"></trkpt>
      <trkpt lat="42.145665" lon="24.753133"></trkpt>
      <trkpt lat="42.145842" lon="24.752918"></trkpt>
      <trkpt lat="42.145969" lon="24.753455"></trkpt>
      <trkpt lat="42.146109" lon="24.75342"></trkpt>
      <trkpt lat="42.146253" lon="24.753438"></trkpt>
      <trkpt lat="42.146263" lon="24.753566"></trkpt>
      <trkpt lat="42.146289" lon="24.753635"></trkpt>
      <trkpt lat="42.146351" lon="24.753719"></trkpt>
      <trkpt lat="42.146425" lon="24.753672"></trkpt>
      <trkpt lat="42.14647" lon="24.753537"></trkpt>
      <trkpt lat="42.146525" lon="24.753442"></trkpt>
      <trkpt lat="42.14672" lon="24.753449"></trkpt>
      <trkpt lat="42.146795" lon="24.753444"></trkpt>
      <trkpt lat="42.146844" lon="24.753391"></trkpt>
      <trkpt lat="42.147002" lon="24.753135"></trkpt>
      <trkpt lat="42.147096" lon="24.752958"></trkpt>
      <trkpt lat="42.147212" lon="24.752758"></trkpt>
      <trkpt lat="42.147319" lon="24.75274"></trkpt>
      <trkpt lat="42.147474" lon="24.752753"></trkpt>
      <trkpt lat="42.147487" lon="24.752491"></trkpt>
      <trkpt lat="42.147411" lon="24.752476"></trkpt>
      <trkpt lat="42.147483" lon="24.752063"></trkpt>
      <trkpt lat="42.147504" lon="24.751923"></trkpt>
      <trkpt lat="42.147607" lon="24.751553"></trkpt>
      <trkpt lat="42.147771" lon="24.751404"></trkpt>
      <trkpt lat="42.147732" lon="24.750985"></trkpt>
      <trkpt lat="42.14769" lon="24.750671"></trkpt>
      <trkpt lat="42.147732" lon="24.750985"></trkpt>
      <trkpt lat="42.147771" lon="24.751404"></trkpt>
      <trkpt lat="42.147607" lon="24.751553"></trkpt>
      <trkpt lat="42.147545" lon="24.751777"></trkpt>
      <trkpt lat="42.147607" lon="24.751553"></trkpt>
      <trkpt lat="42.147771" lon="24.751404"></trkpt>
      <trkpt lat="42.148223" lon="24.751691"></trkpt>
      <trkpt lat="42.148404" lon="24.751707"></trkpt>
      <trkpt lat="42.148542" lon="24.751852"></trkpt>
      <trkpt lat="42.148849" lon="24.752106"></trkpt>
      <trkpt lat="42.149068" lon="24.752201"></trkpt>
      <trkpt lat="42.149394" lon="24.752438"></trkpt>
      <trkpt lat="42.149472" lon="24.75249"></trkpt>
      <trkpt lat="42.149765" lon="24.752657"></trkpt>
      <trkpt lat="42.14985" lon="24.752706"></trkpt>
      <trkpt lat="42.149973" lon="24.752739"></trkpt>
      <trkpt lat="42.149913" lon="24.752916"></trkpt>
      <trkpt lat="42.149779" lon="24.753146"></trkpt>
      <trkpt lat="42.149754" lon="24.753191"></trkpt>
      <trkpt lat="42.149727" lon="24.753241"></trkpt>
      <trkpt lat="42.149681" lon="24.753424"></trkpt>
      <trkpt lat="42.149435" lon="24.754507"></trkpt>
      <trkpt lat="42.149304" lon="24.754683"></trkpt>
      <trkpt lat="42.14927" lon="24.754784"></trkpt>
      <trkpt lat="42.149304" lon="24.754683"></trkpt>
      <trkpt lat="42.149435" lon="24.754507"></trkpt>
      <trkpt lat="42.149681" lon="24.753424"></trkpt>
      <trkpt lat="42.149727" lon="24.753241"></trkpt>
      <trkpt lat="42.149754" lon="24.753191"></trkpt>
      <trkpt lat="42.149779" lon="24.753146"></trkpt>
      <trkpt lat="42.149913" lon="24.752916"></trkpt>
      <trkpt lat="42.149973" lon="24.752739"></trkpt>
      <trkpt lat="42.14985" lon="24.752706"></trkpt>
      <trkpt lat="42.149883" lon="24.752353"></trkpt>
      <trkpt lat="42.149912" lon="24.752108"></trkpt>
      <trkpt lat="42.149971" lon="24.751996"></trkpt>
      <trkpt lat="42.150066" lon="24.751875"></trkpt>
      <trkpt lat="42.150157" lon="24.751916"></trkpt>
      <trkpt lat="42.150206" lon="24.751958"></trkpt>
      <trkpt lat="42.150258" lon="24.751977"></trkpt>
      <trkpt lat="42.15033" lon="24.751975"></trkpt>
      <trkpt lat="42.150518" lon="24.751881"></trkpt>
      <trkpt lat="42.150554" lon="24.751861"></trkpt>
      <trkpt lat="42.150773" lon="24.751757"></trkpt>
      <trkpt lat="42.150793" lon="24.751744"></trkpt>
      <trkpt lat="42.150773" lon="24.751757"></trkpt>
      <trkpt lat="42.150554" lon="24.751861"></trkpt>
      <trkpt lat="42.150518" lon="24.751881"></trkpt>
      <trkpt lat="42.15033" lon="24.751975"></trkpt>
      <trkpt lat="42.150258" lon="24.751977"></trkpt>
      <trkpt lat="42.150206" lon="24.751958"></trkpt>
      <trkpt lat="42.150157" lon="24.751916"></trkpt>
      <trkpt lat="42.150066" lon="24.751875"></trkpt>
      <trkpt lat="42.149971" lon="24.751996"></trkpt>
      <trkpt lat="42.14986" lon="24.751776"></trkpt>
      <trkpt lat="42.149851" lon="24.751686"></trkpt>
      <trkpt lat="42.149434" lon="24.751256"></trkpt>
      <trkpt lat="42.149422" lon="24.751084"></trkpt>
      <trkpt lat="42.149452" lon="24.750748"></trkpt>
      <trkpt lat="42.149478" lon="24.75066"></trkpt>
      <trkpt lat="42.149495" lon="24.750658"></trkpt>
      <trkpt lat="42.149548" lon="24.750651"></trkpt>
      <trkpt lat="42.149591" lon="24.750646"></trkpt>
      <trkpt lat="42.149704" lon="24.750165"></trkpt>
      <trkpt lat="42.149665" lon="24.750149"></trkpt>
      <trkpt lat="42.149626" lon="24.750133"></trkpt>
      <trkpt lat="42.149449" lon="24.750061"></trkpt>
      <trkpt lat="42.149438" lon="24.750127"></trkpt>
      <trkpt lat="42.14938" lon="24.750066"></trkpt>
      <trkpt lat="42.149054" lon="24.749719"></trkpt>
      <trkpt lat="42.148904" lon="24.749556"></trkpt>
      <trkpt lat="42.148848" lon="24.749485"></trkpt>
      <trkpt lat="42.148783" lon="24.749352"></trkpt>
      <trkpt lat="42.148662" lon="24.749109"></trkpt>
      <trkpt lat="42.14858" lon="24.748953"></trkpt>
      <trkpt lat="42.148464" lon="24.748733"></trkpt>
      <trkpt lat="42.148261" lon="24.748417"></trkpt>
      <trkpt lat="42.148236" lon="24.748387"></trkpt>
      <trkpt lat="42.148207" lon="24.748319"></trkpt>
      <trkpt lat="42.148082" lon="24.748029"></trkpt>
      <trkpt lat="42.148068" lon="24.747991"></trkpt>
      <trkpt lat="42.147938" lon="24.748103"></trkpt>
      <trkpt lat="42.147801" lon="24.748228"></trkpt>
      <trkpt lat="42.147938" lon="24.748103"></trkpt>
      <trkpt lat="42.148068" lon="24.747991"></trkpt>
      <trkpt lat="42.148049" lon="24.747941"></trkpt>
      <trkpt lat="42.148106" lon="24.747921"></trkpt>
      <trkpt lat="42.148465" lon="24.747773"></trkpt>
      <trkpt lat="42.148823" lon="24.747625"></trkpt>
      <trkpt lat="42.149042" lon="24.747534"></trkpt>
      <trkpt lat="42.149211" lon="24.747458"></trkpt>
      <trkpt lat="42.149435" lon="24.747357"></trkpt>
      <trkpt lat="42.149945" lon="24.747126"></trkpt>
      <trkpt lat="42.150129" lon="24.747044"></trkpt>
      <trkpt lat="42.15014" lon="24.746116"></trkpt>
      <trkpt lat="42.150147" lon="24.745602"></trkpt>
      <trkpt lat="42.150148" lon="24.745497"></trkpt>
      <trkpt lat="42.150167" lon="24.744777"></trkpt>
      <trkpt lat="42.150168" lon="24.744378"></trkpt>
      <trkpt lat="42.150191" lon="24.743994"></trkpt>
      <trkpt lat="42.150257" lon="24.743792"></trkpt>
      <trkpt lat="42.150228" lon="24.743759"></trkpt>
      <trkpt lat="42.150281" lon="24.743646"></trkpt>
      <trkpt lat="42.150284" lon="24.743607"></trkpt>
      <trkpt lat="42.150271" lon="24.743563"></trkpt>
      <trkpt lat="42.150314" lon="24.743531"></trkpt>
      <trkpt lat="42.15037" lon="24.74349"></trkpt>
      <trkpt lat="42.150418" lon="24.743455"></trkpt>
      <trkpt lat="42.150206" lon="24.742967"></trkpt>
      <trkpt lat="42.150186" lon="24.742921"></trkpt>
      <trkpt lat="42.150032" lon="24.74257"></trkpt>
      <trkpt lat="42.149803" lon="24.742043"></trkpt>
      <trkpt lat="42.149712" lon="24.741741"></trkpt>
      <trkpt lat="42.149653" lon="24.741494"></trkpt>
      <trkpt lat="42.14959" lon="24.741209"></trkpt>
      <trkpt lat="42.149745" lon="24.741091"></trkpt>
      <trkpt lat="42.14997" lon="24.74092"></trkpt>
      <trkpt lat="42.150003" lon="24.741016"></trkpt>
      <trkpt lat="42.150236" lon="24.740852"></trkpt>
      <trkpt lat="42.150507" lon="24.740686"></trkpt>
    </trkseg>
  </trk>
</gpx>
