<?xml version="1.0" encoding="UTF-8"?>
<gpx version="1.1" creator="Open Plovdiv" xmlns="http://www.topografix.com/GPX/1/1">
  <metadata>
    <name>Smirnenski: hill to water</name>
  </metadata>
  <wpt lat="42.13793" lon="24.735544">
    <name>1. Plovdiv Medical University</name>
  </wpt>
  <wpt lat="42.136948" lon="24.731714">
    <name>2. Dzhendem tepe</name>
  </wpt>
  <wpt lat="42.150496" lon="24.718245">
    <name>3. Rowing Canal / Grebna Baza</name>
  </wpt>
  <trk>
    <name>Smirnenski: hill to water</name>
    <trkseg>
      <trkpt lat="42.13793" lon="24.735544"></trkpt>
      <trkpt lat="42.138032" lon="24.73557"></trkpt>
      <trkpt lat="42.138521" lon="24.735718"></trkpt>
      <trkpt lat="42.138566" lon="24.73573"></trkpt>
      <trkpt lat="42.139155" lon="24.735905"></trkpt>
      <trkpt lat="42.139264" lon="24.7356"></trkpt>
      <trkpt lat="42.139349" lon="24.735359"></trkpt>
      <trkpt lat="42.139405" lon="24.735212"></trkpt>
      <trkpt lat="42.139547" lon="24.734839"></trkpt>
      <trkpt lat="42.13957" lon="24.734778"></trkpt>
      <trkpt lat="42.139552" lon="24.734639"></trkpt>
      <trkpt lat="42.139851" lon="24.734361"></trkpt>
      <trkpt lat="42.13977" lon="24.734174"></trkpt>
      <trkpt lat="42.139776" lon="24.734073"></trkpt>
      <trkpt lat="42.139746" lon="24.734082"></trkpt>
      <trkpt lat="42.139706" lon="24.734082"></trkpt>
      <trkpt lat="42.139172" lon="24.734308"></trkpt>
      <trkpt lat="42.139088" lon="24.734338"></trkpt>
      <trkpt lat="42.138961" lon="24.73439"></trkpt>
      <trkpt lat="42.138789" lon="24.734351"></trkpt>
      <trkpt lat="42.138568" lon="24.734349"></trkpt>
      <trkpt lat="42.138372" lon="24.734343"></trkpt>
      <trkpt lat="42.138132" lon="24.734279"></trkpt>
      <trkpt lat="42.138034" lon="24.734295"></trkpt>
      <trkpt lat="42.137891" lon="24.734264"></trkpt>
      <trkpt lat="42.137793" lon="24.734235"></trkpt>
      <trkpt lat="42.137729" lon="24.734165"></trkpt>
      <trkpt lat="42.137616" lon="24.734092"></trkpt>
      <trkpt lat="42.137455" lon="24.73402"></trkpt>
      <trkpt lat="42.13726" lon="24.734028"></trkpt>
      <trkpt lat="42.137005" lon="24.733937"></trkpt>
      <trkpt lat="42.136721" lon="24.7338"></trkpt>
      <trkpt lat="42.136639" lon="24.733685"></trkpt>
      <trkpt lat="42.13659" lon="24.733599"></trkpt>
      <trkpt lat="42.136521" lon="24.733553"></trkpt>
      <trkpt lat="42.136619" lon="24.733429"></trkpt>
      <trkpt lat="42.136947" lon="24.73323"></trkpt>
      <trkpt lat="42.137085" lon="24.733112"></trkpt>
      <trkpt lat="42.137205" lon="24.733006"></trkpt>
      <trkpt lat="42.137284" lon="24.733011"></trkpt>
      <trkpt lat="42.137376" lon="24.732771"></trkpt>
      <trkpt lat="42.137472" lon="24.732718"></trkpt>
      <trkpt lat="42.137495" lon="24.73254"></trkpt>
      <trkpt lat="42.137421" lon="24.732438"></trkpt>
      <trkpt lat="42.137286" lon="24.732394"></trkpt>
      <trkpt lat="42.137254" lon="24.732441"></trkpt>
      <trkpt lat="42.137216" lon="24.732472"></trkpt>
      <trkpt lat="42.1371" lon="24.732288"></trkpt>
      <trkpt lat="42.137039" lon="24.732089"></trkpt>
      <trkpt lat="42.137017" lon="24.731882"></trkpt>
      <trkpt lat="42.136954" lon="24.732185"></trkpt>
      <trkpt lat="42.136903" lon="24.732274"></trkpt>
      <trkpt lat="42.136868" lon="24.732286"></trkpt>
      <trkpt lat="42.136831" lon="24.732268"></trkpt>
      <trkpt lat="42.136799" lon="24.732248"></trkpt>
      <trkpt lat="42.136794" lon="24.732184"></trkpt>
      <trkpt lat="42.136806" lon="24.732091"></trkpt>
      <trkpt lat="42.136858" lon="24.731976"></trkpt>
      <trkpt lat="42.136868" lon="24.731841"></trkpt>
      <trkpt lat="42.136904" lon="24.731733"></trkpt>
      <trkpt lat="42.136948" lon="24.731714"></trkpt>
      <trkpt lat="42.136948" lon="24.731714"></trkpt>
      <trkpt lat="42.136904" lon="24.731733"></trkpt>
      <trkpt lat="42.136868" lon="24.731841"></trkpt>
      <trkpt lat="42.136858" lon="24.731976"></trkpt>
      <trkpt lat="42.136806" lon="24.732091"></trkpt>
      <trkpt lat="42.136794" lon="24.732184"></trkpt>
      <trkpt lat="42.136799" lon="24.732248"></trkpt>
      <trkpt lat="42.136831" lon="24.732268"></trkpt>
      <trkpt lat="42.136868" lon="24.732286"></trkpt>
      <trkpt lat="42.136903" lon="24.732274"></trkpt>
      <trkpt lat="42.136954" lon="24.732185"></trkpt>
      <trkpt lat="42.137017" lon="24.731882"></trkpt>
      <trkpt lat="42.137014" lon="24.731761"></trkpt>
      <trkpt lat="42.136996" lon="24.731576"></trkpt>
      <trkpt lat="42.137009" lon="24.731503"></trkpt>
      <trkpt lat="42.136978" lon="24.731452"></trkpt>
      <trkpt lat="42.136924" lon="24.731465"></trkpt>
      <trkpt lat="42.136904" lon="24.731494"></trkpt>
      <trkpt lat="42.136874" lon="24.731547"></trkpt>
      <trkpt lat="42.136863" lon="24.731489"></trkpt>
      <trkpt lat="42.136883" lon="24.731428"></trkpt>
      <trkpt lat="42.136867" lon="24.731407"></trkpt>
      <trkpt lat="42.136825" lon="24.731422"></trkpt>
      <trkpt lat="42.136839" lon="24.731277"></trkpt>
      <trkpt lat="42.136793" lon="24.731224"></trkpt>
      <trkpt lat="42.136764" lon="24.731152"></trkpt>
      <trkpt lat="42.136809" lon="24.731111"></trkpt>
      <trkpt lat="42.136815" lon="24.731075"></trkpt>
      <trkpt lat="42.136752" lon="24.730955"></trkpt>
      <trkpt lat="42.136751" lon="24.730855"></trkpt>
      <trkpt lat="42.136719" lon="24.730822"></trkpt>
      <trkpt lat="42.136766" lon="24.730699"></trkpt>
      <trkpt lat="42.136727" lon="24.730627"></trkpt>
      <trkpt lat="42.136699" lon="24.730519"></trkpt>
      <trkpt lat="42.136682" lon="24.730384"></trkpt>
      <trkpt lat="42.136736" lon="24.730307"></trkpt>
      <trkpt lat="42.136715" lon="24.730261"></trkpt>
      <trkpt lat="42.136709" lon="24.730203"></trkpt>
      <trkpt lat="42.136663" lon="24.730178"></trkpt>
      <trkpt lat="42.136693" lon="24.730122"></trkpt>
      <trkpt lat="42.136649" lon="24.73002"></trkpt>
      <trkpt lat="42.136684" lon="24.730029"></trkpt>
      <trkpt lat="42.136692" lon="24.72998"></trkpt>
      <trkpt lat="42.136609" lon="24.729953"></trkpt>
      <trkpt lat="42.13659" lon="24.730007"></trkpt>
      <trkpt lat="42.136552" lon="24.729958"></trkpt>
      <trkpt lat="42.136567" lon="24.729878"></trkpt>
      <trkpt lat="42.13658" lon="24.729799"></trkpt>
      <trkpt lat="42.136623" lon="24.729753"></trkpt>
      <trkpt lat="42.136621" lon="24.729711"></trkpt>
      <trkpt lat="42.136632" lon="24.729646"></trkpt>
      <trkpt lat="42.136672" lon="24.72963"></trkpt>
      <trkpt lat="42.136648" lon="24.72956"></trkpt>
      <trkpt lat="42.136585" lon="24.729463"></trkpt>
      <trkpt lat="42.136544" lon="24.729366"></trkpt>
      <trkpt lat="42.136547" lon="24.729256"></trkpt>
      <trkpt lat="42.136527" lon="24.729177"></trkpt>
      <trkpt lat="42.136469" lon="24.729155"></trkpt>
      <trkpt lat="42.136477" lon="24.729021"></trkpt>
      <trkpt lat="42.136486" lon="24.72887"></trkpt>
      <trkpt lat="42.136528" lon="24.72854"></trkpt>
      <trkpt lat="42.136572" lon="24.728183"></trkpt>
      <trkpt lat="42.136618" lon="24.72795"></trkpt>
      <trkpt lat="42.136637" lon="24.727717"></trkpt>
      <trkpt lat="42.136633" lon="24.727532"></trkpt>
      <trkpt lat="42.136616" lon="24.727416"></trkpt>
      <trkpt lat="42.136671" lon="24.727282"></trkpt>
      <trkpt lat="42.136804" lon="24.727129"></trkpt>
      <trkpt lat="42.136909" lon="24.726981"></trkpt>
      <trkpt lat="42.137047" lon="24.726878"></trkpt>
      <trkpt lat="42.137429" lon="24.727012"></trkpt>
      <trkpt lat="42.137659" lon="24.727162"></trkpt>
      <trkpt lat="42.137885" lon="24.72741"></trkpt>
      <trkpt lat="42.138172" lon="24.727699"></trkpt>
      <trkpt lat="42.138482" lon="24.728059"></trkpt>
      <trkpt lat="42.138675" lon="24.728197"></trkpt>
      <trkpt lat="42.138841" lon="24.728782"></trkpt>
      <trkpt lat="42.139581" lon="24.728487"></trkpt>
      <trkpt lat="42.139669" lon="24.728443"></trkpt>
      <trkpt lat="42.139991" lon="24.728285"></trkpt>
      <trkpt lat="42.140233" lon="24.728038"></trkpt>
      <trkpt lat="42.140631" lon="24.727737"></trkpt>
      <trkpt lat="42.140722" lon="24.727697"></trkpt>
      <trkpt lat="42.140767" lon="24.727679"></trkpt>
      <trkpt lat="42.141716" lon="24.727684"></trkpt>
      <trkpt lat="42.141714" lon="24.727566"></trkpt>
      <trkpt lat="42.141838" lon="24.727559"></trkpt>
      <trkpt lat="42.142001" lon="24.727549"></trkpt>
      <trkpt lat="42.142164" lon="24.727542"></trkpt>
      <trkpt lat="42.142186" lon="24.727545"></trkpt>
      <trkpt lat="42.142275" lon="24.727626"></trkpt>
      <trkpt lat="42.142859" lon="24.72759"></trkpt>
      <trkpt lat="42.143033" lon="24.727407"></trkpt>
      <trkpt lat="42.143084" lon="24.727331"></trkpt>
      <trkpt lat="42.143084" lon="24.727311"></trkpt>
      <trkpt lat="42.143079" lon="24.726955"></trkpt>
      <trkpt lat="42.143118" lon="24.726954"></trkpt>
      <trkpt lat="42.143157" lon="24.726952"></trkpt>
      <trkpt lat="42.143219" lon="24.72695"></trkpt>
      <trkpt lat="42.143216" lon="24.726942"></trkpt>
      <trkpt lat="42.143238" lon="24.726922"></trkpt>
      <trkpt lat="42.143235" lon="24.726812"></trkpt>
      <trkpt lat="42.143234" lon="24.72677"></trkpt>
      <trkpt lat="42.143221" lon="24.726771"></trkpt>
      <trkpt lat="42.143202" lon="24.726757"></trkpt>
      <trkpt lat="42.143188" lon="24.726686"></trkpt>
      <trkpt lat="42.143188" lon="24.726621"></trkpt>
      <trkpt lat="42.143188" lon="24.726538"></trkpt>
      <trkpt lat="42.143203" lon="24.726499"></trkpt>
      <trkpt lat="42.143229" lon="24.726486"></trkpt>
      <trkpt lat="42.143317" lon="24.726476"></trkpt>
      <trkpt lat="42.143315" lon="24.7264"></trkpt>
      <trkpt lat="42.143311" lon="24.726265"></trkpt>
      <trkpt lat="42.143615" lon="24.726241"></trkpt>
      <trkpt lat="42.14436" lon="24.726165"></trkpt>
      <trkpt lat="42.1444" lon="24.726152"></trkpt>
      <trkpt lat="42.144482" lon="24.726038"></trkpt>
      <trkpt lat="42.144524" lon="24.725981"></trkpt>
      <trkpt lat="42.144583" lon="24.725959"></trkpt>
      <trkpt lat="42.14462" lon="24.725966"></trkpt>
      <trkpt lat="42.144656" lon="24.725983"></trkpt>
      <trkpt lat="42.14473" lon="24.726052"></trkpt>
      <trkpt lat="42.144786" lon="24.726034"></trkpt>
      <trkpt lat="42.144866" lon="24.726003"></trkpt>
      <trkpt lat="42.145617" lon="24.725708"></trkpt>
      <trkpt lat="42.14572" lon="24.725668"></trkpt>
      <trkpt lat="42.145869" lon="24.725609"></trkpt>
      <trkpt lat="42.145909" lon="24.725594"></trkpt>
      <trkpt lat="42.145924" lon="24.725588"></trkpt>
      <trkpt lat="42.146701" lon="24.725296"></trkpt>
      <trkpt lat="42.146926" lon="24.725192"></trkpt>
      <trkpt lat="42.147029" lon="24.725103"></trkpt>
      <trkpt lat="42.147085" lon="24.725071"></trkpt>
      <trkpt lat="42.147141" lon="24.725037"></trkpt>
      <trkpt lat="42.14795" lon="24.724404"></trkpt>
      <trkpt lat="42.148559" lon="24.723865"></trkpt>
      <trkpt lat="42.14861" lon="24.723773"></trkpt>
      <trkpt lat="42.148619" lon="24.723743"></trkpt>
      <trkpt lat="42.148627" lon="24.723713"></trkpt>
      <trkpt lat="42.148714" lon="24.723672"></trkpt>
      <trkpt lat="42.14967" lon="24.723118"></trkpt>
      <trkpt lat="42.149733" lon="24.723075"></trkpt>
      <trkpt lat="42.149781" lon="24.723046"></trkpt>
      <trkpt lat="42.149791" lon="24.722592"></trkpt>
      <trkpt lat="42.149835" lon="24.722492"></trkpt>
      <trkpt lat="42.149903" lon="24.722459"></trkpt>
      <trkpt lat="42.150004" lon="24.722437"></trkpt>
      <trkpt lat="42.149958" lon="24.722063"></trkpt>
      <trkpt lat="42.15001" lon="24.721235"></trkpt>
      <trkpt lat="42.150012" lon="24.721151"></trkpt>
      <trkpt lat="42.150098" lon="24.720932"></trkpt>
      <trkpt lat="42.150112" lon="24.720943"></trkpt>
      <trkpt lat="42.150183" lon="24.720835"></trkpt>
      <trkpt lat="42.150253" lon="24.720773"></trkpt>
      <trkpt lat="42.150297" lon="24.72075"></trkpt>
      <trkpt lat="42.15037" lon="24.720713"></trkpt>
      <trkpt lat="42.150422" lon="24.720684"></trkpt>
      <trkpt lat="42.15046" lon="24.720656"></trkpt>
      <trkpt lat="42.150504" lon="24.720615"></trkpt>
      <trkpt lat="42.150491" lon="24.720585"></trkpt>
      <trkpt lat="42.150529" lon="24.720553"></trkpt>
      <trkpt lat="42.150598" lon="24.720482"></trkpt>
      <trkpt lat="42.150671" lon="24.720391"></trkpt>
      <trkpt lat="42.15075" lon="24.720266"></trkpt>
      <trkpt lat="42.150815" lon="24.72011"></trkpt>
      <trkpt lat="42.150858" lon="24.719952"></trkpt>
      <trkpt lat="42.150882" lon="24.719814"></trkpt>
      <trkpt lat="42.150885" lon="24.719678"></trkpt>
      <trkpt lat="42.150885" lon="24.71958"></trkpt>
      <trkpt lat="42.150852" lon="24.719392"></trkpt>
      <trkpt lat="42.150793" lon="24.719195"></trkpt>
      <trkpt lat="42.150725" lon="24.719073"></trkpt>
      <trkpt lat="42.150613" lon="24.718936"></trkpt>
      <trkpt lat="42.150619" lon="24.71886"></trkpt>
      <trkpt lat="42.150619" lon="24.718762"></trkpt>
      <trkpt lat="42.15061" lon="24.718654"></trkpt>
      <trkpt lat="42.15059" lon="24.718476"></trkpt>
      <trkpt lat="42.150584" lon="24.718432"></trkpt>
      <trkpt lat="42.150576" lon="24.718393"></trkpt>
      <trkpt lat="42.150563" lon="24.718352"></trkpt>
      <trkpt lat="42.150543" lon="24.718311"></trkpt>
      <trkpt lat="42.150496" lon="24.718245"></trkpt>
      <trkpt lat="42.150496" lon="24.718245"></trkpt>
    </trkseg>
  </trk>
</gpx>
