<?xml version="1.0" encoding="UTF-8"?>
<gpx version="1.1" creator="Open Plovdiv" xmlns="http://www.topografix.com/GPX/1/1">
  <metadata>
    <name>From the station to the Old Town</name>
  </metadata>
  <wpt lat="42.134649" lon="24.741307">
    <name>1. Plovdiv Central railway station</name>
  </wpt>
  <wpt lat="42.13626" lon="24.742562">
    <name>2. Ivan Vazov (street)</name>
  </wpt>
  <wpt lat="42.141957" lon="24.747196">
    <name>3. Tzar Simeon Garden</name>
  </wpt>
  <wpt lat="42.14418" lon="24.748997">
    <name>4. Stefan Stambolov square, Plovdiv</name>
  </wpt>
  <wpt lat="42.147781" lon="24.748001">
    <name>5. Dzhumaya square</name>
  </wpt>
  <trk>
    <name>From the station to the Old Town</name>
    <trkseg>
      <trkpt lat="42.134649" lon="24.741307"></trkpt>
      <trkpt lat="42.134756" lon="24.741889"></trkpt>
      <trkpt lat="42.134572" lon="24.741902"></trkpt>
      <trkpt lat="42.134462" lon="24.741935"></trkpt>
      <trkpt lat="42.134488" lon="24.742078"></trkpt>
      <trkpt lat="42.13494" lon="24.741951"></trkpt>
      <trkpt lat="42.135232" lon="24.74187"></trkpt>
      <trkpt lat="42.135306" lon="24.741944"></trkpt>
      <trkpt lat="42.135369" lon="24.742014"></trkpt>
      <trkpt lat="42.135408" lon="24.742062"></trkpt>
      <trkpt lat="42.135538" lon="24.74222"></trkpt>
      <trkpt lat="42.135672" lon="24.742343"></trkpt>
      <trkpt lat="42.135727" lon="24.742415"></trkpt>
      <trkpt lat="42.135735" lon="24.742513"></trkpt>
      <trkpt lat="42.135739" lon="24.742606"></trkpt>
      <trkpt lat="42.136084" lon="24.742586"></trkpt>
      <trkpt lat="42.136189" lon="24.742603"></trkpt>
      <trkpt lat="42.136238" lon="24.742584"></trkpt>
      <trkpt lat="42.13626" lon="24.742562"></trkpt>
      <trkpt lat="42.136295" lon="24.742528"></trkpt>
      <trkpt lat="42.136365" lon="24.742386"></trkpt>
      <trkpt lat="42.136389" lon="24.742265"></trkpt>
      <trkpt lat="42.136389" lon="24.74213"></trkpt>
      <trkpt lat="42.137504" lon="24.742047"></trkpt>
      <trkpt lat="42.137506" lon="24.742136"></trkpt>
      <trkpt lat="42.137536" lon="24.742654"></trkpt>
      <trkpt lat="42.138036" lon="24.743386"></trkpt>
      <trkpt lat="42.138504" lon="24.744038"></trkpt>
      <trkpt lat="42.139462" lon="24.745401"></trkpt>
      <trkpt lat="42.139592" lon="24.745566"></trkpt>
      <trkpt lat="42.139835" lon="24.745621"></trkpt>
      <trkpt lat="42.140136" lon="24.746054"></trkpt>
      <trkpt lat="42.140284" lon="24.745947"></trkpt>
      <trkpt lat="42.140365" lon="24.74606"></trkpt>
      <trkpt lat="42.140496" lon="24.746221"></trkpt>
      <trkpt lat="42.140651" lon="24.74636"></trkpt>
      <trkpt lat="42.140715" lon="24.746478"></trkpt>
      <trkpt lat="42.140823" lon="24.746372"></trkpt>
      <trkpt lat="42.14092" lon="24.746328"></trkpt>
      <trkpt lat="42.141057" lon="24.746266"></trkpt>
      <trkpt lat="42.141265" lon="24.746183"></trkpt>
      <trkpt lat="42.141291" lon="24.746261"></trkpt>
      <trkpt lat="42.14137" lon="24.746231"></trkpt>
      <trkpt lat="42.14143" lon="24.746208"></trkpt>
      <trkpt lat="42.141491" lon="24.746215"></trkpt>
      <trkpt lat="42.141543" lon="24.746232"></trkpt>
      <trkpt lat="42.141603" lon="24.746259"></trkpt>
      <trkpt lat="42.141654" lon="24.74629"></trkpt>
      <trkpt lat="42.141718" lon="24.74635"></trkpt>
      <trkpt lat="42.141723" lon="24.746382"></trkpt>
      <trkpt lat="42.141737" lon="24.74641"></trkpt>
      <trkpt lat="42.141758" lon="24.746428"></trkpt>
      <trkpt lat="42.141782" lon="24.746434"></trkpt>
      <trkpt lat="42.14186" lon="24.746603"></trkpt>
      <trkpt lat="42.141923" lon="24.74682"></trkpt>
      <trkpt lat="42.141942" lon="24.746962"></trkpt>
      <trkpt lat="42.141957" lon="24.747196"></trkpt>
      <trkpt lat="42.14196" lon="24.747237"></trkpt>
      <trkpt lat="42.141961" lon="24.747521"></trkpt>
      <trkpt lat="42.142002" lon="24.747497"></trkpt>
      <trkpt lat="42.142047" lon="24.747497"></trkpt>
      <trkpt lat="42.142088" lon="24.74752"></trkpt>
      <trkpt lat="42.14212" lon="24.747562"></trkpt>
      <trkpt lat="42.142138" lon="24.747618"></trkpt>
      <trkpt lat="42.142308" lon="24.747618"></trkpt>
      <trkpt lat="42.14274" lon="24.747593"></trkpt>
      <trkpt lat="42.142835" lon="24.747579"></trkpt>
      <trkpt lat="42.143072" lon="24.747545"></trkpt>
      <trkpt lat="42.143101" lon="24.747552"></trkpt>
      <trkpt lat="42.143106" lon="24.747553"></trkpt>
      <trkpt lat="42.143057" lon="24.74785"></trkpt>
      <trkpt lat="42.143207" lon="24.748052"></trkpt>
      <trkpt lat="42.143267" lon="24.748132"></trkpt>
      <trkpt lat="42.143594" lon="24.748508"></trkpt>
      <trkpt lat="42.143632" lon="24.748514"></trkpt>
      <trkpt lat="42.143845" lon="24.748546"></trkpt>
      <trkpt lat="42.143849" lon="24.749098"></trkpt>
      <trkpt lat="42.144117" lon="24.749098"></trkpt>
      <trkpt lat="42.144127" lon="24.749064"></trkpt>
      <trkpt lat="42.144151" lon="24.749031"></trkpt>
      <trkpt lat="42.14418" lon="24.748997"></trkpt>
      <trkpt lat="42.144151" lon="24.749031"></trkpt>
      <trkpt lat="42.144127" lon="24.749064"></trkpt>
      <trkpt lat="42.144117" lon="24.749098"></trkpt>
      <trkpt lat="42.144116" lon="24.749137"></trkpt>
      <trkpt lat="42.144126" lon="24.749194"></trkpt>
      <trkpt lat="42.144144" lon="24.749243"></trkpt>
      <trkpt lat="42.144183" lon="24.74928"></trkpt>
      <trkpt lat="42.144217" lon="24.749294"></trkpt>
      <trkpt lat="42.144223" lon="24.749513"></trkpt>
      <trkpt lat="42.14466" lon="24.749464"></trkpt>
      <trkpt lat="42.145525" lon="24.749095"></trkpt>
      <trkpt lat="42.14561" lon="24.749052"></trkpt>
      <trkpt lat="42.146347" lon="24.748611"></trkpt>
      <trkpt lat="42.146559" lon="24.748487"></trkpt>
      <trkpt lat="42.146918" lon="24.748289"></trkpt>
      <trkpt lat="42.147145" lon="24.748175"></trkpt>
      <trkpt lat="42.14741" lon="24.748145"></trkpt>
      <trkpt lat="42.147453" lon="24.748154"></trkpt>
      <trkpt lat="42.147576" lon="24.748384"></trkpt>
      <trkpt lat="42.147601" lon="24.748408"></trkpt>
      <trkpt lat="42.147679" lon="24.748338"></trkpt>
      <trkpt lat="42.147938" lon="24.748103"></trkpt>
      <trkpt lat="42.147917" lon="24.748089"></trkpt>
      <trkpt lat="42.147781" lon="24.748001"></trkpt>
    </trkseg>
  </trk>
</gpx>
