<?xml version="1.0" encoding="UTF-8"?>
<gpx version="1.1" creator="Open Plovdiv" xmlns="http://www.topografix.com/GPX/1/1">
  <metadata>
    <name>Trakiya: the panel city</name>
  </metadata>
  <wpt lat="42.133087" lon="24.786197">
    <name>1. Trakiya district</name>
  </wpt>
  <wpt lat="42.134193" lon="24.77249">
    <name>2. Lokomotiv Stadium</name>
  </wpt>
  <wpt lat="42.134196" lon="24.76738">
    <name>3. Agricultural University Plovdiv</name>
  </wpt>
  <trk>
    <name>Trakiya: the panel city</name>
    <trkseg>
      <trkpt lat="42.133087" lon="24.786197"></trkpt>
      <trkpt lat="42.133027" lon="24.786057"></trkpt>
      <trkpt lat="42.132845" lon="24.78557"></trkpt>
      <trkpt lat="42.132726" lon="24.785552"></trkpt>
      <trkpt lat="42.132611" lon="24.785205"></trkpt>
      <trkpt lat="42.132491" lon="24.78483"></trkpt>
      <trkpt lat="42.132435" lon="24.784655"></trkpt>
      <trkpt lat="42.132369" lon="24.78441"></trkpt>
      <trkpt lat="42.132257" lon="24.784029"></trkpt>
      <trkpt lat="42.132235" lon="24.783956"></trkpt>
      <trkpt lat="42.132215" lon="24.783877"></trkpt>
      <trkpt lat="42.131954" lon="24.782847"></trkpt>
      <trkpt lat="42.131569" lon="24.780427"></trkpt>
      <trkpt lat="42.131522" lon="24.780287"></trkpt>
      <trkpt lat="42.131477" lon="24.780148"></trkpt>
      <trkpt lat="42.131432" lon="24.779805"></trkpt>
      <trkpt lat="42.131154" lon="24.77779"></trkpt>
      <trkpt lat="42.131214" lon="24.777756"></trkpt>
      <trkpt lat="42.131342" lon="24.777241"></trkpt>
      <trkpt lat="42.131447" lon="24.777009"></trkpt>
      <trkpt lat="42.131536" lon="24.776868"></trkpt>
      <trkpt lat="42.131756" lon="24.776551"></trkpt>
      <trkpt lat="42.131856" lon="24.776409"></trkpt>
      <trkpt lat="42.131925" lon="24.776357"></trkpt>
      <trkpt lat="42.132009" lon="24.776298"></trkpt>
      <trkpt lat="42.132059" lon="24.776271"></trkpt>
      <trkpt lat="42.132142" lon="24.776238"></trkpt>
      <trkpt lat="42.132268" lon="24.776444"></trkpt>
      <trkpt lat="42.13231" lon="24.776328"></trkpt>
      <trkpt lat="42.132361" lon="24.776218"></trkpt>
      <trkpt lat="42.132426" lon="24.776143"></trkpt>
      <trkpt lat="42.132505" lon="24.776076"></trkpt>
      <trkpt lat="42.132587" lon="24.776028"></trkpt>
      <trkpt lat="42.132672" lon="24.776004"></trkpt>
      <trkpt lat="42.133706" lon="24.776039"></trkpt>
      <trkpt lat="42.134128" lon="24.77606"></trkpt>
      <trkpt lat="42.13413" lon="24.775981"></trkpt>
      <trkpt lat="42.134137" lon="24.775852"></trkpt>
      <trkpt lat="42.134144" lon="24.775441"></trkpt>
      <trkpt lat="42.134177" lon="24.77532"></trkpt>
      <trkpt lat="42.134232" lon="24.775225"></trkpt>
      <trkpt lat="42.13429" lon="24.775173"></trkpt>
      <trkpt lat="42.134364" lon="24.775138"></trkpt>
      <trkpt lat="42.13446" lon="24.775122"></trkpt>
      <trkpt lat="42.134547" lon="24.775122"></trkpt>
      <trkpt lat="42.134586" lon="24.775142"></trkpt>
      <trkpt lat="42.134602" lon="24.775097"></trkpt>
      <trkpt lat="42.134637" lon="24.775001"></trkpt>
      <trkpt lat="42.134868" lon="24.774889"></trkpt>
      <trkpt lat="42.135007" lon="24.774807"></trkpt>
      <trkpt lat="42.135506" lon="24.77444"></trkpt>
      <trkpt lat="42.135994" lon="24.774101"></trkpt>
      <trkpt lat="42.135961" lon="24.774009"></trkpt>
      <trkpt lat="42.136168" lon="24.773269"></trkpt>
      <trkpt lat="42.136397" lon="24.772575"></trkpt>
      <trkpt lat="42.136499" lon="24.772264"></trkpt>
      <trkpt lat="42.136573" lon="24.772178"></trkpt>
      <trkpt lat="42.136624" lon="24.772063"></trkpt>
      <trkpt lat="42.136659" lon="24.771927"></trkpt>
      <trkpt lat="42.136664" lon="24.771787"></trkpt>
      <trkpt lat="42.136632" lon="24.771633"></trkpt>
      <trkpt lat="42.136567" lon="24.771461"></trkpt>
      <trkpt lat="42.136382" lon="24.77106"></trkpt>
      <trkpt lat="42.136227" lon="24.770799"></trkpt>
      <trkpt lat="42.136178" lon="24.770699"></trkpt>
      <trkpt lat="42.136159" lon="24.770632"></trkpt>
      <trkpt lat="42.136149" lon="24.770545"></trkpt>
      <trkpt lat="42.136063" lon="24.770538"></trkpt>
      <trkpt lat="42.136023" lon="24.770461"></trkpt>
      <trkpt lat="42.136032" lon="24.770384"></trkpt>
      <trkpt lat="42.135792" lon="24.770307"></trkpt>
      <trkpt lat="42.135714" lon="24.770348"></trkpt>
      <trkpt lat="42.135621" lon="24.770403"></trkpt>
      <trkpt lat="42.135298" lon="24.77059"></trkpt>
      <trkpt lat="42.134988" lon="24.770925"></trkpt>
      <trkpt lat="42.134955" lon="24.771146"></trkpt>
      <trkpt lat="42.134841" lon="24.771907"></trkpt>
      <trkpt lat="42.134813" lon="24.772007"></trkpt>
      <trkpt lat="42.134762" lon="24.772108"></trkpt>
      <trkpt lat="42.134193" lon="24.77249"></trkpt>
      <trkpt lat="42.134762" lon="24.772108"></trkpt>
      <trkpt lat="42.134813" lon="24.772007"></trkpt>
      <trkpt lat="42.134841" lon="24.771907"></trkpt>
      <trkpt lat="42.134955" lon="24.771146"></trkpt>
      <trkpt lat="42.134988" lon="24.770925"></trkpt>
      <trkpt lat="42.135298" lon="24.77059"></trkpt>
      <trkpt lat="42.135621" lon="24.770403"></trkpt>
      <trkpt lat="42.135714" lon="24.770348"></trkpt>
      <trkpt lat="42.135792" lon="24.770307"></trkpt>
      <trkpt lat="42.136015" lon="24.770235"></trkpt>
      <trkpt lat="42.136052" lon="24.770224"></trkpt>
      <trkpt lat="42.13606" lon="24.770158"></trkpt>
      <trkpt lat="42.136067" lon="24.770081"></trkpt>
      <trkpt lat="42.136155" lon="24.770017"></trkpt>
      <trkpt lat="42.136228" lon="24.770051"></trkpt>
      <trkpt lat="42.136268" lon="24.769992"></trkpt>
      <trkpt lat="42.136614" lon="24.76978"></trkpt>
      <trkpt lat="42.136648" lon="24.769748"></trkpt>
      <trkpt lat="42.13679" lon="24.769657"></trkpt>
      <trkpt lat="42.137246" lon="24.769366"></trkpt>
      <trkpt lat="42.137296" lon="24.769331"></trkpt>
      <trkpt lat="42.137196" lon="24.76905"></trkpt>
      <trkpt lat="42.136753" lon="24.767803"></trkpt>
      <trkpt lat="42.136664" lon="24.767589"></trkpt>
      <trkpt lat="42.135914" lon="24.768064"></trkpt>
      <trkpt lat="42.135689" lon="24.768202"></trkpt>
      <trkpt lat="42.134676" lon="24.768796"></trkpt>
      <trkpt lat="42.134434" lon="24.768083"></trkpt>
      <trkpt lat="42.134332" lon="24.767781"></trkpt>
      <trkpt lat="42.134196" lon="24.76738"></trkpt>
    </trkseg>
  </trk>
</gpx>
