<?xml version="1.0" encoding="UTF-8"?>
<gpx version="1.1" creator="Open Plovdiv" xmlns="http://www.topografix.com/GPX/1/1">
  <metadata>
    <name>Unification and civic memory</name>
  </metadata>
  <wpt lat="42.151387" lon="24.744709">
    <name>1. Unification square, Plovdiv</name>
  </wpt>
  <wpt lat="42.14208" lon="24.74137">
    <name>2. Plovdiv</name>
  </wpt>
  <wpt lat="42.149817" lon="24.752687">
    <name>3. The Old Town (Old Plovdiv)</name>
  </wpt>
  <trk>
    <name>Unification and civic memory</name>
    <trkseg>
      <trkpt lat="42.151387" lon="24.744709"></trkpt>
      <trkpt lat="42.151401" lon="24.7447"></trkpt>
      <trkpt lat="42.151447" lon="24.744855"></trkpt>
      <trkpt lat="42.151095" lon="24.745025"></trkpt>
      <trkpt lat="42.150939" lon="24.744495"></trkpt>
      <trkpt lat="42.150908" lon="24.744396"></trkpt>
      <trkpt lat="42.150866" lon="24.744298"></trkpt>
      <trkpt lat="42.150826" lon="24.744213"></trkpt>
      <trkpt lat="42.150676" lon="24.743942"></trkpt>
      <trkpt lat="42.150551" lon="24.743708"></trkpt>
      <trkpt lat="42.150499" lon="24.743758"></trkpt>
      <trkpt lat="42.150453" lon="24.743803"></trkpt>
      <trkpt lat="42.150425" lon="24.743831"></trkpt>
      <trkpt lat="42.150389" lon="24.743836"></trkpt>
      <trkpt lat="42.150343" lon="24.743842"></trkpt>
      <trkpt lat="42.150257" lon="24.743792"></trkpt>
      <trkpt lat="42.150228" lon="24.743759"></trkpt>
      <trkpt lat="42.149944" lon="24.743444"></trkpt>
      <trkpt lat="42.149913" lon="24.74341"></trkpt>
      <trkpt lat="42.149867" lon="24.743356"></trkpt>
      <trkpt lat="42.149742" lon="24.743234"></trkpt>
      <trkpt lat="42.149755" lon="24.743189"></trkpt>
      <trkpt lat="42.149759" lon="24.743131"></trkpt>
      <trkpt lat="42.149748" lon="24.743075"></trkpt>
      <trkpt lat="42.149724" lon="24.743027"></trkpt>
      <trkpt lat="42.149689" lon="24.742992"></trkpt>
      <trkpt lat="42.149674" lon="24.742987"></trkpt>
      <trkpt lat="42.149648" lon="24.742976"></trkpt>
      <trkpt lat="42.149604" lon="24.74298"></trkpt>
      <trkpt lat="42.149517" lon="24.742652"></trkpt>
      <trkpt lat="42.149435" lon="24.74246"></trkpt>
      <trkpt lat="42.149419" lon="24.742422"></trkpt>
      <trkpt lat="42.14932" lon="24.742267"></trkpt>
      <trkpt lat="42.149274" lon="24.742195"></trkpt>
      <trkpt lat="42.14897" lon="24.742029"></trkpt>
      <trkpt lat="42.148628" lon="24.742009"></trkpt>
      <trkpt lat="42.148534" lon="24.741939"></trkpt>
      <trkpt lat="42.148423" lon="24.741852"></trkpt>
      <trkpt lat="42.148315" lon="24.741775"></trkpt>
      <trkpt lat="42.147877" lon="24.741782"></trkpt>
      <trkpt lat="42.147442" lon="24.741762"></trkpt>
      <trkpt lat="42.147344" lon="24.741737"></trkpt>
      <trkpt lat="42.147346" lon="24.741465"></trkpt>
      <trkpt lat="42.147346" lon="24.741438"></trkpt>
      <trkpt lat="42.147346" lon="24.741411"></trkpt>
      <trkpt lat="42.14733" lon="24.741411"></trkpt>
      <trkpt lat="42.14733" lon="24.741383"></trkpt>
      <trkpt lat="42.14733" lon="24.741354"></trkpt>
      <trkpt lat="42.147345" lon="24.741354"></trkpt>
      <trkpt lat="42.147345" lon="24.741334"></trkpt>
      <trkpt lat="42.147345" lon="24.741085"></trkpt>
      <trkpt lat="42.147344" lon="24.741035"></trkpt>
      <trkpt lat="42.147293" lon="24.741044"></trkpt>
      <trkpt lat="42.147267" lon="24.741067"></trkpt>
      <trkpt lat="42.147232" lon="24.74107"></trkpt>
      <trkpt lat="42.147181" lon="24.741069"></trkpt>
      <trkpt lat="42.147147" lon="24.741065"></trkpt>
      <trkpt lat="42.147142" lon="24.740964"></trkpt>
      <trkpt lat="42.14714" lon="24.740886"></trkpt>
      <trkpt lat="42.147125" lon="24.740888"></trkpt>
      <trkpt lat="42.145751" lon="24.74104"></trkpt>
      <trkpt lat="42.145119" lon="24.741113"></trkpt>
      <trkpt lat="42.144524" lon="24.741208"></trkpt>
      <trkpt lat="42.144473" lon="24.741216"></trkpt>
      <trkpt lat="42.143862" lon="24.74129"></trkpt>
      <trkpt lat="42.143286" lon="24.74136"></trkpt>
      <trkpt lat="42.142248" lon="24.741473"></trkpt>
      <trkpt lat="42.142182" lon="24.74148"></trkpt>
      <trkpt lat="42.14217" lon="24.741358"></trkpt>
      <trkpt lat="42.14208" lon="24.74137"></trkpt>
      <trkpt lat="42.142048" lon="24.741374"></trkpt>
      <trkpt lat="42.141973" lon="24.741381"></trkpt>
      <trkpt lat="42.141978" lon="24.741491"></trkpt>
      <trkpt lat="42.141991" lon="24.741597"></trkpt>
      <trkpt lat="42.141998" lon="24.741718"></trkpt>
      <trkpt lat="42.142058" lon="24.741807"></trkpt>
      <trkpt lat="42.142096" lon="24.74207"></trkpt>
      <trkpt lat="42.142159" lon="24.742511"></trkpt>
      <trkpt lat="42.142316" lon="24.743371"></trkpt>
      <trkpt lat="42.142372" lon="24.743647"></trkpt>
      <trkpt lat="42.142562" lon="24.744582"></trkpt>
      <trkpt lat="42.142724" lon="24.745366"></trkpt>
      <trkpt lat="42.142792" lon="24.745335"></trkpt>
      <trkpt lat="42.142844" lon="24.745467"></trkpt>
      <trkpt lat="42.14292" lon="24.745745"></trkpt>
      <trkpt lat="42.142965" lon="24.745786"></trkpt>
      <trkpt lat="42.142985" lon="24.745797"></trkpt>
      <trkpt lat="42.143003" lon="24.745801"></trkpt>
      <trkpt lat="42.143008" lon="24.745864"></trkpt>
      <trkpt lat="42.143011" lon="24.745909"></trkpt>
      <trkpt lat="42.143062" lon="24.746176"></trkpt>
      <trkpt lat="42.143219" lon="24.746949"></trkpt>
      <trkpt lat="42.143315" lon="24.747317"></trkpt>
      <trkpt lat="42.143495" lon="24.747477"></trkpt>
      <trkpt lat="42.143533" lon="24.747577"></trkpt>
      <trkpt lat="42.143578" lon="24.747614"></trkpt>
      <trkpt lat="42.143699" lon="24.747718"></trkpt>
      <trkpt lat="42.144228" lon="24.748205"></trkpt>
      <trkpt lat="42.144161" lon="24.748442"></trkpt>
      <trkpt lat="42.144306" lon="24.748738"></trkpt>
      <trkpt lat="42.14444" lon="24.749011"></trkpt>
      <trkpt lat="42.14466" lon="24.749464"></trkpt>
      <trkpt lat="42.145525" lon="24.749095"></trkpt>
      <trkpt lat="42.145611" lon="24.749289"></trkpt>
      <trkpt lat="42.146499" lon="24.749133"></trkpt>
      <trkpt lat="42.147101" lon="24.748888"></trkpt>
      <trkpt lat="42.147331" lon="24.748783"></trkpt>
      <trkpt lat="42.147393" lon="24.74877"></trkpt>
      <trkpt lat="42.147511" lon="24.748819"></trkpt>
      <trkpt lat="42.147828" lon="24.748953"></trkpt>
      <trkpt lat="42.147883" lon="24.748976"></trkpt>
      <trkpt lat="42.14797" lon="24.749075"></trkpt>
      <trkpt lat="42.14801" lon="24.749215"></trkpt>
      <trkpt lat="42.148062" lon="24.749735"></trkpt>
      <trkpt lat="42.147989" lon="24.749848"></trkpt>
      <trkpt lat="42.147773" lon="24.750331"></trkpt>
      <trkpt lat="42.147674" lon="24.750551"></trkpt>
      <trkpt lat="42.147732" lon="24.750985"></trkpt>
      <trkpt lat="42.147771" lon="24.751404"></trkpt>
      <trkpt lat="42.148223" lon="24.751691"></trkpt>
      <trkpt lat="42.148404" lon="24.751707"></trkpt>
      <trkpt lat="42.148542" lon="24.751852"></trkpt>
      <trkpt lat="42.148849" lon="24.752106"></trkpt>
      <trkpt lat="42.149068" lon="24.752201"></trkpt>
      <trkpt lat="42.149394" lon="24.752438"></trkpt>
      <trkpt lat="42.149472" lon="24.75249"></trkpt>
      <trkpt lat="42.149817" lon="24.752687"></trkpt>
    </trkseg>
  </trk>
</gpx>
